,objectId,geoPosition,countryCode,postalCode,placeName,adminName1,adminCode1,adminName2,adminCode2,adminName3,adminCode3,accuracy,createdAt,updatedAt
0,1,"{'__type': 'GeoPoint', 'latitude': 32.9708, 'longitude': 73.9806}",PK,10031,Maloot,Norhern Punajb Rawalpindi,,,,,,,2020-02-21T22:46:01.247Z,2020-02-21T22:46:01.247Z
1,2,"{'__type': 'GeoPoint', 'latitude': 31.0833, 'longitude': 72.55}",PK,10041,Dab Sandoha,Norhern Punajb Rawalpindi,,,,,,,2020-02-21T22:46:01.247Z,2020-02-21T22:46:01.247Z
2,3,"{'__type': 'GeoPoint', 'latitude': 28.0333, 'longitude': 66.4333}",PK,10021,Malki,Norhern Punajb Rawalpindi,,,,,,4,2020-02-21T22:46:01.247Z,2020-02-21T22:46:01.247Z
3,4,"{'__type': 'GeoPoint', 'latitude': 32.9708, 'longitude': 73.9806}",PK,10031,Mangloora,Norhern Punajb Rawalpindi,,,,,,,2020-02-21T22:46:01.247Z,2020-02-21T22:46:01.247Z
4,5,"{'__type': 'GeoPoint', 'latitude': 32.9708, 'longitude': 73.9806}",PK,10030,Bharing (A.K),Norhern Punajb Rawalpindi,,,,,,,2020-02-21T22:46:01.247Z,2020-02-21T22:46:01.247Z
5,6,"{'__type': 'GeoPoint', 'latitude': 32.9708, 'longitude': 73.9806}",PK,10031,Khaliq Nagar,Norhern Punajb Rawalpindi,,,,,,,2020-02-21T22:46:01.247Z,2020-02-21T22:46:01.247Z
6,7,"{'__type': 'GeoPoint', 'latitude': 27.8431, 'longitude': 67.6604}",PK,10021,Ahla,Norhern Punajb Rawalpindi,,,,,,,2020-02-21T22:46:01.247Z,2020-02-21T22:46:01.247Z
7,8,"{'__type': 'GeoPoint', 'latitude': 27.8431, 'longitude': 67.6604}",PK,10021,Gherara,Norhern Punajb Rawalpindi,,,,,,,2020-02-21T22:46:01.247Z,2020-02-21T22:46:01.247Z
8,9,"{'__type': 'GeoPoint', 'latitude': 32.9278, 'longitude': 74.1722}",PK,10031,Kangra,Norhern Punajb Rawalpindi,,,,,,4,2020-02-21T22:46:01.247Z,2020-02-21T22:46:01.247Z
9,10,"{'__type': 'GeoPoint', 'latitude': 30.7819, 'longitude': 71.6511}",PK,10010,Watala,Norhern Punajb Rawalpindi,,,,,,,2020-02-21T22:46:01.246Z,2020-02-21T22:46:01.246Z
10,11,"{'__type': 'GeoPoint', 'latitude': 27.6528, 'longitude': 68.8875}",PK,10021,Patni,Norhern Punajb Rawalpindi,,,,,,4,2020-02-21T22:46:01.247Z,2020-02-21T22:46:01.247Z
11,12,"{'__type': 'GeoPoint', 'latitude': 31.0833, 'longitude': 72.55}",PK,10041,Sokasan,Norhern Punajb Rawalpindi,,,,,,,2020-02-21T22:46:01.247Z,2020-02-21T22:46:01.247Z
12,13,"{'__type': 'GeoPoint', 'latitude': 32.9708, 'longitude': 73.9806}",PK,10034,Kadhala,Norhern Punajb Rawalpindi,,,,,,,2020-02-21T22:46:01.247Z,2020-02-21T22:46:01.247Z
13,14,"{'__type': 'GeoPoint', 'latitude': 30.7819, 'longitude': 71.6511}",PK,10011,Saryala Chappar,Norhern Punajb Rawalpindi,,,,,,,2020-02-21T22:46:01.246Z,2020-02-21T22:46:01.246Z
14,15,"{'__type': 'GeoPoint', 'latitude': 31.6333, 'longitude': 73.1}",PK,10020,Barnala,Norhern Punajb Rawalpindi,,,,,,,2020-02-21T22:46:01.247Z,2020-02-21T22:46:01.247Z
15,16,"{'__type': 'GeoPoint', 'latitude': 27.8431, 'longitude': 67.6604}",PK,10021,Thub,Norhern Punajb Rawalpindi,,,,,,,2020-02-21T22:46:01.247Z,2020-02-21T22:46:01.247Z
16,17,"{'__type': 'GeoPoint', 'latitude': 32.9708, 'longitude': 73.9806}",PK,10031,Mora Sadha,Norhern Punajb Rawalpindi,,,,,,,2020-02-21T22:46:01.247Z,2020-02-21T22:46:01.247Z
17,18,"{'__type': 'GeoPoint', 'latitude': 33.0139, 'longitude': 73.7889}",PK,10031,Barsali,Norhern Punajb Rawalpindi,,,,,,4,2020-02-21T22:46:01.247Z,2020-02-21T22:46:01.247Z
18,19,"{'__type': 'GeoPoint', 'latitude': 32.9833, 'longitude': 74.0667}",PK,10040,Bhimber,Norhern Punajb Rawalpindi,,,,,,4,2020-02-21T22:46:01.247Z,2020-02-21T22:46:01.247Z
19,20,"{'__type': 'GeoPoint', 'latitude': 31.0833, 'longitude': 72.55}",PK,10041,Randian,Norhern Punajb Rawalpindi,,,,,,4,2020-02-21T22:46:01.247Z,2020-02-21T22:46:01.247Z
20,21,"{'__type': 'GeoPoint', 'latitude': 31.0833, 'longitude': 72.55}",PK,10041,Jandi Chountra,Norhern Punajb Rawalpindi,,,,,,,2020-02-21T22:46:02.132Z,2020-02-21T22:46:02.132Z
21,22,"{'__type': 'GeoPoint', 'latitude': 33.1908, 'longitude': 73.1172}",PK,10101,Dhal Khumba,Norhern Punajb Rawalpindi,,,,,,,2020-02-21T22:46:02.132Z,2020-02-21T22:46:02.132Z
22,23,"{'__type': 'GeoPoint', 'latitude': 31.0833, 'longitude': 72.55}",PK,10041,Daoora,Norhern Punajb Rawalpindi,,,,,,,2020-02-21T22:46:02.132Z,2020-02-21T22:46:02.132Z
23,24,"{'__type': 'GeoPoint', 'latitude': 30.7819, 'longitude': 71.6511}",PK,10051,Baghsar,Norhern Punajb Rawalpindi,,,,,,,2020-02-21T22:46:02.132Z,2020-02-21T22:46:02.132Z
24,25,"{'__type': 'GeoPoint', 'latitude': 30.7819, 'longitude': 71.6511}",PK,10060,Sammani,Norhern Punajb Rawalpindi,,,,,,,2020-02-21T22:46:02.132Z,2020-02-21T22:46:02.132Z
25,26,"{'__type': 'GeoPoint', 'latitude': 33.1556, 'longitude': 74.0972}",PK,10081,Dana,Norhern Punajb Rawalpindi,,,,,,,2020-02-21T22:46:02.132Z,2020-02-21T22:46:02.132Z
26,27,"{'__type': 'GeoPoint', 'latitude': 30.7819, 'longitude': 71.6511}",PK,10061,Darhal Gaggan,Norhern Punajb Rawalpindi,,,,,,,2020-02-21T22:46:02.132Z,2020-02-21T22:46:02.132Z
27,28,"{'__type': 'GeoPoint', 'latitude': 30.65, 'longitude': 70.7167}",PK,10061,Bindi,Norhern Punajb Rawalpindi,,,,,,,2020-02-21T22:46:02.132Z,2020-02-21T22:46:02.132Z
28,29,"{'__type': 'GeoPoint', 'latitude': 30.7819, 'longitude': 71.6511}",PK,10050,Bangla Sadabad,Norhern Punajb Rawalpindi,,,,,,,2020-02-21T22:46:02.132Z,2020-02-21T22:46:02.132Z
29,30,"{'__type': 'GeoPoint', 'latitude': 34.1792, 'longitude': 73.7389}",PK,10101,Khanda,Norhern Punajb Rawalpindi,,,,,,4,2020-02-21T22:46:02.132Z,2020-02-21T22:46:02.132Z
30,31,"{'__type': 'GeoPoint', 'latitude': 31.4736, 'longitude': 74.2431}",PK,10250,Mirpur City P.O,Federal Capial &AJK,,,,,,,2020-02-21T22:46:02.132Z,2020-02-21T22:46:02.132Z
31,32,"{'__type': 'GeoPoint', 'latitude': 31.4736, 'longitude': 74.2431}",PK,10230,Chitter Pari (Ak),Federal Capial &AJK,,,,,,,2020-02-21T22:46:02.132Z,2020-02-21T22:46:02.132Z
32,33,"{'__type': 'GeoPoint', 'latitude': 25.0261, 'longitude': 66.8833}",PK,10080,Chowki,Norhern Punajb Rawalpindi,,,,,,4,2020-02-21T22:46:02.132Z,2020-02-21T22:46:02.132Z
33,34,"{'__type': 'GeoPoint', 'latitude': 31.4736, 'longitude': 74.2431}",PK,10200,Mangla Dam,Federal Capial &AJK,,,,,,,2020-02-21T22:46:02.132Z,2020-02-21T22:46:02.132Z
34,35,"{'__type': 'GeoPoint', 'latitude': 32.2025, 'longitude': 72.4956}",PK,10101,Haripur,Norhern Punajb Rawalpindi,,,,,,4,2020-02-21T22:46:02.132Z,2020-02-21T22:46:02.132Z
35,36,"{'__type': 'GeoPoint', 'latitude': 33.4574, 'longitude': 73.2244}",PK,10301,Potha Bungish,Federal Capial &AJK,,,,,,,2020-02-21T22:46:02.606Z,2020-02-21T22:46:02.606Z
36,37,"{'__type': 'GeoPoint', 'latitude': 31.4736, 'longitude': 74.2431}",PK,10250,Mirpur Agency Npo,Federal Capial &AJK,,,,,,,2020-02-21T22:46:02.606Z,2020-02-21T22:46:02.606Z
37,38,"{'__type': 'GeoPoint', 'latitude': 31.4736, 'longitude': 74.2431}",PK,10251,Khurmanabad,Federal Capial &AJK,,,,,,,2020-02-21T22:46:02.606Z,2020-02-21T22:46:02.606Z
38,39,"{'__type': 'GeoPoint', 'latitude': 31.4736, 'longitude': 74.2431}",PK,10251,Chandrali,Federal Capial &AJK,,,,,,,2020-02-21T22:46:02.606Z,2020-02-21T22:46:02.606Z
39,40,"{'__type': 'GeoPoint', 'latitude': 31.5083, 'longitude': 74.2689}",PK,10251,Kharak,Federal Capial &AJK,,,,,,4,2020-02-21T22:46:02.606Z,2020-02-21T22:46:02.606Z
40,41,"{'__type': 'GeoPoint', 'latitude': 34.1078, 'longitude': 71.1414}",PK,10311,Kandore,Federal Capial &AJK,,,,,,4,2020-02-21T22:46:02.606Z,2020-02-21T22:46:02.606Z
41,42,"{'__type': 'GeoPoint', 'latitude': 31.4389, 'longitude': 74.2172}",PK,10251,Khaliqabad,Federal Capial &AJK,,,,,,4,2020-02-21T22:46:02.606Z,2020-02-21T22:46:02.606Z
42,43,"{'__type': 'GeoPoint', 'latitude': 34.1078, 'longitude': 71.1414}",PK,10311,Samlotha,Federal Capial &AJK,,,,,,,2020-02-21T22:46:02.606Z,2020-02-21T22:46:02.606Z
43,44,"{'__type': 'GeoPoint', 'latitude': 33.4574, 'longitude': 73.2244}",PK,10300,Siakh,Federal Capial &AJK,,,,,,,2020-02-21T22:46:02.606Z,2020-02-21T22:46:02.606Z
44,45,"{'__type': 'GeoPoint', 'latitude': 34.1078, 'longitude': 71.1414}",PK,10310,Khadimabad (A.K.),Federal Capial &AJK,,,,,,,2020-02-21T22:46:02.606Z,2020-02-21T22:46:02.606Z
45,46,"{'__type': 'GeoPoint', 'latitude': 33.4574, 'longitude': 73.2244}",PK,10360,Afzal Pur,Federal Capial &AJK,,,,,,,2020-02-21T22:46:02.606Z,2020-02-21T22:46:02.606Z
46,47,"{'__type': 'GeoPoint', 'latitude': 34.4136, 'longitude': 72.9211}",PK,10321,Batli,Federal Capial &AJK,,,,,,4,2020-02-21T22:46:02.606Z,2020-02-21T22:46:02.606Z
47,48,"{'__type': 'GeoPoint', 'latitude': 33.4574, 'longitude': 73.2244}",PK,10301,Bheli,Federal Capial &AJK,,,,,,,2020-02-21T22:46:02.606Z,2020-02-21T22:46:02.606Z
48,49,"{'__type': 'GeoPoint', 'latitude': 33.4574, 'longitude': 73.2244}",PK,10361,Janglian Kotla,Federal Capial &AJK,,,,,,,2020-02-21T22:46:02.606Z,2020-02-21T22:46:02.606Z
49,50,"{'__type': 'GeoPoint', 'latitude': 33.4574, 'longitude': 73.2244}",PK,10350,Chechian (Ak),Federal Capial &AJK,,,,,,,2020-02-21T22:46:02.606Z,2020-02-21T22:46:02.606Z
50,51,"{'__type': 'GeoPoint', 'latitude': 33.1908, 'longitude': 73.1172}",PK,10100,Poona,Norhern Punajb Rawalpindi,,,,,,,2020-02-21T22:46:02.132Z,2020-02-21T22:46:02.132Z
51,52,"{'__type': 'GeoPoint', 'latitude': 33.4574, 'longitude': 73.2244}",PK,10361,Sanwal Sharif,Federal Capial &AJK,,,,,,,2020-02-21T22:46:02.606Z,2020-02-21T22:46:02.606Z
52,53,"{'__type': 'GeoPoint', 'latitude': 34.4136, 'longitude': 72.9211}",PK,10320,Chhattroh,Federal Capial &AJK,,,,,,,2020-02-21T22:46:02.606Z,2020-02-21T22:46:02.606Z
53,54,"{'__type': 'GeoPoint', 'latitude': 33.0118, 'longitude': 73.8604}",PK,10380,Jatli (Ak),Federal Capial &AJK,,,,,,,2020-02-21T22:46:02.606Z,2020-02-21T22:46:02.606Z
54,55,"{'__type': 'GeoPoint', 'latitude': 33.0118, 'longitude': 73.8604}",PK,10381,Sohang,Federal Capial &AJK,,,,,,,2020-02-21T22:46:02.886Z,2020-02-21T22:46:02.886Z
55,56,"{'__type': 'GeoPoint', 'latitude': 33.6333, 'longitude': 73.0667}",PK,10370,Banni,Federal Capial &AJK,,,,,,4,2020-02-21T22:46:02.606Z,2020-02-21T22:46:02.606Z
56,57,"{'__type': 'GeoPoint', 'latitude': 33.0111, 'longitude': 73.8694}",PK,10381,Ali Beg,Federal Capial &AJK,,,,,,4,2020-02-21T22:46:02.886Z,2020-02-21T22:46:02.886Z
57,58,"{'__type': 'GeoPoint', 'latitude': 33.0583, 'longitude': 73.8972}",PK,10381,Kalri,Federal Capial &AJK,,,,,,4,2020-02-21T22:46:02.606Z,2020-02-21T22:46:02.606Z
58,59,"{'__type': 'GeoPoint', 'latitude': 33.1556, 'longitude': 74.0972}",PK,10081,Baroh,Norhern Punajb Rawalpindi,,,,,,4,2020-02-21T22:46:02.132Z,2020-02-21T22:46:02.132Z
59,60,"{'__type': 'GeoPoint', 'latitude': 33.0118, 'longitude': 73.8604}",PK,10381,Sukh Chainpur,Federal Capial &AJK,,,,,,,2020-02-21T22:46:02.886Z,2020-02-21T22:46:02.886Z
60,61,"{'__type': 'GeoPoint', 'latitude': 31.4736, 'longitude': 74.2431}",PK,10250,Mirpur Gpo,Federal Capial &AJK,,,,,,,2020-02-21T22:46:02.132Z,2020-02-21T22:46:02.132Z
61,62,"{'__type': 'GeoPoint', 'latitude': 32.1667, 'longitude': 73.0741}",PK,10460,Dhamawa,Federal Capial &AJK,,,,,,,2020-02-21T22:46:02.888Z,2020-02-21T22:46:02.888Z
62,63,"{'__type': 'GeoPoint', 'latitude': 33.1611, 'longitude': 73.9806}",PK,10070,Barjah,Norhern Punajb Rawalpindi,,,,,,4,2020-02-21T22:46:02.132Z,2020-02-21T22:46:02.132Z
63,64,"{'__type': 'GeoPoint', 'latitude': 33.0167, 'longitude': 73.9167}",PK,10400,Panjeri,Federal Capial &AJK,,,,,,4,2020-02-21T22:46:02.887Z,2020-02-21T22:46:02.887Z
64,65,"{'__type': 'GeoPoint', 'latitude': 33.0167, 'longitude': 73.9167}",PK,10401,Fakrot,Federal Capial &AJK,,,,,,,2020-02-21T22:46:02.887Z,2020-02-21T22:46:02.887Z
65,66,"{'__type': 'GeoPoint', 'latitude': 33.0167, 'longitude': 73.9167}",PK,10401,Jhailla,Federal Capial &AJK,,,,,,,2020-02-21T22:46:02.887Z,2020-02-21T22:46:02.887Z
66,67,"{'__type': 'GeoPoint', 'latitude': 32.9333, 'longitude': 73.7833}",PK,10381,Rahian,Federal Capial &AJK,,,,,,4,2020-02-21T22:46:02.886Z,2020-02-21T22:46:02.886Z
67,68,"{'__type': 'GeoPoint', 'latitude': 33.0444, 'longitude': 73.8917}",PK,10381,Gora Nakka,Federal Capial &AJK,,,,,,4,2020-02-21T22:46:02.886Z,2020-02-21T22:46:02.886Z
68,69,"{'__type': 'GeoPoint', 'latitude': 33.0167, 'longitude': 73.9167}",PK,10401,Gurha Kunjal,Federal Capial &AJK,,,,,,,2020-02-21T22:46:02.888Z,2020-02-21T22:46:02.888Z
69,70,"{'__type': 'GeoPoint', 'latitude': 30, 'longitude': 71.8833}",PK,10481,Sanyah,Federal Capial &AJK,,,,,,,2020-02-21T22:46:02.888Z,2020-02-21T22:46:02.888Z
70,71,"{'__type': 'GeoPoint', 'latitude': 33.4833, 'longitude': 73.4222}",PK,10471,Kalyal Bainsi,Federal Capial &AJK,,,,,,,2020-02-21T22:46:02.888Z,2020-02-21T22:46:02.888Z
71,72,"{'__type': 'GeoPoint', 'latitude': 30, 'longitude': 71.8833}",PK,10480,Jatti Dheri,Federal Capial &AJK,,,,,,,2020-02-21T22:46:02.888Z,2020-02-21T22:46:02.888Z
72,73,"{'__type': 'GeoPoint', 'latitude': 33.4833, 'longitude': 73.4222}",PK,10471,Mawa,Federal Capial &AJK,,,,,,4,2020-02-21T22:46:02.888Z,2020-02-21T22:46:02.888Z
73,74,"{'__type': 'GeoPoint', 'latitude': 33.4833, 'longitude': 73.4222}",PK,10470,Akal Garh,Federal Capial &AJK,,,,,,,2020-02-21T22:46:02.888Z,2020-02-21T22:46:02.888Z
74,75,"{'__type': 'GeoPoint', 'latitude': 33.2806, 'longitude': 73.7639}",PK,10501,Kanel,Federal Capial &AJK,,,,,,,2020-02-21T22:46:03.276Z,2020-02-21T22:46:03.276Z
75,76,"{'__type': 'GeoPoint', 'latitude': 30, 'longitude': 71.8833}",PK,10481,Sehar,Federal Capial &AJK,,,,,,4,2020-02-21T22:46:02.888Z,2020-02-21T22:46:02.888Z
76,77,"{'__type': 'GeoPoint', 'latitude': 32.1667, 'longitude': 73.0741}",PK,10490,Boha Dhangri (Ak),Federal Capial &AJK,,,,,,,2020-02-21T22:46:03.275Z,2020-02-21T22:46:03.275Z
77,78,"{'__type': 'GeoPoint', 'latitude': 33.2806, 'longitude': 73.7639}",PK,10501,Panwam,Federal Capial &AJK,,,,,,,2020-02-21T22:46:03.276Z,2020-02-21T22:46:03.276Z
78,79,"{'__type': 'GeoPoint', 'latitude': 32.1667, 'longitude': 73.0741}",PK,10450,Potha Bainsi,Federal Capial &AJK,,,,,,,2020-02-21T22:46:02.888Z,2020-02-21T22:46:02.888Z
79,80,"{'__type': 'GeoPoint', 'latitude': 32.1667, 'longitude': 73.0741}",PK,10491,Asif Abad,Federal Capial &AJK,,,,,,,2020-02-21T22:46:03.275Z,2020-02-21T22:46:03.275Z
80,81,"{'__type': 'GeoPoint', 'latitude': 33.5564, 'longitude': 73.3889}",PK,10521,Perahi,Federal Capial &AJK,,,,,,,2020-02-21T22:46:03.276Z,2020-02-21T22:46:03.276Z
81,82,"{'__type': 'GeoPoint', 'latitude': 33.2472, 'longitude': 73.7833}",PK,10500,Chak Sawari,Federal Capial &AJK,,,,,,4,2020-02-21T22:46:03.276Z,2020-02-21T22:46:03.276Z
82,83,"{'__type': 'GeoPoint', 'latitude': 33.5564, 'longitude': 73.3889}",PK,10521,Khan Abad,Federal Capial &AJK,,,,,,,2020-02-21T22:46:03.276Z,2020-02-21T22:46:03.276Z
83,84,"{'__type': 'GeoPoint', 'latitude': 33.7739, 'longitude': 72.9792}",PK,10521,Rajdhani,Federal Capial &AJK,,,,,,4,2020-02-21T22:46:03.276Z,2020-02-21T22:46:03.276Z
84,85,"{'__type': 'GeoPoint', 'latitude': 30.4833, 'longitude': 71.9}",PK,10530,Dadyal Khurd,Federal Capial &AJK,,,,,,,2020-02-21T22:46:03.276Z,2020-02-21T22:46:03.276Z
85,86,"{'__type': 'GeoPoint', 'latitude': 33.5564, 'longitude': 73.3889}",PK,10520,Palak (A.K.),Federal Capial &AJK,,,,,,,2020-02-21T22:46:03.276Z,2020-02-21T22:46:03.276Z
86,87,"{'__type': 'GeoPoint', 'latitude': 33.2806, 'longitude': 73.7639}",PK,10501,Pind Kalan,Federal Capial &AJK,,,,,,4,2020-02-21T22:46:03.276Z,2020-02-21T22:46:03.276Z
87,88,"{'__type': 'GeoPoint', 'latitude': 33.0167, 'longitude': 73.9167}",PK,10401,Chhanni Kuntal,Federal Capial &AJK,,,,,,,2020-02-21T22:46:02.888Z,2020-02-21T22:46:02.888Z
88,89,"{'__type': 'GeoPoint', 'latitude': 33.1556, 'longitude': 74.0972}",PK,10081,Toneen,Norhern Punajb Rawalpindi,,,,,,,2020-02-21T22:46:02.132Z,2020-02-21T22:46:02.132Z
89,90,"{'__type': 'GeoPoint', 'latitude': 33.1992, 'longitude': 72.1322}",PK,10451,Thathi,Federal Capial &AJK,,,,,,,2020-02-21T22:46:02.888Z,2020-02-21T22:46:02.888Z
90,91,"{'__type': 'GeoPoint', 'latitude': 33.0118, 'longitude': 73.8604}",PK,10381,Khadora Kalan,Federal Capial &AJK,,,,,,,2020-02-21T22:46:02.886Z,2020-02-21T22:46:02.886Z
91,92,"{'__type': 'GeoPoint', 'latitude': 30.4833, 'longitude': 71.9}",PK,10531,Balloh,Federal Capial &AJK,,,,,,,2020-02-21T22:46:03.276Z,2020-02-21T22:46:03.276Z
92,93,"{'__type': 'GeoPoint', 'latitude': 33.5564, 'longitude': 73.3889}",PK,10521,Chowk Sahiban,Federal Capial &AJK,,,,,,,2020-02-21T22:46:03.276Z,2020-02-21T22:46:03.276Z
93,94,"{'__type': 'GeoPoint', 'latitude': 30.4833, 'longitude': 71.9}",PK,10531,Haveli Begal,Federal Capial &AJK,,,,,,,2020-02-21T22:46:03.276Z,2020-02-21T22:46:03.276Z
94,95,"{'__type': 'GeoPoint', 'latitude': 33.5564, 'longitude': 73.3889}",PK,10521,Doliah Jattan,Federal Capial &AJK,,,,,,,2020-02-21T22:46:03.276Z,2020-02-21T22:46:03.276Z
95,96,"{'__type': 'GeoPoint', 'latitude': 30.4833, 'longitude': 71.9}",PK,10531,Onah,Federal Capial &AJK,,,,,,,2020-02-21T22:46:03.276Z,2020-02-21T22:46:03.276Z
96,97,"{'__type': 'GeoPoint', 'latitude': 30.4833, 'longitude': 71.9}",PK,10531,Raipur,Federal Capial &AJK,,,,,,4,2020-02-21T22:46:03.276Z,2020-02-21T22:46:03.276Z
97,98,"{'__type': 'GeoPoint', 'latitude': 33.3389, 'longitude': 73.7986}",PK,10521,Jarahi,Federal Capial &AJK,,,,,,4,2020-02-21T22:46:03.276Z,2020-02-21T22:46:03.276Z
98,99,"{'__type': 'GeoPoint', 'latitude': 30.4833, 'longitude': 71.9}",PK,10531,Thub,Federal Capial &AJK,,,,,,,2020-02-21T22:46:03.276Z,2020-02-21T22:46:03.276Z
99,100,"{'__type': 'GeoPoint', 'latitude': 34.7661, 'longitude': 72.6761}",PK,10541,Sandai,Federal Capial &AJK,,,,,,4,2020-02-21T22:46:03.573Z,2020-02-21T22:46:03.573Z
100,101,"{'__type': 'GeoPoint', 'latitude': 33.8081, 'longitude': 72.6797}",PK,10545,Sanwala Piran,Federal Capial &AJK,,,,,,,2020-02-21T22:46:03.573Z,2020-02-21T22:46:03.573Z
101,102,"{'__type': 'GeoPoint', 'latitude': 33.8081, 'longitude': 72.6797}",PK,10545,Ghaneer,Federal Capial &AJK,,,,,,,2020-02-21T22:46:03.573Z,2020-02-21T22:46:03.573Z
102,103,"{'__type': 'GeoPoint', 'latitude': 34.8333, 'longitude': 71.5731}",PK,11015,Holar,Federal Capial &AJK,,,,,,,2020-02-21T22:46:03.574Z,2020-02-21T22:46:03.574Z
103,104,"{'__type': 'GeoPoint', 'latitude': 34.8333, 'longitude': 71.5731}",PK,11015,Baran Bhatta,Federal Capial &AJK,,,,,,,2020-02-21T22:46:03.574Z,2020-02-21T22:46:03.574Z
104,105,"{'__type': 'GeoPoint', 'latitude': 33.4889, 'longitude': 73.8667}",PK,10551,Sanot,Federal Capial &AJK,,,,,,4,2020-02-21T22:46:03.573Z,2020-02-21T22:46:03.573Z
105,106,"{'__type': 'GeoPoint', 'latitude': 30.4833, 'longitude': 71.9}",PK,10531,Chhochh,Federal Capial &AJK,,,,,,,2020-02-21T22:46:03.276Z,2020-02-21T22:46:03.276Z
106,107,"{'__type': 'GeoPoint', 'latitude': 34.2589, 'longitude': 71.8317}",PK,11011,Hajiabad,Federal Capial &AJK,,,,,,,2020-02-21T22:46:03.573Z,2020-02-21T22:46:03.573Z
107,108,"{'__type': 'GeoPoint', 'latitude': 33.4889, 'longitude': 73.8667}",PK,10550,K.D. Khan,Federal Capial &AJK,,,,,,,2020-02-21T22:46:03.573Z,2020-02-21T22:46:03.573Z
108,109,"{'__type': 'GeoPoint', 'latitude': 33.8081, 'longitude': 72.6797}",PK,10544,Thara,Federal Capial &AJK,,,,,,,2020-02-21T22:46:03.573Z,2020-02-21T22:46:03.573Z
109,110,"{'__type': 'GeoPoint', 'latitude': 34.8333, 'longitude': 71.5731}",PK,11011,Barigurha,Federal Capial &AJK,,,,,,,2020-02-21T22:46:03.573Z,2020-02-21T22:46:03.573Z
110,111,"{'__type': 'GeoPoint', 'latitude': 34.8333, 'longitude': 71.5731}",PK,11011,New Afzalpur,Federal Capial &AJK,,,,,,,2020-02-21T22:46:03.573Z,2020-02-21T22:46:03.573Z
111,112,"{'__type': 'GeoPoint', 'latitude': 34.8333, 'longitude': 71.5731}",PK,11011,Baroian,Federal Capial &AJK,,,,,,,2020-02-21T22:46:03.573Z,2020-02-21T22:46:03.573Z
112,113,"{'__type': 'GeoPoint', 'latitude': 32.85, 'longitude': 72.6833}",PK,10540,Ratta,Federal Capial &AJK,,,,,,4,2020-02-21T22:46:03.573Z,2020-02-21T22:46:03.573Z
113,114,"{'__type': 'GeoPoint', 'latitude': 30.4833, 'longitude': 71.9}",PK,10531,Darruni Bathroi,Federal Capial &AJK,,,,,,,2020-02-21T22:46:03.573Z,2020-02-21T22:46:03.573Z
114,115,"{'__type': 'GeoPoint', 'latitude': 34.7661, 'longitude': 72.6761}",PK,10541,Sorakhi,Federal Capial &AJK,,,,,,,2020-02-21T22:46:03.573Z,2020-02-21T22:46:03.573Z
115,116,"{'__type': 'GeoPoint', 'latitude': 33.95, 'longitude': 73.5}",PK,11014,Potha,Federal Capial &AJK,,,,,,,2020-02-21T22:46:03.573Z,2020-02-21T22:46:03.573Z
116,117,"{'__type': 'GeoPoint', 'latitude': 30.4833, 'longitude': 71.9}",PK,10531,Sochani,Federal Capial &AJK,,,,,,,2020-02-21T22:46:03.573Z,2020-02-21T22:46:03.573Z
117,118,"{'__type': 'GeoPoint', 'latitude': 34.8333, 'longitude': 71.5731}",PK,11010,Sehnsa,Federal Capial &AJK,,,,,,,2020-02-21T22:46:03.573Z,2020-02-21T22:46:03.573Z
118,119,"{'__type': 'GeoPoint', 'latitude': 33.4889, 'longitude': 73.8667}",PK,10551,Kaljoor,Federal Capial &AJK,,,,,,,2020-02-21T22:46:03.573Z,2020-02-21T22:46:03.573Z
119,120,"{'__type': 'GeoPoint', 'latitude': 34.8333, 'longitude': 71.5731}",PK,11015,Tarala,Federal Capial &AJK,,,,,,4,2020-02-21T22:46:03.573Z,2020-02-21T22:46:03.573Z
120,121,"{'__type': 'GeoPoint', 'latitude': 33.6361, 'longitude': 73.8986}",PK,11031,Durlian Gujran,Federal Capial &AJK,,,,,,,2020-02-21T22:46:03.877Z,2020-02-21T22:46:03.877Z
121,122,"{'__type': 'GeoPoint', 'latitude': 34.8333, 'longitude': 71.5731}",PK,11015,Kritot,Federal Capial &AJK,,,,,,,2020-02-21T22:46:03.877Z,2020-02-21T22:46:03.877Z
122,123,"{'__type': 'GeoPoint', 'latitude': 34.8333, 'longitude': 71.5731}",PK,11015,Ainti,Federal Capial &AJK,,,,,,,2020-02-21T22:46:03.877Z,2020-02-21T22:46:03.877Z
123,124,"{'__type': 'GeoPoint', 'latitude': 25.4375, 'longitude': 68.0083}",PK,11041,Pateri,Federal Capial &AJK,,,,,,,2020-02-21T22:46:03.878Z,2020-02-21T22:46:03.878Z
124,125,"{'__type': 'GeoPoint', 'latitude': 33.6361, 'longitude': 73.8986}",PK,11030,Gulpur (Ak),Federal Capial &AJK,,,,,,,2020-02-21T22:46:03.877Z,2020-02-21T22:46:03.877Z
125,126,"{'__type': 'GeoPoint', 'latitude': 33.6361, 'longitude': 73.8986}",PK,11031,Kajlani,Federal Capial &AJK,,,,,,,2020-02-21T22:46:03.877Z,2020-02-21T22:46:03.877Z
126,127,"{'__type': 'GeoPoint', 'latitude': 25.4375, 'longitude': 68.0083}",PK,11040,Nar,Federal Capial &AJK,,,,,,4,2020-02-21T22:46:03.878Z,2020-02-21T22:46:03.878Z
127,128,"{'__type': 'GeoPoint', 'latitude': 33.6361, 'longitude': 73.8986}",PK,11031,Khawas,Federal Capial &AJK,,,,,,4,2020-02-21T22:46:03.877Z,2020-02-21T22:46:03.877Z
128,129,"{'__type': 'GeoPoint', 'latitude': 34.8333, 'longitude': 71.5731}",PK,11015,Pilat Pian,Federal Capial &AJK,,,,,,,2020-02-21T22:46:03.877Z,2020-02-21T22:46:03.877Z
129,130,"{'__type': 'GeoPoint', 'latitude': 33.4389, 'longitude': 73.9806}",PK,11101,Samror,Federal Capial &AJK,,,,,,4,2020-02-21T22:46:03.878Z,2020-02-21T22:46:03.878Z
130,131,"{'__type': 'GeoPoint', 'latitude': 31.3023, 'longitude': 71.16}",PK,11020,Seher Mandi,Federal Capial &AJK,,,,,,,2020-02-21T22:46:03.877Z,2020-02-21T22:46:03.877Z
131,132,"{'__type': 'GeoPoint', 'latitude': 33.4815, 'longitude': 73.9178}",PK,11101,Doongh,Federal Capial &AJK,,,,,,,2020-02-21T22:46:03.878Z,2020-02-21T22:46:03.878Z
132,133,"{'__type': 'GeoPoint', 'latitude': 33.5472, 'longitude': 73.8292}",PK,11101,Sarhota,Federal Capial &AJK,,,,,,4,2020-02-21T22:46:03.878Z,2020-02-21T22:46:03.878Z
133,134,"{'__type': 'GeoPoint', 'latitude': 33.5, 'longitude': 73.9167}",PK,11101,Roli,Federal Capial &AJK,,,,,,4,2020-02-21T22:46:03.878Z,2020-02-21T22:46:03.878Z
134,135,"{'__type': 'GeoPoint', 'latitude': 33.4361, 'longitude': 73.9639}",PK,11101,Danna,Federal Capial &AJK,,,,,,4,2020-02-21T22:46:03.878Z,2020-02-21T22:46:03.878Z
135,136,"{'__type': 'GeoPoint', 'latitude': 33.4815, 'longitude': 73.9178}",PK,11100,Kotli (A.K.),Federal Capial &AJK,,,,,,,2020-02-21T22:46:03.878Z,2020-02-21T22:46:03.878Z
136,137,"{'__type': 'GeoPoint', 'latitude': 33.4889, 'longitude': 73.9}",PK,11101,Aghar,Federal Capial &AJK,,,,,,4,2020-02-21T22:46:03.878Z,2020-02-21T22:46:03.878Z
137,138,"{'__type': 'GeoPoint', 'latitude': 33.4815, 'longitude': 73.9178}",PK,11101,Qamrooti,Federal Capial &AJK,,,,,,,2020-02-21T22:46:03.878Z,2020-02-21T22:46:03.878Z
138,139,"{'__type': 'GeoPoint', 'latitude': 33.4778, 'longitude': 73.9167}",PK,11101,Kurti,Federal Capial &AJK,,,,,,4,2020-02-21T22:46:03.878Z,2020-02-21T22:46:03.878Z
139,140,"{'__type': 'GeoPoint', 'latitude': 33.4815, 'longitude': 73.9178}",PK,11101,Chowki Tinda,Federal Capial &AJK,,,,,,,2020-02-21T22:46:03.878Z,2020-02-21T22:46:03.878Z
140,141,"{'__type': 'GeoPoint', 'latitude': 33.4633, 'longitude': 73.9229}",PK,11110,Sarsawa,Federal Capial &AJK,,,,,,,2020-02-21T22:46:04.189Z,2020-02-21T22:46:04.189Z
141,142,"{'__type': 'GeoPoint', 'latitude': 33.5806, 'longitude': 73.9444}",PK,11161,Sawar,Federal Capial &AJK,,,,,,4,2020-02-21T22:46:04.189Z,2020-02-21T22:46:04.189Z
142,143,"{'__type': 'GeoPoint', 'latitude': 33.0111, 'longitude': 73.9306}",PK,11121,Chhani,Federal Capial &AJK,,,,,,4,2020-02-21T22:46:04.189Z,2020-02-21T22:46:04.189Z
143,144,"{'__type': 'GeoPoint', 'latitude': 33.5819, 'longitude': 73.9806}",PK,11160,Tatta Pani,Federal Capial &AJK,,,,,,,2020-02-21T22:46:04.189Z,2020-02-21T22:46:04.189Z
144,145,"{'__type': 'GeoPoint', 'latitude': 33.0111, 'longitude': 73.9306}",PK,11121,Siah Sharif,Federal Capial &AJK,,,,,,,2020-02-21T22:46:04.189Z,2020-02-21T22:46:04.189Z
145,146,"{'__type': 'GeoPoint', 'latitude': 33.4633, 'longitude': 73.9229}",PK,11150,Gunni Malni,Federal Capial &AJK,,,,,,,2020-02-21T22:46:04.189Z,2020-02-21T22:46:04.189Z
146,147,"{'__type': 'GeoPoint', 'latitude': 33.5833, 'longitude': 74.0167}",PK,11161,Goi,Federal Capial &AJK,,,,,,4,2020-02-21T22:46:04.189Z,2020-02-21T22:46:04.189Z
147,148,"{'__type': 'GeoPoint', 'latitude': 33.4633, 'longitude': 73.9229}",PK,11111,Anhoi Sarhota,Federal Capial &AJK,,,,,,,2020-02-21T22:46:04.189Z,2020-02-21T22:46:04.189Z
148,149,"{'__type': 'GeoPoint', 'latitude': 33.0111, 'longitude': 73.9306}",PK,11121,Odeh Sharif,Federal Capial &AJK,,,,,,,2020-02-21T22:46:04.189Z,2020-02-21T22:46:04.189Z
149,150,"{'__type': 'GeoPoint', 'latitude': 33.5694, 'longitude': 73.8306}",PK,11120,Panjera,Federal Capial &AJK,,,,,,4,2020-02-21T22:46:04.189Z,2020-02-21T22:46:04.189Z
150,151,"{'__type': 'GeoPoint', 'latitude': 33.4633, 'longitude': 73.9229}",PK,11171,Datoot,Federal Capial &AJK,,,,,,,2020-02-21T22:46:04.189Z,2020-02-21T22:46:04.189Z
151,152,"{'__type': 'GeoPoint', 'latitude': 33.5819, 'longitude': 73.9806}",PK,11161,Narali,Federal Capial &AJK,,,,,,,2020-02-21T22:46:04.189Z,2020-02-21T22:46:04.189Z
152,153,"{'__type': 'GeoPoint', 'latitude': 33.4633, 'longitude': 73.9229}",PK,11170,Fatehpur Thakiala,Federal Capial &AJK,,,,,,,2020-02-21T22:46:04.189Z,2020-02-21T22:46:04.189Z
153,154,"{'__type': 'GeoPoint', 'latitude': 33.5819, 'longitude': 73.9806}",PK,11161,Dhanwan,Federal Capial &AJK,,,,,,,2020-02-21T22:46:04.189Z,2020-02-21T22:46:04.189Z
154,155,"{'__type': 'GeoPoint', 'latitude': 33.4633, 'longitude': 73.9229}",PK,11171,Karela Majhan,Federal Capial &AJK,,,,,,,2020-02-21T22:46:04.189Z,2020-02-21T22:46:04.189Z
155,156,"{'__type': 'GeoPoint', 'latitude': 33.4633, 'longitude': 73.9229}",PK,11190,Chowki Mong,Federal Capial &AJK,,,,,,,2020-02-21T22:46:04.189Z,2020-02-21T22:46:04.189Z
156,157,"{'__type': 'GeoPoint', 'latitude': 34.2264, 'longitude': 73.1111}",PK,11201,Bihal,Federal Capial &AJK,,,,,,4,2020-02-21T22:46:04.189Z,2020-02-21T22:46:04.189Z
157,158,"{'__type': 'GeoPoint', 'latitude': 34.2264, 'longitude': 73.1111}",PK,11200,Khui Ratta (A.K.),Federal Capial &AJK,,,,,,,2020-02-21T22:46:04.189Z,2020-02-21T22:46:04.189Z
158,159,"{'__type': 'GeoPoint', 'latitude': 33.4633, 'longitude': 73.9229}",PK,11171,Jandrot,Federal Capial &AJK,,,,,,,2020-02-21T22:46:04.189Z,2020-02-21T22:46:04.189Z
159,160,"{'__type': 'GeoPoint', 'latitude': 32.5708, 'longitude': 73.0981}",PK,11211,Andarla Kothera,Federal Capial &AJK,,,,,,,2020-02-21T22:46:04.700Z,2020-02-21T22:46:04.700Z
160,161,"{'__type': 'GeoPoint', 'latitude': 33.4633, 'longitude': 73.9229}",PK,11171,Dabsi,Federal Capial &AJK,,,,,,,2020-02-21T22:46:04.189Z,2020-02-21T22:46:04.189Z
161,162,"{'__type': 'GeoPoint', 'latitude': 30.25, 'longitude': 72.2833}",PK,11220,Bal Brahmana,Federal Capial &AJK,,,,,,,2020-02-21T22:46:04.700Z,2020-02-21T22:46:04.700Z
162,163,"{'__type': 'GeoPoint', 'latitude': 34.2264, 'longitude': 73.1111}",PK,11201,Ghian Gujran,Federal Capial &AJK,,,,,,,2020-02-21T22:46:04.700Z,2020-02-21T22:46:04.700Z
163,164,"{'__type': 'GeoPoint', 'latitude': 34.2264, 'longitude': 73.1111}",PK,11201,Manjwal Sharif,Federal Capial &AJK,,,,,,,2020-02-21T22:46:04.700Z,2020-02-21T22:46:04.700Z
164,165,"{'__type': 'GeoPoint', 'latitude': 32.5708, 'longitude': 73.0981}",PK,11211,Bharot Gala,Federal Capial &AJK,,,,,,,2020-02-21T22:46:04.700Z,2020-02-21T22:46:04.700Z
165,166,"{'__type': 'GeoPoint', 'latitude': 34.2264, 'longitude': 73.1111}",PK,11201,Dhanna,Federal Capial &AJK,,,,,,,2020-02-21T22:46:04.700Z,2020-02-21T22:46:04.700Z
166,167,"{'__type': 'GeoPoint', 'latitude': 32.5708, 'longitude': 73.0981}",PK,11211,Dargoti,Federal Capial &AJK,,,,,,,2020-02-21T22:46:04.700Z,2020-02-21T22:46:04.700Z
167,168,"{'__type': 'GeoPoint', 'latitude': 32.5708, 'longitude': 73.0981}",PK,11211,Khor Rachhala,Federal Capial &AJK,,,,,,,2020-02-21T22:46:04.700Z,2020-02-21T22:46:04.700Z
168,169,"{'__type': 'GeoPoint', 'latitude': 34.2264, 'longitude': 73.1111}",PK,11201,Ghaura,Federal Capial &AJK,,,,,,,2020-02-21T22:46:04.700Z,2020-02-21T22:46:04.700Z
169,170,"{'__type': 'GeoPoint', 'latitude': 34.65, 'longitude': 73.7667}",PK,11210,Seri,Federal Capial &AJK,,,,,,,2020-02-21T22:46:04.700Z,2020-02-21T22:46:04.700Z
170,171,"{'__type': 'GeoPoint', 'latitude': 32.5708, 'longitude': 73.0981}",PK,11251,Khankah Kothera,Federal Capial &AJK,,,,,,,2020-02-21T22:46:04.700Z,2020-02-21T22:46:04.700Z
171,172,"{'__type': 'GeoPoint', 'latitude': 33.2361, 'longitude': 73.9}",PK,11260,Kala Dab,Federal Capial &AJK,,,,,,4,2020-02-21T22:46:04.700Z,2020-02-21T22:46:04.700Z
172,173,"{'__type': 'GeoPoint', 'latitude': 30.25, 'longitude': 72.2833}",PK,11221,Juna,Federal Capial &AJK,,,,,,4,2020-02-21T22:46:04.700Z,2020-02-21T22:46:04.700Z
173,174,"{'__type': 'GeoPoint', 'latitude': 33.6764, 'longitude': 73.1105}",PK,12000,Azad Pattan A.K.,Norhern Punajb Rawalpindi,,,,,,,2020-02-21T22:46:04.701Z,2020-02-21T22:46:04.701Z
174,175,"{'__type': 'GeoPoint', 'latitude': 32.5708, 'longitude': 73.0981}",PK,11250,Charhoi,Federal Capial &AJK,,,,,,,2020-02-21T22:46:04.700Z,2020-02-21T22:46:04.700Z
175,176,"{'__type': 'GeoPoint', 'latitude': 33.7167, 'longitude': 73.7}",PK,12011,Jhenjal Hill,Norhern Punajb Rawalpindi,,,,,,,2020-02-21T22:46:05.038Z,2020-02-21T22:46:05.038Z
176,177,"{'__type': 'GeoPoint', 'latitude': 33.7167, 'longitude': 73.7}",PK,12010,Bong Colony,Federal Capial &AJK,,,,,,,2020-02-21T22:46:04.701Z,2020-02-21T22:46:04.701Z
177,178,"{'__type': 'GeoPoint', 'latitude': 33.6764, 'longitude': 73.1105}",PK,12071,Sehr Hajnal Kot,Norhern Punajb Rawalpindi,,,,,,,2020-02-21T22:46:05.038Z,2020-02-21T22:46:05.038Z
178,179,"{'__type': 'GeoPoint', 'latitude': 33.7167, 'longitude': 73.7}",PK,12011,Namb,Norhern Punajb Rawalpindi,,,,,,,2020-02-21T22:46:05.038Z,2020-02-21T22:46:05.038Z
179,180,"{'__type': 'GeoPoint', 'latitude': 33.7167, 'longitude': 73.7}",PK,12010,Palandri,Norhern Punajb Rawalpindi,,,,,,4,2020-02-21T22:46:04.701Z,2020-02-21T22:46:04.701Z
180,181,"{'__type': 'GeoPoint', 'latitude': 34.2264, 'longitude': 73.1111}",PK,11201,Mandhether,Federal Capial &AJK,,,,,,,2020-02-21T22:46:04.700Z,2020-02-21T22:46:04.700Z
181,182,"{'__type': 'GeoPoint', 'latitude': 33.6764, 'longitude': 73.1105}",PK,12001,Barohi,Norhern Punajb Rawalpindi,,,,,,,2020-02-21T22:46:04.701Z,2020-02-21T22:46:04.701Z
182,183,"{'__type': 'GeoPoint', 'latitude': 33.7167, 'longitude': 73.7}",PK,12011,Phalian,Norhern Punajb Rawalpindi,,,,,,,2020-02-21T22:46:05.038Z,2020-02-21T22:46:05.038Z
183,184,"{'__type': 'GeoPoint', 'latitude': 33.6764, 'longitude': 73.1105}",PK,12001,Sawa,Norhern Punajb Rawalpindi,,,,,,,2020-02-21T22:46:04.701Z,2020-02-21T22:46:04.701Z
184,185,"{'__type': 'GeoPoint', 'latitude': 33.7167, 'longitude': 73.7}",PK,12011,Betran,Norhern Punajb Rawalpindi,,,,,,,2020-02-21T22:46:05.038Z,2020-02-21T22:46:05.038Z
185,186,"{'__type': 'GeoPoint', 'latitude': 33.6764, 'longitude': 73.1105}",PK,12071,Gohr Bazar,Norhern Punajb Rawalpindi,,,,,,,2020-02-21T22:46:05.038Z,2020-02-21T22:46:05.038Z
186,187,"{'__type': 'GeoPoint', 'latitude': 33.7167, 'longitude': 73.7}",PK,12011,Kuliah Bazar,Norhern Punajb Rawalpindi,,,,,,,2020-02-21T22:46:05.038Z,2020-02-21T22:46:05.038Z
187,188,"{'__type': 'GeoPoint', 'latitude': 33.7167, 'longitude': 73.7}",PK,12011,Biliannar,Norhern Punajb Rawalpindi,,,,,,,2020-02-21T22:46:05.038Z,2020-02-21T22:46:05.038Z
188,189,"{'__type': 'GeoPoint', 'latitude': 33.7167, 'longitude': 73.7}",PK,12011,Dhar Dharachb,Norhern Punajb Rawalpindi,,,,,,,2020-02-21T22:46:05.038Z,2020-02-21T22:46:05.038Z
189,190,"{'__type': 'GeoPoint', 'latitude': 31.5292, 'longitude': 71.2167}",PK,12030,Barian,Norhern Punajb Rawalpindi,,,,,,4,2020-02-21T22:46:05.038Z,2020-02-21T22:46:05.038Z
190,191,"{'__type': 'GeoPoint', 'latitude': 33.7167, 'longitude': 73.7}",PK,12011,Jhanda Cagla,Norhern Punajb Rawalpindi,,,,,,,2020-02-21T22:46:05.038Z,2020-02-21T22:46:05.038Z
191,192,"{'__type': 'GeoPoint', 'latitude': 33.6764, 'longitude': 73.1105}",PK,12071,Manoota,Norhern Punajb Rawalpindi,,,,,,,2020-02-21T22:46:05.038Z,2020-02-21T22:46:05.038Z
192,193,"{'__type': 'GeoPoint', 'latitude': 33.7167, 'longitude': 73.7}",PK,12011,Mungriot,Norhern Punajb Rawalpindi,,,,,,,2020-02-21T22:46:05.038Z,2020-02-21T22:46:05.038Z
193,194,"{'__type': 'GeoPoint', 'latitude': 33.7167, 'longitude': 73.7}",PK,12011,Panthal,Norhern Punajb Rawalpindi,,,,,,,2020-02-21T22:46:05.038Z,2020-02-21T22:46:05.038Z
194,195,"{'__type': 'GeoPoint', 'latitude': 33.6764, 'longitude': 73.1105}",PK,12071,Sehr Bosata,Norhern Punajb Rawalpindi,,,,,,,2020-02-21T22:46:05.038Z,2020-02-21T22:46:05.038Z
195,196,"{'__type': 'GeoPoint', 'latitude': 33.7611, 'longitude': 73.7583}",PK,12080,Tarar Khel,Federal Capial &AJK,,,,,,4,2020-02-21T22:46:05.038Z,2020-02-21T22:46:05.038Z
196,197,"{'__type': 'GeoPoint', 'latitude': 33.6764, 'longitude': 73.1105}",PK,12070,Nalian,Norhern Punajb Rawalpindi,,,,,,,2020-02-21T22:46:05.038Z,2020-02-21T22:46:05.038Z
197,198,"{'__type': 'GeoPoint', 'latitude': 33.7167, 'longitude': 73.7}",PK,12011,Sehr Hafizabad,Norhern Punajb Rawalpindi,,,,,,,2020-02-21T22:46:05.038Z,2020-02-21T22:46:05.038Z
198,199,"{'__type': 'GeoPoint', 'latitude': 33.7167, 'longitude': 73.7}",PK,12011,Dhar Dharachn,Norhern Punajb Rawalpindi,,,,,,,2020-02-21T22:46:05.037Z,2020-02-21T22:46:05.037Z
199,200,"{'__type': 'GeoPoint', 'latitude': 35.2139, 'longitude': 72.5436}",PK,12081,Habib Abad,Federal Capial &AJK,,,,,,4,2020-02-21T22:46:05.038Z,2020-02-21T22:46:05.038Z
200,201,"{'__type': 'GeoPoint', 'latitude': 30.631, 'longitude': 71.5611}",PK,12130,Pakhonar,Federal Capial &AJK,,,,,,,2020-02-21T22:46:05.339Z,2020-02-21T22:46:05.339Z
201,202,"{'__type': 'GeoPoint', 'latitude': 33.6764, 'longitude': 73.1105}",PK,12090,Qillan,Federal Capial &AJK,,,,,,,2020-02-21T22:46:05.339Z,2020-02-21T22:46:05.339Z
202,203,"{'__type': 'GeoPoint', 'latitude': 34.3505, 'longitude': 73.3294}",PK,12081,Tangi Gala,Federal Capial &AJK,,,,,,,2020-02-21T22:46:05.339Z,2020-02-21T22:46:05.339Z
203,204,"{'__type': 'GeoPoint', 'latitude': 34.0708, 'longitude': 73.6125}",PK,12081,Jandali,Federal Capial &AJK,,,,,,4,2020-02-21T22:46:05.339Z,2020-02-21T22:46:05.339Z
204,205,"{'__type': 'GeoPoint', 'latitude': 28.2458, 'longitude': 68.3861}",PK,12120,Baluch,Federal Capial &AJK,,,,,,4,2020-02-21T22:46:05.339Z,2020-02-21T22:46:05.339Z
205,206,"{'__type': 'GeoPoint', 'latitude': 30.631, 'longitude': 71.5611}",PK,12100,Baithak Bazar,Federal Capial &AJK,,,,,,,2020-02-21T22:46:05.339Z,2020-02-21T22:46:05.339Z
206,207,"{'__type': 'GeoPoint', 'latitude': 28.2458, 'longitude': 68.3861}",PK,12121,Chamba Gali,Federal Capial &AJK,,,,,,,2020-02-21T22:46:05.339Z,2020-02-21T22:46:05.339Z
207,208,"{'__type': 'GeoPoint', 'latitude': 34.3505, 'longitude': 73.3294}",PK,12081,Garala,Federal Capial &AJK,,,,,,,2020-02-21T22:46:05.339Z,2020-02-21T22:46:05.339Z
208,209,"{'__type': 'GeoPoint', 'latitude': 34.3505, 'longitude': 73.3294}",PK,12081,Barriot,Federal Capial &AJK,,,,,,,2020-02-21T22:46:05.339Z,2020-02-21T22:46:05.339Z
209,210,"{'__type': 'GeoPoint', 'latitude': 28.4833, 'longitude': 70.2236}",PK,12160,Hajeera,Federal Capial &AJK,,,,,,,2020-02-21T22:46:05.340Z,2020-02-21T22:46:05.340Z
210,211,"{'__type': 'GeoPoint', 'latitude': 30.631, 'longitude': 71.5611}",PK,12151,Hamruta,Federal Capial &AJK,,,,,,,2020-02-21T22:46:05.340Z,2020-02-21T22:46:05.340Z
211,212,"{'__type': 'GeoPoint', 'latitude': 33.7667, 'longitude': 73.8319}",PK,12081,Natha Gala,Federal Capial &AJK,,,,,,4,2020-02-21T22:46:05.339Z,2020-02-21T22:46:05.339Z
212,213,"{'__type': 'GeoPoint', 'latitude': 34.3505, 'longitude': 73.3294}",PK,12081,Narrian,Federal Capial &AJK,,,,,,,2020-02-21T22:46:05.339Z,2020-02-21T22:46:05.339Z
213,214,"{'__type': 'GeoPoint', 'latitude': 34.3505, 'longitude': 73.3294}",PK,12081,Anhari,Federal Capial &AJK,,,,,,,2020-02-21T22:46:05.339Z,2020-02-21T22:46:05.339Z
214,215,"{'__type': 'GeoPoint', 'latitude': 28.4, 'longitude': 69.9333}",PK,12110,Rahimabad,Federal Capial &AJK,,,,,,,2020-02-21T22:46:05.339Z,2020-02-21T22:46:05.339Z
215,216,"{'__type': 'GeoPoint', 'latitude': 30.631, 'longitude': 71.5611}",PK,12151,Char Biar,Federal Capial &AJK,,,,,,,2020-02-21T22:46:05.339Z,2020-02-21T22:46:05.339Z
216,217,"{'__type': 'GeoPoint', 'latitude': 34.3505, 'longitude': 73.3294}",PK,12081,Darbar Sharif Narian,Federal Capial &AJK,,,,,,,2020-02-21T22:46:05.339Z,2020-02-21T22:46:05.339Z
217,218,"{'__type': 'GeoPoint', 'latitude': 30.631, 'longitude': 71.5611}",PK,12150,Gala Kaniyata,Federal Capial &AJK,,,,,,,2020-02-21T22:46:05.339Z,2020-02-21T22:46:05.339Z
218,219,"{'__type': 'GeoPoint', 'latitude': 28.2458, 'longitude': 68.3861}",PK,12121,Gran Dhamikan,Federal Capial &AJK,,,,,,,2020-02-21T22:46:05.339Z,2020-02-21T22:46:05.339Z
219,220,"{'__type': 'GeoPoint', 'latitude': 30.631, 'longitude': 71.5611}",PK,12151,Kot Gala Kawali,Federal Capial &AJK,,,,,,,2020-02-21T22:46:05.339Z,2020-02-21T22:46:05.339Z
220,221,"{'__type': 'GeoPoint', 'latitude': 28.4833, 'longitude': 70.2236}",PK,12161,Akramabad,Federal Capial &AJK,,,,,,4,2020-02-21T22:46:05.626Z,2020-02-21T22:46:05.626Z
221,222,"{'__type': 'GeoPoint', 'latitude': 30.7514, 'longitude': 73.8361}",PK,12184,Rakkar,Federal Capial &AJK,,,,,,4,2020-02-21T22:46:05.627Z,2020-02-21T22:46:05.627Z
222,223,"{'__type': 'GeoPoint', 'latitude': 33.7333, 'longitude': 73.9597}",PK,12170,Maindla,Federal Capial &AJK,,,,,,4,2020-02-21T22:46:05.627Z,2020-02-21T22:46:05.627Z
223,224,"{'__type': 'GeoPoint', 'latitude': 28.4833, 'longitude': 70.2236}",PK,12161,Bessari,Federal Capial &AJK,,,,,,,2020-02-21T22:46:05.627Z,2020-02-21T22:46:05.627Z
224,225,"{'__type': 'GeoPoint', 'latitude': 28.4833, 'longitude': 70.2236}",PK,12161,Aakhorban,Federal Capial &AJK,,,,,,,2020-02-21T22:46:05.626Z,2020-02-21T22:46:05.626Z
225,226,"{'__type': 'GeoPoint', 'latitude': 28.4833, 'longitude': 70.2236}",PK,12161,Kathira,Federal Capial &AJK,,,,,,,2020-02-21T22:46:05.627Z,2020-02-21T22:46:05.627Z
226,227,"{'__type': 'GeoPoint', 'latitude': 28.4833, 'longitude': 70.2236}",PK,12161,Narian,Federal Capial &AJK,,,,,,,2020-02-21T22:46:05.626Z,2020-02-21T22:46:05.626Z
227,228,"{'__type': 'GeoPoint', 'latitude': 30.1076, 'longitude': 70.8458}",PK,12171,Tanda,Federal Capial &AJK,,,,,,,2020-02-21T22:46:05.627Z,2020-02-21T22:46:05.627Z
228,229,"{'__type': 'GeoPoint', 'latitude': 30.1076, 'longitude': 70.8458}",PK,12171,Tatrinote,Federal Capial &AJK,,,,,,,2020-02-21T22:46:05.627Z,2020-02-21T22:46:05.627Z
229,230,"{'__type': 'GeoPoint', 'latitude': 28.4833, 'longitude': 70.2236}",PK,12161,Darikot,Federal Capial &AJK,,,,,,,2020-02-21T22:46:05.626Z,2020-02-21T22:46:05.626Z
230,231,"{'__type': 'GeoPoint', 'latitude': 26.4944, 'longitude': 67.7472}",PK,12171,Ghambir,Federal Capial &AJK,,,,,,4,2020-02-21T22:46:05.627Z,2020-02-21T22:46:05.627Z
231,232,"{'__type': 'GeoPoint', 'latitude': 28.4833, 'longitude': 70.2236}",PK,12161,Sarrari,Federal Capial &AJK,,,,,,,2020-02-21T22:46:05.627Z,2020-02-21T22:46:05.627Z
232,233,"{'__type': 'GeoPoint', 'latitude': 26.9167, 'longitude': 68.0333}",PK,12181,Thandi Kassi,Federal Capial &AJK,,,,,,,2020-02-21T22:46:05.627Z,2020-02-21T22:46:05.627Z
233,234,"{'__type': 'GeoPoint', 'latitude': 28.4833, 'longitude': 70.2236}",PK,12161,Devi Gali,Federal Capial &AJK,,,,,,,2020-02-21T22:46:05.627Z,2020-02-21T22:46:05.627Z
234,235,"{'__type': 'GeoPoint', 'latitude': 26.9167, 'longitude': 68.0333}",PK,12181,Thai,Federal Capial &AJK,,,,,,4,2020-02-21T22:46:05.627Z,2020-02-21T22:46:05.627Z
235,236,"{'__type': 'GeoPoint', 'latitude': 31.8997, 'longitude': 72.4087}",PK,12175,Darra Sher Khan,Federal Capial &AJK,,,,,,,2020-02-21T22:46:05.627Z,2020-02-21T22:46:05.627Z
236,237,"{'__type': 'GeoPoint', 'latitude': 28.4833, 'longitude': 70.2236}",PK,12161,Karichroon,Federal Capial &AJK,,,,,,,2020-02-21T22:46:05.627Z,2020-02-21T22:46:05.627Z
237,238,"{'__type': 'GeoPoint', 'latitude': 33.7208, 'longitude': 73.9444}",PK,12171,Kakuta,Federal Capial &AJK,,,,,,4,2020-02-21T22:46:05.627Z,2020-02-21T22:46:05.627Z
238,239,"{'__type': 'GeoPoint', 'latitude': 33.6833, 'longitude': 73.9361}",PK,12180,Mandhole,Federal Capial &AJK,,,,,,4,2020-02-21T22:46:05.627Z,2020-02-21T22:46:05.627Z
239,240,"{'__type': 'GeoPoint', 'latitude': 33.65, 'longitude': 73.9833}",PK,12174,Sehra,Federal Capial &AJK,,,,,,4,2020-02-21T22:46:05.627Z,2020-02-21T22:46:05.627Z
240,241,"{'__type': 'GeoPoint', 'latitude': 33.8778, 'longitude': 74.0389}",PK,12201,Palangi,Federal Capial &AJK,,,,,,4,2020-02-21T22:46:05.890Z,2020-02-21T22:46:05.890Z
241,242,"{'__type': 'GeoPoint', 'latitude': 33.8778, 'longitude': 74.0333}",PK,12200,Abbas Pur,Federal Capial &AJK,,,,,,,2020-02-21T22:46:05.890Z,2020-02-21T22:46:05.890Z
242,243,"{'__type': 'GeoPoint', 'latitude': 33.8778, 'longitude': 74.0333}",PK,12201,Chirikot,Federal Capial &AJK,,,,,,,2020-02-21T22:46:05.890Z,2020-02-21T22:46:05.890Z
243,244,"{'__type': 'GeoPoint', 'latitude': 31.7667, 'longitude': 73.4333}",PK,12211,Aliabad,Federal Capial &AJK,,,,,,4,2020-02-21T22:46:05.891Z,2020-02-21T22:46:05.891Z
244,245,"{'__type': 'GeoPoint', 'latitude': 33.8778, 'longitude': 74.0278}",PK,12201,Gogdar,Federal Capial &AJK,,,,,,4,2020-02-21T22:46:05.890Z,2020-02-21T22:46:05.890Z
245,246,"{'__type': 'GeoPoint', 'latitude': 32.2833, 'longitude': 74.5167}",PK,12211,Mandher,Federal Capial &AJK,,,,,,4,2020-02-21T22:46:05.891Z,2020-02-21T22:46:05.891Z
246,247,"{'__type': 'GeoPoint', 'latitude': 32.98, 'longitude': 70.9478}",PK,12211,Suli,Federal Capial &AJK,,,,,,4,2020-02-21T22:46:05.891Z,2020-02-21T22:46:05.891Z
247,248,"{'__type': 'GeoPoint', 'latitude': 30.3333, 'longitude': 73.2333}",PK,12211,Kalali,Federal Capial &AJK,,,,,,4,2020-02-21T22:46:05.891Z,2020-02-21T22:46:05.891Z
248,249,"{'__type': 'GeoPoint', 'latitude': 32.3338, 'longitude': 73.0682}",PK,12210,Kahoota(A.K),Federal Capial &AJK,,,,,,,2020-02-21T22:46:05.890Z,2020-02-21T22:46:05.890Z
249,250,"{'__type': 'GeoPoint', 'latitude': 32.3338, 'longitude': 73.0682}",PK,12211,Behdi,Federal Capial &AJK,,,,,,,2020-02-21T22:46:05.891Z,2020-02-21T22:46:05.891Z
250,251,"{'__type': 'GeoPoint', 'latitude': 33.8778, 'longitude': 74.0333}",PK,12201,Tangeraam,Federal Capial &AJK,,,,,,,2020-02-21T22:46:05.890Z,2020-02-21T22:46:05.890Z
251,252,"{'__type': 'GeoPoint', 'latitude': 32.3338, 'longitude': 73.0682}",PK,12211,Tangari,Federal Capial &AJK,,,,,,,2020-02-21T22:46:05.891Z,2020-02-21T22:46:05.891Z
252,253,"{'__type': 'GeoPoint', 'latitude': 32.3338, 'longitude': 73.0682}",PK,12211,Degwar Terwan,Federal Capial &AJK,,,,,,,2020-02-21T22:46:05.891Z,2020-02-21T22:46:05.891Z
253,254,"{'__type': 'GeoPoint', 'latitude': 32.3338, 'longitude': 73.0682}",PK,12211,Khurshid Abad,Federal Capial &AJK,,,,,,,2020-02-21T22:46:05.891Z,2020-02-21T22:46:05.891Z
254,255,"{'__type': 'GeoPoint', 'latitude': 32.3338, 'longitude': 73.0682}",PK,12211,Bassian,Federal Capial &AJK,,,,,,,2020-02-21T22:46:05.891Z,2020-02-21T22:46:05.891Z
255,256,"{'__type': 'GeoPoint', 'latitude': 34.3056, 'longitude': 73.2097}",PK,12211,Kangran,Federal Capial &AJK,,,,,,4,2020-02-21T22:46:05.891Z,2020-02-21T22:46:05.891Z
256,257,"{'__type': 'GeoPoint', 'latitude': 33.8139, 'longitude': 73.8514}",PK,12251,Dothan,Federal Capial &AJK,,,,,,4,2020-02-21T22:46:05.891Z,2020-02-21T22:46:05.891Z
257,258,"{'__type': 'GeoPoint', 'latitude': 33.8139, 'longitude': 73.8514}",PK,12250,Khaigala,Federal Capial &AJK,,,,,,,2020-02-21T22:46:05.891Z,2020-02-21T22:46:05.891Z
258,259,"{'__type': 'GeoPoint', 'latitude': 33.8139, 'longitude': 73.8514}",PK,12251,Kohkot,Federal Capial &AJK,,,,,,,2020-02-21T22:46:05.891Z,2020-02-21T22:46:05.891Z
259,260,"{'__type': 'GeoPoint', 'latitude': 33.8139, 'longitude': 73.8514}",PK,12251,Ban Baikh Bazar,Federal Capial &AJK,,,,,,,2020-02-21T22:46:05.891Z,2020-02-21T22:46:05.891Z
260,261,"{'__type': 'GeoPoint', 'latitude': 33.7181, 'longitude': 73.7833}",PK,12301,Androte,Federal Capial &AJK,,,,,,4,2020-02-21T22:46:06.198Z,2020-02-21T22:46:06.198Z
261,262,"{'__type': 'GeoPoint', 'latitude': 33.8139, 'longitude': 73.8514}",PK,12251,Alisojal,Federal Capial &AJK,,,,,,,2020-02-21T22:46:06.198Z,2020-02-21T22:46:06.198Z
262,263,"{'__type': 'GeoPoint', 'latitude': 32.9048, 'longitude': 73.4074}",PK,12260,Chotta Gala,Federal Capial &AJK,,,,,,,2020-02-21T22:46:06.198Z,2020-02-21T22:46:06.198Z
263,264,"{'__type': 'GeoPoint', 'latitude': 33.7181, 'longitude': 73.7833}",PK,12301,Muslinabad,Federal Capial &AJK,,,,,,,2020-02-21T22:46:06.198Z,2020-02-21T22:46:06.198Z
264,265,"{'__type': 'GeoPoint', 'latitude': 34.4778, 'longitude': 72.9253}",PK,12260,Jewar,NWFP Peshawar,,,,,,,2020-02-21T22:46:06.198Z,2020-02-21T22:46:06.198Z
265,266,"{'__type': 'GeoPoint', 'latitude': 31.8913, 'longitude': 72.4669}",PK,12311,Nur,Federal Capial &AJK,,,,,,,2020-02-21T22:46:06.199Z,2020-02-21T22:46:06.199Z
266,267,"{'__type': 'GeoPoint', 'latitude': 32.9048, 'longitude': 73.4074}",PK,12261,Gali Bazar Jandali,Federal Capial &AJK,,,,,,,2020-02-21T22:46:06.198Z,2020-02-21T22:46:06.198Z
267,268,"{'__type': 'GeoPoint', 'latitude': 32.65, 'longitude': 73.5167}",PK,12300,Mong,Federal Capial &AJK,,,,,,4,2020-02-21T22:46:06.198Z,2020-02-21T22:46:06.198Z
268,269,"{'__type': 'GeoPoint', 'latitude': 33.7181, 'longitude': 73.7833}",PK,12301,Pattan Sher Khan,Federal Capial &AJK,,,,,,,2020-02-21T22:46:06.199Z,2020-02-21T22:46:06.199Z
269,270,"{'__type': 'GeoPoint', 'latitude': 31.8913, 'longitude': 72.4669}",PK,12311,Bossa Gala,Federal Capial &AJK,,,,,,,2020-02-21T22:46:06.199Z,2020-02-21T22:46:06.199Z
270,271,"{'__type': 'GeoPoint', 'latitude': 32.9048, 'longitude': 73.4074}",PK,12261,Banjoosa,Federal Capial &AJK,,,,,,,2020-02-21T22:46:06.198Z,2020-02-21T22:46:06.198Z
271,272,"{'__type': 'GeoPoint', 'latitude': 33.7181, 'longitude': 73.7833}",PK,12301,Islampura,Federal Capial &AJK,,,,,,,2020-02-21T22:46:06.199Z,2020-02-21T22:46:06.199Z
272,273,"{'__type': 'GeoPoint', 'latitude': 31.8913, 'longitude': 72.4669}",PK,12320,Rehera,Federal Capial &AJK,,,,,,,2020-02-21T22:46:06.199Z,2020-02-21T22:46:06.199Z
273,274,"{'__type': 'GeoPoint', 'latitude': 31.8913, 'longitude': 72.4669}",PK,12310,Thorar,Federal Capial &AJK,,,,,,,2020-02-21T22:46:06.199Z,2020-02-21T22:46:06.199Z
274,275,"{'__type': 'GeoPoint', 'latitude': 31.8913, 'longitude': 72.4669}",PK,12311,Bhalgran Surdari,Federal Capial &AJK,,,,,,,2020-02-21T22:46:06.199Z,2020-02-21T22:46:06.199Z
275,276,"{'__type': 'GeoPoint', 'latitude': 31.8913, 'longitude': 72.4669}",PK,12330,Lunjgran,Federal Capial &AJK,,,,,,,2020-02-21T22:46:06.199Z,2020-02-21T22:46:06.199Z
276,277,"{'__type': 'GeoPoint', 'latitude': 31.0295, 'longitude': 71.6782}",PK,12350,Rawalakot Gpo,Federal Capial &AJK,,,,,,,2020-02-21T22:46:06.199Z,2020-02-21T22:46:06.199Z
277,278,"{'__type': 'GeoPoint', 'latitude': 31.8913, 'longitude': 72.4669}",PK,12331,Chappri Bazar,Federal Capial &AJK,,,,,,,2020-02-21T22:46:06.199Z,2020-02-21T22:46:06.199Z
278,279,"{'__type': 'GeoPoint', 'latitude': 31.8913, 'longitude': 72.4669}",PK,12311,Tian,Federal Capial &AJK,,,,,,,2020-02-21T22:46:06.199Z,2020-02-21T22:46:06.199Z
279,280,"{'__type': 'GeoPoint', 'latitude': 33.8583, 'longitude': 73.7972}",PK,12351,Dhamni,Federal Capial &AJK,,,,,,4,2020-02-21T22:46:06.474Z,2020-02-21T22:46:06.474Z
280,281,"{'__type': 'GeoPoint', 'latitude': 32.4333, 'longitude': 72.3681}",PK,12400,Mohri Farman Shah,Federal Capial &AJK,,,,,,,2020-02-21T22:46:06.475Z,2020-02-21T22:46:06.475Z
281,282,"{'__type': 'GeoPoint', 'latitude': 32.1803, 'longitude': 72.9375}",PK,12351,Tarar,Federal Capial &AJK,,,,,,4,2020-02-21T22:46:06.474Z,2020-02-21T22:46:06.474Z
282,283,"{'__type': 'GeoPoint', 'latitude': 31.0295, 'longitude': 71.6782}",PK,12351,Hussain Kot,Federal Capial &AJK,,,,,,,2020-02-21T22:46:06.474Z,2020-02-21T22:46:06.474Z
283,284,"{'__type': 'GeoPoint', 'latitude': 31.0295, 'longitude': 71.6782}",PK,12351,Singola,Federal Capial &AJK,,,,,,,2020-02-21T22:46:06.475Z,2020-02-21T22:46:06.475Z
284,285,"{'__type': 'GeoPoint', 'latitude': 27.05, 'longitude': 68.3}",PK,12351,Kharik,Federal Capial &AJK,,,,,,4,2020-02-21T22:46:06.474Z,2020-02-21T22:46:06.474Z
285,286,"{'__type': 'GeoPoint', 'latitude': 31.0295, 'longitude': 71.6782}",PK,12351,Drake,Federal Capial &AJK,,,,,,,2020-02-21T22:46:06.475Z,2020-02-21T22:46:06.475Z
286,287,"{'__type': 'GeoPoint', 'latitude': 31.0295, 'longitude': 71.6782}",PK,12351,Chitra Topi,Federal Capial &AJK,,,,,,,2020-02-21T22:46:06.475Z,2020-02-21T22:46:06.475Z
287,288,"{'__type': 'GeoPoint', 'latitude': 32.4333, 'longitude': 72.3681}",PK,12420,Paniola,Federal Capial &AJK,,,,,,,2020-02-21T22:46:06.475Z,2020-02-21T22:46:06.475Z
288,289,"{'__type': 'GeoPoint', 'latitude': 32.9333, 'longitude': 73.5}",PK,12421,Jandala,Federal Capial &AJK,,,,,,4,2020-02-21T22:46:06.475Z,2020-02-21T22:46:06.475Z
289,290,"{'__type': 'GeoPoint', 'latitude': 31.9333, 'longitude': 71.2361}",PK,12421,Thalla,Federal Capial &AJK,,,,,,4,2020-02-21T22:46:06.475Z,2020-02-21T22:46:06.475Z
290,291,"{'__type': 'GeoPoint', 'latitude': 32.4333, 'longitude': 72.3681}",PK,12421,Jandathi Bazar,Federal Capial &AJK,,,,,,,2020-02-21T22:46:06.475Z,2020-02-21T22:46:06.475Z
291,292,"{'__type': 'GeoPoint', 'latitude': 32.4333, 'longitude': 72.3681}",PK,12411,Sanghar Bazar,Federal Capial &AJK,,,,,,,2020-02-21T22:46:06.475Z,2020-02-21T22:46:06.475Z
292,293,"{'__type': 'GeoPoint', 'latitude': 32.4333, 'longitude': 72.3681}",PK,12421,Khud Bazar,Federal Capial &AJK,,,,,,,2020-02-21T22:46:06.475Z,2020-02-21T22:46:06.475Z
293,294,"{'__type': 'GeoPoint', 'latitude': 32.4333, 'longitude': 72.3681}",PK,12421,Musta Nara,Federal Capial &AJK,,,,,,,2020-02-21T22:46:06.475Z,2020-02-21T22:46:06.475Z
294,295,"{'__type': 'GeoPoint', 'latitude': 32.4333, 'longitude': 72.3681}",PK,12410,Hurnamaira,Federal Capial &AJK,,,,,,,2020-02-21T22:46:06.475Z,2020-02-21T22:46:06.475Z
295,296,"{'__type': 'GeoPoint', 'latitude': 32.4333, 'longitude': 72.3681}",PK,12421,Bengion,Federal Capial &AJK,,,,,,,2020-02-21T22:46:06.762Z,2020-02-21T22:46:06.762Z
296,297,"{'__type': 'GeoPoint', 'latitude': 31.8913, 'longitude': 72.4669}",PK,12380,Chak Dhamni,Federal Capial &AJK,,,,,,,2020-02-21T22:46:06.475Z,2020-02-21T22:46:06.475Z
297,298,"{'__type': 'GeoPoint', 'latitude': 33.4903, 'longitude': 73.9938}",PK,12501,Upper Sudhan,Federal Capial &AJK,,,,,,,2020-02-21T22:46:06.763Z,2020-02-21T22:46:06.763Z
298,299,"{'__type': 'GeoPoint', 'latitude': 32.4333, 'longitude': 72.3681}",PK,12430,Pachiot,Federal Capial &AJK,,,,,,,2020-02-21T22:46:06.762Z,2020-02-21T22:46:06.762Z
299,300,"{'__type': 'GeoPoint', 'latitude': 32.4333, 'longitude': 72.3681}",PK,12421,Bana Kha,Federal Capial &AJK,,,,,,,2020-02-21T22:46:06.762Z,2020-02-21T22:46:06.762Z
300,301,"{'__type': 'GeoPoint', 'latitude': 33.4903, 'longitude': 73.9938}",PK,12501,Chattar No.1,Federal Capial &AJK,,,,,,,2020-02-21T22:46:06.762Z,2020-02-21T22:46:06.762Z
301,302,"{'__type': 'GeoPoint', 'latitude': 33.4903, 'longitude': 73.9938}",PK,12500,Bagh Gpo,Federal Capial &AJK,,,,,,,2020-02-21T22:46:06.762Z,2020-02-21T22:46:06.762Z
302,303,"{'__type': 'GeoPoint', 'latitude': 32.4333, 'longitude': 72.3681}",PK,12440,Datoot,Federal Capial &AJK,,,,,,,2020-02-21T22:46:06.762Z,2020-02-21T22:46:06.762Z
303,304,"{'__type': 'GeoPoint', 'latitude': 33.4903, 'longitude': 73.9938}",PK,12501,Salian Maldayalan,Federal Capial &AJK,,,,,,,2020-02-21T22:46:06.762Z,2020-02-21T22:46:06.762Z
304,305,"{'__type': 'GeoPoint', 'latitude': 33.4903, 'longitude': 73.9938}",PK,12501,Paddar Gulsher Khan,Federal Capial &AJK,,,,,,,2020-02-21T22:46:06.762Z,2020-02-21T22:46:06.762Z
305,306,"{'__type': 'GeoPoint', 'latitude': 32.4333, 'longitude': 72.3681}",PK,12460,Arja Apo,Federal Capial &AJK,,,,,,,2020-02-21T22:46:06.762Z,2020-02-21T22:46:06.762Z
306,307,"{'__type': 'GeoPoint', 'latitude': 33.4903, 'longitude': 73.9938}",PK,12501,Dhondhar,Federal Capial &AJK,,,,,,,2020-02-21T22:46:06.762Z,2020-02-21T22:46:06.762Z
307,308,"{'__type': 'GeoPoint', 'latitude': 32.4333, 'longitude': 72.3681}",PK,12480,Harighel,Federal Capial &AJK,,,,,,,2020-02-21T22:46:06.762Z,2020-02-21T22:46:06.762Z
308,309,"{'__type': 'GeoPoint', 'latitude': 33.4903, 'longitude': 73.9938}",PK,12501,Sudhan Gali,Federal Capial &AJK,,,,,,,2020-02-21T22:46:06.762Z,2020-02-21T22:46:06.762Z
309,310,"{'__type': 'GeoPoint', 'latitude': 32.4333, 'longitude': 72.3681}",PK,12441,Sambalri Gala,Federal Capial &AJK,,,,,,,2020-02-21T22:46:06.762Z,2020-02-21T22:46:06.762Z
310,311,"{'__type': 'GeoPoint', 'latitude': 32.4333, 'longitude': 72.3681}",PK,12441,Behari,Federal Capial &AJK,,,,,,,2020-02-21T22:46:06.762Z,2020-02-21T22:46:06.762Z
311,312,"{'__type': 'GeoPoint', 'latitude': 33.4903, 'longitude': 73.9938}",PK,12501,Kharl Panayali,Federal Capial &AJK,,,,,,,2020-02-21T22:46:06.762Z,2020-02-21T22:46:06.762Z
312,313,"{'__type': 'GeoPoint', 'latitude': 33.4903, 'longitude': 73.9938}",PK,12501,Banni Minhasan,Federal Capial &AJK,,,,,,,2020-02-21T22:46:06.762Z,2020-02-21T22:46:06.762Z
313,314,"{'__type': 'GeoPoint', 'latitude': 33.4903, 'longitude': 73.9938}",PK,12501,Kotala,Federal Capial &AJK,,,,,,,2020-02-21T22:46:06.762Z,2020-02-21T22:46:06.762Z
314,315,"{'__type': 'GeoPoint', 'latitude': 33.4903, 'longitude': 73.9938}",PK,12501,Chattar No.2,Federal Capial &AJK,,,,,,,2020-02-21T22:46:06.763Z,2020-02-21T22:46:06.763Z
315,316,"{'__type': 'GeoPoint', 'latitude': 33.4903, 'longitude': 73.9938}",PK,12501,Meiman Pura,Federal Capial &AJK,,,,,,,2020-02-21T22:46:07.055Z,2020-02-21T22:46:07.055Z
316,317,"{'__type': 'GeoPoint', 'latitude': 33.4903, 'longitude': 73.9938}",PK,12501,Naryola,Federal Capial &AJK,,,,,,,2020-02-21T22:46:07.055Z,2020-02-21T22:46:07.055Z
317,318,"{'__type': 'GeoPoint', 'latitude': 34.7736, 'longitude': 71.9042}",PK,12560,Barikot,Federal Capial &AJK,,,,,,,2020-02-21T22:46:07.056Z,2020-02-21T22:46:07.056Z
318,319,"{'__type': 'GeoPoint', 'latitude': 34.0542, 'longitude': 73.7556}",PK,12510,Birpani,Federal Capial &AJK,,,,,,4,2020-02-21T22:46:07.056Z,2020-02-21T22:46:07.056Z
319,320,"{'__type': 'GeoPoint', 'latitude': 32.8295, 'longitude': 73.5358}",PK,12520,Kharal Abbasian,Federal Capial &AJK,,,,,,,2020-02-21T22:46:07.056Z,2020-02-21T22:46:07.056Z
320,321,"{'__type': 'GeoPoint', 'latitude': 32.8667, 'longitude': 72.2}",PK,12570,Dhulli,Federal Capial &AJK,,,,,,,2020-02-21T22:46:07.056Z,2020-02-21T22:46:07.056Z
321,322,"{'__type': 'GeoPoint', 'latitude': 34.0083, 'longitude': 73.7042}",PK,12503,Jaglari,Federal Capial &AJK,,,,,,4,2020-02-21T22:46:07.056Z,2020-02-21T22:46:07.056Z
322,323,"{'__type': 'GeoPoint', 'latitude': 32.9722, 'longitude': 74.2833}",PK,12503,Thub,Federal Capial &AJK,,,,,,4,2020-02-21T22:46:07.055Z,2020-02-21T22:46:07.055Z
323,324,"{'__type': 'GeoPoint', 'latitude': 28.8197, 'longitude': 62.765}",PK,12601,Sangir Bathara,Federal Capial &AJK,,,,,,,2020-02-21T22:46:07.056Z,2020-02-21T22:46:07.056Z
324,325,"{'__type': 'GeoPoint', 'latitude': 33.4903, 'longitude': 73.9938}",PK,12502,Mallote,Federal Capial &AJK,,,,,,,2020-02-21T22:46:07.055Z,2020-02-21T22:46:07.055Z
325,326,"{'__type': 'GeoPoint', 'latitude': 33.4903, 'longitude': 73.9938}",PK,12503,Bees Bagla,Federal Capial &AJK,,,,,,,2020-02-21T22:46:07.056Z,2020-02-21T22:46:07.056Z
326,327,"{'__type': 'GeoPoint', 'latitude': 32.8295, 'longitude': 73.5358}",PK,12550,Reera Bazar,Federal Capial &AJK,,,,,,,2020-02-21T22:46:07.056Z,2020-02-21T22:46:07.056Z
327,328,"{'__type': 'GeoPoint', 'latitude': 30.2833, 'longitude': 72.4}",PK,12571,Raikot,Federal Capial &AJK,,,,,,4,2020-02-21T22:46:07.056Z,2020-02-21T22:46:07.056Z
328,329,"{'__type': 'GeoPoint', 'latitude': 28.8197, 'longitude': 62.765}",PK,12600,Dhirkot,Federal Capial &AJK,,,,,,,2020-02-21T22:46:07.056Z,2020-02-21T22:46:07.056Z
329,330,"{'__type': 'GeoPoint', 'latitude': 28.8197, 'longitude': 62.765}",PK,12601,Kanyati,Federal Capial &AJK,,,,,,,2020-02-21T22:46:07.056Z,2020-02-21T22:46:07.056Z
330,331,"{'__type': 'GeoPoint', 'latitude': 28.8197, 'longitude': 62.765}",PK,12601,Hans Chowki,Federal Capial &AJK,,,,,,,2020-02-21T22:46:07.056Z,2020-02-21T22:46:07.056Z
331,332,"{'__type': 'GeoPoint', 'latitude': 28.8197, 'longitude': 62.765}",PK,12601,Makhyala,Federal Capial &AJK,,,,,,,2020-02-21T22:46:07.056Z,2020-02-21T22:46:07.056Z
332,333,"{'__type': 'GeoPoint', 'latitude': 28.8197, 'longitude': 62.765}",PK,12601,Paddor Master Khan,Federal Capial &AJK,,,,,,,2020-02-21T22:46:07.056Z,2020-02-21T22:46:07.056Z
333,334,"{'__type': 'GeoPoint', 'latitude': 28.8197, 'longitude': 62.765}",PK,12601,Jhala Bazar,Federal Capial &AJK,,,,,,,2020-02-21T22:46:07.056Z,2020-02-21T22:46:07.056Z
334,335,"{'__type': 'GeoPoint', 'latitude': 28.8197, 'longitude': 62.765}",PK,12601,Jolie Cheer,Federal Capial &AJK,,,,,,,2020-02-21T22:46:07.056Z,2020-02-21T22:46:07.056Z
335,336,"{'__type': 'GeoPoint', 'latitude': 28.8197, 'longitude': 62.765}",PK,12601,Ghani Abad,Federal Capial &AJK,,,,,,,2020-02-21T22:46:07.343Z,2020-02-21T22:46:07.343Z
336,337,"{'__type': 'GeoPoint', 'latitude': 28.8197, 'longitude': 62.765}",PK,12631,Chamyati,Federal Capial &AJK,,,,,,,2020-02-21T22:46:07.343Z,2020-02-21T22:46:07.343Z
337,338,"{'__type': 'GeoPoint', 'latitude': 28.8197, 'longitude': 62.765}",PK,12610,Rangla Apo,Federal Capial &AJK,,,,,,,2020-02-21T22:46:07.343Z,2020-02-21T22:46:07.343Z
338,339,"{'__type': 'GeoPoint', 'latitude': 28.8197, 'longitude': 62.765}",PK,12621,Sohawa Sharif,Federal Capial &AJK,,,,,,,2020-02-21T22:46:07.343Z,2020-02-21T22:46:07.343Z
339,340,"{'__type': 'GeoPoint', 'latitude': 31.0667, 'longitude': 72.8333}",PK,13000,Kohala,Federal Capial &AJK,,,,,,4,2020-02-21T22:46:07.343Z,2020-02-21T22:46:07.343Z
340,341,"{'__type': 'GeoPoint', 'latitude': 28.8197, 'longitude': 62.765}",PK,12621,Seri Bandi,Federal Capial &AJK,,,,,,,2020-02-21T22:46:07.343Z,2020-02-21T22:46:07.343Z
341,342,"{'__type': 'GeoPoint', 'latitude': 28.8197, 'longitude': 62.765}",PK,12630,Chamankot,Federal Capial &AJK,,,,,,,2020-02-21T22:46:07.343Z,2020-02-21T22:46:07.343Z
342,343,"{'__type': 'GeoPoint', 'latitude': 28.8197, 'longitude': 62.765}",PK,12621,Donga Kahutter,Federal Capial &AJK,,,,,,,2020-02-21T22:46:07.343Z,2020-02-21T22:46:07.343Z
343,344,"{'__type': 'GeoPoint', 'latitude': 28.8197, 'longitude': 62.765}",PK,12639,Isakhumari,NWFP Peshawar,,,,,,,2020-02-21T22:46:07.343Z,2020-02-21T22:46:07.343Z
344,345,"{'__type': 'GeoPoint', 'latitude': 28.8197, 'longitude': 62.765}",PK,12620,Chirala,Federal Capial &AJK,,,,,,,2020-02-21T22:46:07.343Z,2020-02-21T22:46:07.343Z
345,346,"{'__type': 'GeoPoint', 'latitude': 31.8458, 'longitude': 72.4917}",PK,13020,Dana Kachilli,Federal Capial &AJK,,,,,,,2020-02-21T22:46:07.343Z,2020-02-21T22:46:07.343Z
346,347,"{'__type': 'GeoPoint', 'latitude': 34.3311, 'longitude': 73.4747}",PK,13101,Ambore,Federal Capial &AJK,,,,,,4,2020-02-21T22:46:07.343Z,2020-02-21T22:46:07.343Z
347,348,"{'__type': 'GeoPoint', 'latitude': 28.8197, 'longitude': 62.765}",PK,12621,Sikandar Abad,Federal Capial &AJK,,,,,,,2020-02-21T22:46:07.343Z,2020-02-21T22:46:07.343Z
348,349,"{'__type': 'GeoPoint', 'latitude': 34.3042, 'longitude': 73.5243}",PK,13100,Muzaffarabad Gpo,Federal Capial &AJK,,,,,,,2020-02-21T22:46:07.343Z,2020-02-21T22:46:07.343Z
349,350,"{'__type': 'GeoPoint', 'latitude': 28.8197, 'longitude': 62.765}",PK,12639,Kundi,NWFP Peshawar,,,,,,4,2020-02-21T22:46:07.343Z,2020-02-21T22:46:07.343Z
350,351,"{'__type': 'GeoPoint', 'latitude': 31.8458, 'longitude': 72.4917}",PK,13021,Rajpothi,Federal Capial &AJK,,,,,,,2020-02-21T22:46:07.343Z,2020-02-21T22:46:07.343Z
351,352,"{'__type': 'GeoPoint', 'latitude': 32.625, 'longitude': 72.15}",PK,13001,Bhan,Federal Capial &AJK,,,,,,4,2020-02-21T22:46:07.343Z,2020-02-21T22:46:07.343Z
352,353,"{'__type': 'GeoPoint', 'latitude': 31.0295, 'longitude': 71.6782}",PK,12351,Cherh,Federal Capial &AJK,,,,,,,2020-02-21T22:46:06.475Z,2020-02-21T22:46:06.475Z
353,354,"{'__type': 'GeoPoint', 'latitude': 31.8458, 'longitude': 72.4917}",PK,13021,Kottarala,Federal Capial &AJK,,,,,,,2020-02-21T22:46:07.343Z,2020-02-21T22:46:07.343Z
354,355,"{'__type': 'GeoPoint', 'latitude': 34.2417, 'longitude': 73.4583}",PK,13101,Masina Kalan,Federal Capial &AJK,,,,,,4,2020-02-21T22:46:07.343Z,2020-02-21T22:46:07.343Z
355,356,"{'__type': 'GeoPoint', 'latitude': 34.3167, 'longitude': 73.55}",PK,13101,Langarpura,Federal Capial &AJK,,,,,,4,2020-02-21T22:46:07.343Z,2020-02-21T22:46:07.343Z
356,357,"{'__type': 'GeoPoint', 'latitude': 34.2925, 'longitude': 73.4833}",PK,13101,Rara,Federal Capial &AJK,,,,,,4,2020-02-21T22:46:07.647Z,2020-02-21T22:46:07.647Z
357,358,"{'__type': 'GeoPoint', 'latitude': 34.2722, 'longitude': 73.4722}",PK,13101,Pattan Khurd,Federal Capial &AJK,,,,,,4,2020-02-21T22:46:07.647Z,2020-02-21T22:46:07.647Z
358,359,"{'__type': 'GeoPoint', 'latitude': 34.3819, 'longitude': 73.5278}",PK,13151,Saran,Federal Capial &AJK,,,,,,4,2020-02-21T22:46:07.648Z,2020-02-21T22:46:07.648Z
359,360,"{'__type': 'GeoPoint', 'latitude': 34.3042, 'longitude': 73.5243}",PK,13101,Majhorte,Federal Capial &AJK,,,,,,,2020-02-21T22:46:07.647Z,2020-02-21T22:46:07.647Z
360,361,"{'__type': 'GeoPoint', 'latitude': 34.3708, 'longitude': 73.7069}",PK,13101,Nambal,Federal Capial &AJK,,,,,,4,2020-02-21T22:46:07.647Z,2020-02-21T22:46:07.647Z
361,362,"{'__type': 'GeoPoint', 'latitude': 34.3042, 'longitude': 73.5243}",PK,13101,Tarrachh Bazar,Federal Capial &AJK,,,,,,,2020-02-21T22:46:07.647Z,2020-02-21T22:46:07.647Z
362,363,"{'__type': 'GeoPoint', 'latitude': 34.3042, 'longitude': 73.5243}",PK,13101,Dhanni Bore,Federal Capial &AJK,,,,,,,2020-02-21T22:46:07.647Z,2020-02-21T22:46:07.647Z
363,364,"{'__type': 'GeoPoint', 'latitude': 34.3042, 'longitude': 73.5243}",PK,13101,Khunbandi,Federal Capial &AJK,,,,,,,2020-02-21T22:46:07.647Z,2020-02-21T22:46:07.647Z
364,365,"{'__type': 'GeoPoint', 'latitude': 34.3042, 'longitude': 73.5243}",PK,13101,Soi Bazar,Federal Capial &AJK,,,,,,,2020-02-21T22:46:07.647Z,2020-02-21T22:46:07.647Z
365,366,"{'__type': 'GeoPoint', 'latitude': 34.2903, 'longitude': 73.6042}",PK,13150,Garahi Dupatta,Federal Capial &AJK,,,,,,,2020-02-21T22:46:07.648Z,2020-02-21T22:46:07.648Z
366,367,"{'__type': 'GeoPoint', 'latitude': 34.3042, 'longitude': 73.5243}",PK,13101,Jessoa Bazar,Federal Capial &AJK,,,,,,,2020-02-21T22:46:07.647Z,2020-02-21T22:46:07.647Z
367,368,"{'__type': 'GeoPoint', 'latitude': 34.3042, 'longitude': 73.5243}",PK,13101,Chirkpura,Federal Capial &AJK,,,,,,,2020-02-21T22:46:07.647Z,2020-02-21T22:46:07.647Z
368,369,"{'__type': 'GeoPoint', 'latitude': 34.3042, 'longitude': 73.5243}",PK,13101,Pattan Kalan,Federal Capial &AJK,,,,,,,2020-02-21T22:46:07.648Z,2020-02-21T22:46:07.648Z
369,370,"{'__type': 'GeoPoint', 'latitude': 31.0295, 'longitude': 71.6782}",PK,12351,Pakgali,Federal Capial &AJK,,,,,,,2020-02-21T22:46:06.474Z,2020-02-21T22:46:06.474Z
370,371,"{'__type': 'GeoPoint', 'latitude': 31.0295, 'longitude': 71.6782}",PK,12351,Shujahabad,Federal Capial &AJK,,,,,,,2020-02-21T22:46:06.474Z,2020-02-21T22:46:06.474Z
371,372,"{'__type': 'GeoPoint', 'latitude': 32.4333, 'longitude': 72.3681}",PK,12470,Mong Bajri,Federal Capial &AJK,,,,,,,2020-02-21T22:46:06.762Z,2020-02-21T22:46:06.762Z
372,373,"{'__type': 'GeoPoint', 'latitude': 34.3042, 'longitude': 73.5243}",PK,13101,Salolbandi,Federal Capial &AJK,,,,,,,2020-02-21T22:46:07.648Z,2020-02-21T22:46:07.648Z
373,374,"{'__type': 'GeoPoint', 'latitude': 34.3042, 'longitude': 73.5243}",PK,13101,Nagri Mujahidabad,Federal Capial &AJK,,,,,,,2020-02-21T22:46:07.648Z,2020-02-21T22:46:07.648Z
374,375,"{'__type': 'GeoPoint', 'latitude': 34.3042, 'longitude': 73.5243}",PK,13101,Qulian Bazar,Federal Capial &AJK,,,,,,,2020-02-21T22:46:07.648Z,2020-02-21T22:46:07.648Z
375,376,"{'__type': 'GeoPoint', 'latitude': 34.3042, 'longitude': 73.5243}",PK,13101,Majoohan,Federal Capial &AJK,,,,,,,2020-02-21T22:46:07.648Z,2020-02-21T22:46:07.648Z
376,377,"{'__type': 'GeoPoint', 'latitude': 34.3042, 'longitude': 73.5243}",PK,13101,Phulair Bazar,Federal Capial &AJK,,,,,,,2020-02-21T22:46:07.648Z,2020-02-21T22:46:07.648Z
377,378,"{'__type': 'GeoPoint', 'latitude': 34.2903, 'longitude': 73.6042}",PK,13151,Koomi Kot,Federal Capial &AJK,,,,,,,2020-02-21T22:46:07.648Z,2020-02-21T22:46:07.648Z
378,379,"{'__type': 'GeoPoint', 'latitude': 34.1986, 'longitude': 73.6806}",PK,13151,Kakarwara,Federal Capial &AJK,,,,,,4,2020-02-21T22:46:07.648Z,2020-02-21T22:46:07.648Z
379,380,"{'__type': 'GeoPoint', 'latitude': 34.477, 'longitude': 73.7948}",PK,13161,Leepa,Federal Capial &AJK,,,,,,,2020-02-21T22:46:07.899Z,2020-02-21T22:46:07.899Z
380,381,"{'__type': 'GeoPoint', 'latitude': 34.2903, 'longitude': 73.6042}",PK,13151,Jhand Gran,Federal Capial &AJK,,,,,,,2020-02-21T22:46:07.899Z,2020-02-21T22:46:07.899Z
381,382,"{'__type': 'GeoPoint', 'latitude': 24.9206, 'longitude': 67.0703}",PK,12311,Azizabad,Federal Capial &AJK,,,,,,,2020-02-21T22:46:06.199Z,2020-02-21T22:46:06.199Z
382,383,"{'__type': 'GeoPoint', 'latitude': 36.3833, 'longitude': 75.7833}",PK,13170,Chikar,Federal Capial &AJK,,,,,,4,2020-02-21T22:46:07.899Z,2020-02-21T22:46:07.899Z
383,384,"{'__type': 'GeoPoint', 'latitude': 34.2903, 'longitude': 73.6042}",PK,13151,Dachore Miran,Federal Capial &AJK,,,,,,,2020-02-21T22:46:07.899Z,2020-02-21T22:46:07.899Z
384,385,"{'__type': 'GeoPoint', 'latitude': 36.3833, 'longitude': 75.7833}",PK,13171,Noon Bagla,Federal Capial &AJK,,,,,,,2020-02-21T22:46:07.899Z,2020-02-21T22:46:07.899Z
385,386,"{'__type': 'GeoPoint', 'latitude': 36.3833, 'longitude': 75.7833}",PK,13171,Sulmia,Federal Capial &AJK,,,,,,,2020-02-21T22:46:07.899Z,2020-02-21T22:46:07.899Z
386,387,"{'__type': 'GeoPoint', 'latitude': 36.3833, 'longitude': 75.7833}",PK,13171,Pajja Sharif,Federal Capial &AJK,,,,,,,2020-02-21T22:46:07.899Z,2020-02-21T22:46:07.899Z
387,388,"{'__type': 'GeoPoint', 'latitude': 36.3833, 'longitude': 75.7833}",PK,13171,Mushtamba,Federal Capial &AJK,,,,,,,2020-02-21T22:46:07.899Z,2020-02-21T22:46:07.899Z
388,389,"{'__type': 'GeoPoint', 'latitude': 32.4667, 'longitude': 73.65}",PK,13171,Rahim Kot,Federal Capial &AJK,,,,,,,2020-02-21T22:46:07.899Z,2020-02-21T22:46:07.899Z
389,390,"{'__type': 'GeoPoint', 'latitude': 34.2583, 'longitude': 73.8222}",PK,13181,Reshian,Federal Capial &AJK,,,,,,4,2020-02-21T22:46:07.899Z,2020-02-21T22:46:07.899Z
390,391,"{'__type': 'GeoPoint', 'latitude': 34.2292, 'longitude': 73.8028}",PK,13181,Lamnia,Federal Capial &AJK,,,,,,,2020-02-21T22:46:07.900Z,2020-02-21T22:46:07.900Z
391,392,"{'__type': 'GeoPoint', 'latitude': 34.15, 'longitude': 73.8167}",PK,13190,Chenari,Federal Capial &AJK,,,,,,,2020-02-21T22:46:07.900Z,2020-02-21T22:46:07.900Z
392,393,"{'__type': 'GeoPoint', 'latitude': 34.2292, 'longitude': 73.8028}",PK,13180,Hattian Bala,Federal Capial &AJK,,,,,,,2020-02-21T22:46:07.899Z,2020-02-21T22:46:07.899Z
393,394,"{'__type': 'GeoPoint', 'latitude': 36.3833, 'longitude': 75.7833}",PK,13171,Jandali Janoobi,Federal Capial &AJK,,,,,,,2020-02-21T22:46:07.899Z,2020-02-21T22:46:07.899Z
394,395,"{'__type': 'GeoPoint', 'latitude': 34.2903, 'longitude': 73.6042}",PK,13151,Phagwan Dopatta,Federal Capial &AJK,,,,,,,2020-02-21T22:46:07.899Z,2020-02-21T22:46:07.899Z
395,396,"{'__type': 'GeoPoint', 'latitude': 36.3833, 'longitude': 75.7833}",PK,13171,Mera Khurd,Federal Capial &AJK,,,,,,,2020-02-21T22:46:07.899Z,2020-02-21T22:46:07.899Z
396,397,"{'__type': 'GeoPoint', 'latitude': 34.2903, 'longitude': 73.6042}",PK,13151,Chattian,Federal Capial &AJK,,,,,,,2020-02-21T22:46:07.899Z,2020-02-21T22:46:07.899Z
397,398,"{'__type': 'GeoPoint', 'latitude': 36.3833, 'longitude': 75.7833}",PK,13171,Maira Saru,Federal Capial &AJK,,,,,,,2020-02-21T22:46:07.899Z,2020-02-21T22:46:07.899Z
398,399,"{'__type': 'GeoPoint', 'latitude': 34.2, 'longitude': 73.7833}",PK,13181,Sharian,Federal Capial &AJK,,,,,,4,2020-02-21T22:46:07.899Z,2020-02-21T22:46:07.899Z
399,400,"{'__type': 'GeoPoint', 'latitude': 27.2833, 'longitude': 67.6667}",PK,13201,Saidpur,Federal Capial &AJK,,,,,,4,2020-02-21T22:46:08.184Z,2020-02-21T22:46:08.184Z
400,401,"{'__type': 'GeoPoint', 'latitude': 32.1762, 'longitude': 71.8219}",PK,13210,Pattika,Federal Capial &AJK,,,,,,,2020-02-21T22:46:08.184Z,2020-02-21T22:46:08.184Z
401,402,"{'__type': 'GeoPoint', 'latitude': 34.477, 'longitude': 73.7948}",PK,13191,Gujarbandi,Federal Capial &AJK,,,,,,,2020-02-21T22:46:08.184Z,2020-02-21T22:46:08.184Z
402,403,"{'__type': 'GeoPoint', 'latitude': 27.2833, 'longitude': 67.6667}",PK,13201,Rajpain,Federal Capial &AJK,,,,,,,2020-02-21T22:46:08.184Z,2020-02-21T22:46:08.184Z
403,404,"{'__type': 'GeoPoint', 'latitude': 34.477, 'longitude': 73.7948}",PK,13191,Chokothi,Federal Capial &AJK,,,,,,,2020-02-21T22:46:07.900Z,2020-02-21T22:46:07.900Z
404,405,"{'__type': 'GeoPoint', 'latitude': 32.1762, 'longitude': 71.8219}",PK,13211,Devlian,Federal Capial &AJK,,,,,,,2020-02-21T22:46:08.184Z,2020-02-21T22:46:08.184Z
405,406,"{'__type': 'GeoPoint', 'latitude': 27.2833, 'longitude': 67.6667}",PK,13200,Kahuri,Federal Capial &AJK,,,,,,,2020-02-21T22:46:08.184Z,2020-02-21T22:46:08.184Z
406,407,"{'__type': 'GeoPoint', 'latitude': 27.2833, 'longitude': 67.6667}",PK,13201,Battal,Federal Capial &AJK,,,,,,,2020-02-21T22:46:08.184Z,2020-02-21T22:46:08.184Z
407,408,"{'__type': 'GeoPoint', 'latitude': 27.2833, 'longitude': 67.6667}",PK,13201,Saryan,Federal Capial &AJK,,,,,,,2020-02-21T22:46:08.184Z,2020-02-21T22:46:08.184Z
408,409,"{'__type': 'GeoPoint', 'latitude': 32.1762, 'longitude': 71.8219}",PK,13211,Bat Dara,Federal Capial &AJK,,,,,,,2020-02-21T22:46:08.184Z,2020-02-21T22:46:08.184Z
409,410,"{'__type': 'GeoPoint', 'latitude': 32.1762, 'longitude': 71.8219}",PK,13211,Kunkian,Federal Capial &AJK,,,,,,,2020-02-21T22:46:08.184Z,2020-02-21T22:46:08.184Z
410,411,"{'__type': 'GeoPoint', 'latitude': 32.1762, 'longitude': 71.8219}",PK,13211,Behari,Federal Capial &AJK,,,,,,,2020-02-21T22:46:08.184Z,2020-02-21T22:46:08.184Z
411,412,"{'__type': 'GeoPoint', 'latitude': 34.8333, 'longitude': 74.3667}",PK,13230,Athmaqam,Federal Capial &AJK,,,,,,,2020-02-21T22:46:08.184Z,2020-02-21T22:46:08.184Z
412,413,"{'__type': 'GeoPoint', 'latitude': 34.8333, 'longitude': 74.3667}",PK,13231,Dudnial,Federal Capial &AJK,,,,,,,2020-02-21T22:46:08.184Z,2020-02-21T22:46:08.184Z
413,414,"{'__type': 'GeoPoint', 'latitude': 34.4119, 'longitude': 73.4325}",PK,13221,Bhalgran,Federal Capial &AJK,,,,,,,2020-02-21T22:46:08.184Z,2020-02-21T22:46:08.184Z
414,415,"{'__type': 'GeoPoint', 'latitude': 34.8333, 'longitude': 74.3667}",PK,13231,Kel,Federal Capial &AJK,,,,,,4,2020-02-21T22:46:08.184Z,2020-02-21T22:46:08.184Z
415,416,"{'__type': 'GeoPoint', 'latitude': 32.1762, 'longitude': 71.8219}",PK,13211,Machira,Federal Capial &AJK,,,,,,,2020-02-21T22:46:08.184Z,2020-02-21T22:46:08.184Z
416,417,"{'__type': 'GeoPoint', 'latitude': 34.4119, 'longitude': 73.4325}",PK,13221,Jura Bazar,Federal Capial &AJK,,,,,,,2020-02-21T22:46:08.184Z,2020-02-21T22:46:08.184Z
417,418,"{'__type': 'GeoPoint', 'latitude': 34.8333, 'longitude': 74.3667}",PK,13231,Dosute,Federal Capial &AJK,,,,,,,2020-02-21T22:46:08.184Z,2020-02-21T22:46:08.184Z
418,419,"{'__type': 'GeoPoint', 'latitude': 34.8333, 'longitude': 74.3667}",PK,13231,Kutton,Federal Capial &AJK,,,,,,,2020-02-21T22:46:08.534Z,2020-02-21T22:46:08.534Z
419,420,"{'__type': 'GeoPoint', 'latitude': 34.8333, 'longitude': 74.3667}",PK,13231,Kundal Shah,Federal Capial &AJK,,,,,,,2020-02-21T22:46:08.184Z,2020-02-21T22:46:08.184Z
420,421,"{'__type': 'GeoPoint', 'latitude': 35.4, 'longitude': 73.8333}",PK,14101,Samagial,Federal Capial &AJK,,,,,,,2020-02-21T22:46:08.535Z,2020-02-21T22:46:08.535Z
421,422,"{'__type': 'GeoPoint', 'latitude': 35.4, 'longitude': 73.8333}",PK,14100,Chilas (Lsg),Federal Capial &AJK,,,,,,,2020-02-21T22:46:08.535Z,2020-02-21T22:46:08.535Z
422,423,"{'__type': 'GeoPoint', 'latitude': 34.8333, 'longitude': 74.3667}",PK,13231,Sharda,Federal Capial &AJK,,,,,,,2020-02-21T22:46:08.535Z,2020-02-21T22:46:08.535Z
423,424,"{'__type': 'GeoPoint', 'latitude': 35.4, 'longitude': 73.8333}",PK,14101,Gunner Form,Federal Capial &AJK,,,,,,,2020-02-21T22:46:08.535Z,2020-02-21T22:46:08.535Z
424,425,"{'__type': 'GeoPoint', 'latitude': 34.8333, 'longitude': 74.3667}",PK,13231,Sargan,Federal Capial &AJK,,,,,,,2020-02-21T22:46:08.535Z,2020-02-21T22:46:08.535Z
425,426,"{'__type': 'GeoPoint', 'latitude': 35.4, 'longitude': 73.8333}",PK,14101,Thore,Federal Capial &AJK,,,,,,4,2020-02-21T22:46:08.535Z,2020-02-21T22:46:08.535Z
426,427,"{'__type': 'GeoPoint', 'latitude': 34.8333, 'longitude': 74.3667}",PK,13231,Lawat,Federal Capial &AJK,,,,,,,2020-02-21T22:46:08.534Z,2020-02-21T22:46:08.534Z
427,428,"{'__type': 'GeoPoint', 'latitude': 34.8333, 'longitude': 74.3667}",PK,13231,Dawarian,Federal Capial &AJK,,,,,,,2020-02-21T22:46:08.535Z,2020-02-21T22:46:08.535Z
428,429,"{'__type': 'GeoPoint', 'latitude': 34.8333, 'longitude': 74.3667}",PK,13231,Phulwaih,Federal Capial &AJK,,,,,,,2020-02-21T22:46:08.535Z,2020-02-21T22:46:08.535Z
429,430,"{'__type': 'GeoPoint', 'latitude': 34.8333, 'longitude': 74.3667}",PK,13231,Neelam,Federal Capial &AJK,,,,,,,2020-02-21T22:46:08.535Z,2020-02-21T22:46:08.535Z
430,431,"{'__type': 'GeoPoint', 'latitude': 35.6667, 'longitude': 74.6}",PK,14200,Bunji,Federal Capial &AJK,,,,,,4,2020-02-21T22:46:08.535Z,2020-02-21T22:46:08.535Z
431,432,"{'__type': 'GeoPoint', 'latitude': 35.4833, 'longitude': 74.7667}",PK,14201,Harcho,Federal Capial &AJK,,,,,,,2020-02-21T22:46:08.535Z,2020-02-21T22:46:08.535Z
432,433,"{'__type': 'GeoPoint', 'latitude': 35.4833, 'longitude': 74.7667}",PK,14201,Lower Doyan,Federal Capial &AJK,,,,,,,2020-02-21T22:46:08.535Z,2020-02-21T22:46:08.535Z
433,434,"{'__type': 'GeoPoint', 'latitude': 35.3667, 'longitude': 74.85}",PK,14300,Astore,Federal Capial &AJK,,,,,,4,2020-02-21T22:46:08.535Z,2020-02-21T22:46:08.535Z
434,435,"{'__type': 'GeoPoint', 'latitude': 35.2, 'longitude': 74.95}",PK,14301,Gudai,Federal Capial &AJK,,,,,,4,2020-02-21T22:46:08.789Z,2020-02-21T22:46:08.789Z
435,436,"{'__type': 'GeoPoint', 'latitude': 35.4833, 'longitude': 74.7667}",PK,14201,Dashkin,Federal Capial &AJK,,,,,,4,2020-02-21T22:46:08.535Z,2020-02-21T22:46:08.535Z
436,437,"{'__type': 'GeoPoint', 'latitude': 35.4, 'longitude': 73.8333}",PK,14101,Jaglot Tangir,Federal Capial &AJK,,,,,,,2020-02-21T22:46:08.535Z,2020-02-21T22:46:08.535Z
437,438,"{'__type': 'GeoPoint', 'latitude': 34.9881, 'longitude': 74.7039}",PK,14301,Tharisling,Federal Capial &AJK,,,,,,,2020-02-21T22:46:08.789Z,2020-02-21T22:46:08.789Z
438,439,"{'__type': 'GeoPoint', 'latitude': 34.7833, 'longitude': 75.0833}",PK,14301,Minimarg,Federal Capial &AJK,,,,,,4,2020-02-21T22:46:08.535Z,2020-02-21T22:46:08.535Z
439,440,"{'__type': 'GeoPoint', 'latitude': 34.5403, 'longitude': 73.8528}",PK,14301,Rampur,Federal Capial &AJK,,,,,,4,2020-02-21T22:46:08.535Z,2020-02-21T22:46:08.535Z
440,441,"{'__type': 'GeoPoint', 'latitude': 34.9881, 'longitude': 74.7039}",PK,14301,Gultari (Seasonal),Federal Capial &AJK,,,,,,,2020-02-21T22:46:08.789Z,2020-02-21T22:46:08.789Z
441,442,"{'__type': 'GeoPoint', 'latitude': 34.9881, 'longitude': 74.7039}",PK,14301,Mir Malik,Federal Capial &AJK,,,,,,,2020-02-21T22:46:08.789Z,2020-02-21T22:46:08.789Z
442,443,"{'__type': 'GeoPoint', 'latitude': 35.1333, 'longitude': 74.8}",PK,14301,Rattu,Federal Capial &AJK,,,,,,4,2020-02-21T22:46:08.789Z,2020-02-21T22:46:08.789Z
443,444,"{'__type': 'GeoPoint', 'latitude': 34.9881, 'longitude': 74.7039}",PK,14301,Pakora,Federal Capial &AJK,,,,,,,2020-02-21T22:46:08.789Z,2020-02-21T22:46:08.789Z
444,445,"{'__type': 'GeoPoint', 'latitude': 36.0731, 'longitude': 74.2544}",PK,15101,Nomal,Federal Capial &AJK,,,,,,4,2020-02-21T22:46:08.789Z,2020-02-21T22:46:08.789Z
445,446,"{'__type': 'GeoPoint', 'latitude': 36.05, 'longitude': 74.3167}",PK,15101,Jutal,Federal Capial &AJK,,,,,,4,2020-02-21T22:46:08.789Z,2020-02-21T22:46:08.789Z
446,447,"{'__type': 'GeoPoint', 'latitude': 35.2446, 'longitude': 73.9909}",PK,15100,Gilgit Gpo,Federal Capial &AJK,,,,,,,2020-02-21T22:46:08.789Z,2020-02-21T22:46:08.789Z
447,448,"{'__type': 'GeoPoint', 'latitude': 31.7875, 'longitude': 73.5556}",PK,14400,Chilam,Federal Capial &AJK,,,,,,4,2020-02-21T22:46:08.789Z,2020-02-21T22:46:08.789Z
448,449,"{'__type': 'GeoPoint', 'latitude': 35.2446, 'longitude': 73.9909}",PK,15101,Bubar,Federal Capial &AJK,,,,,,,2020-02-21T22:46:08.789Z,2020-02-21T22:46:08.789Z
449,450,"{'__type': 'GeoPoint', 'latitude': 34.9881, 'longitude': 74.7039}",PK,14301,Darela Bala,Federal Capial &AJK,,,,,,,2020-02-21T22:46:08.789Z,2020-02-21T22:46:08.789Z
450,451,"{'__type': 'GeoPoint', 'latitude': 35.2833, 'longitude': 74.8333}",PK,14301,Gurikot,Federal Capial &AJK,,,,,,4,2020-02-21T22:46:08.789Z,2020-02-21T22:46:08.789Z
451,452,"{'__type': 'GeoPoint', 'latitude': 32.1167, 'longitude': 73.0667}",PK,15101,Ghulapur,Federal Capial &AJK,,,,,,4,2020-02-21T22:46:08.789Z,2020-02-21T22:46:08.789Z
452,453,"{'__type': 'GeoPoint', 'latitude': 34.9881, 'longitude': 74.7039}",PK,14301,Peena,Federal Capial &AJK,,,,,,,2020-02-21T22:46:08.789Z,2020-02-21T22:46:08.789Z
453,454,"{'__type': 'GeoPoint', 'latitude': 36.1, 'longitude': 73.8833}",PK,15101,Singal,Federal Capial &AJK,,,,,,4,2020-02-21T22:46:08.789Z,2020-02-21T22:46:08.789Z
454,455,"{'__type': 'GeoPoint', 'latitude': 35.2446, 'longitude': 73.9909}",PK,15101,Jagir Basin,Federal Capial &AJK,,,,,,,2020-02-21T22:46:08.789Z,2020-02-21T22:46:08.789Z
455,456,"{'__type': 'GeoPoint', 'latitude': 35.2446, 'longitude': 73.9909}",PK,15101,Rahimabad,Federal Capial &AJK,,,,,,,2020-02-21T22:46:08.789Z,2020-02-21T22:46:08.789Z
456,457,"{'__type': 'GeoPoint', 'latitude': 35.8833, 'longitude': 74.4333}",PK,15101,Minawar,Federal Capial &AJK,,,,,,4,2020-02-21T22:46:08.789Z,2020-02-21T22:46:08.789Z
457,458,"{'__type': 'GeoPoint', 'latitude': 34.9881, 'longitude': 74.7039}",PK,14301,Khangrol,Federal Capial &AJK,,,,,,,2020-02-21T22:46:08.789Z,2020-02-21T22:46:08.789Z
458,459,"{'__type': 'GeoPoint', 'latitude': 34.4119, 'longitude': 73.4325}",PK,13220,Karnah,Federal Capial &AJK,,,,,,4,2020-02-21T22:46:08.184Z,2020-02-21T22:46:08.184Z
459,460,"{'__type': 'GeoPoint', 'latitude': 35.4, 'longitude': 73.8333}",PK,14101,Gumari,Federal Capial &AJK,,,,,,,2020-02-21T22:46:08.535Z,2020-02-21T22:46:08.535Z
460,461,"{'__type': 'GeoPoint', 'latitude': 35.2446, 'longitude': 73.9909}",PK,15101,Shyrote,Federal Capial &AJK,,,,,,,2020-02-21T22:46:09.088Z,2020-02-21T22:46:09.088Z
461,462,"{'__type': 'GeoPoint', 'latitude': 35.2446, 'longitude': 73.9909}",PK,15101,Jaglote Sai,Federal Capial &AJK,,,,,,,2020-02-21T22:46:09.088Z,2020-02-21T22:46:09.088Z
462,463,"{'__type': 'GeoPoint', 'latitude': 35.2446, 'longitude': 73.9909}",PK,15150,Jutial,Federal Capial &AJK,,,,,,,2020-02-21T22:46:09.088Z,2020-02-21T22:46:09.088Z
463,464,"{'__type': 'GeoPoint', 'latitude': 35.2446, 'longitude': 73.9909}",PK,15101,Sher Qilla,Federal Capial &AJK,,,,,,,2020-02-21T22:46:09.088Z,2020-02-21T22:46:09.088Z
464,465,"{'__type': 'GeoPoint', 'latitude': 35.2446, 'longitude': 73.9909}",PK,15101,Sassi,Federal Capial &AJK,,,,,,,2020-02-21T22:46:09.088Z,2020-02-21T22:46:09.088Z
465,466,"{'__type': 'GeoPoint', 'latitude': 34.3563, 'longitude': 73.2067}",PK,15201,Ashkomen,Federal Capial &AJK,,,,,,,2020-02-21T22:46:09.088Z,2020-02-21T22:46:09.088Z
466,467,"{'__type': 'GeoPoint', 'latitude': 29.5833, 'longitude': 70.85}",PK,15301,Khalti,Federal Capial &AJK,,,,,,4,2020-02-21T22:46:09.089Z,2020-02-21T22:46:09.089Z
467,468,"{'__type': 'GeoPoint', 'latitude': 34.3563, 'longitude': 73.2067}",PK,15201,Immit,Federal Capial &AJK,,,,,,,2020-02-21T22:46:09.089Z,2020-02-21T22:46:09.089Z
468,469,"{'__type': 'GeoPoint', 'latitude': 35.2446, 'longitude': 73.9909}",PK,15101,Naltar,Federal Capial &AJK,,,,,,,2020-02-21T22:46:09.088Z,2020-02-21T22:46:09.088Z
469,470,"{'__type': 'GeoPoint', 'latitude': 36.1833, 'longitude': 72.8833}",PK,15301,Chhashi,Federal Capial &AJK,,,,,,4,2020-02-21T22:46:09.089Z,2020-02-21T22:46:09.089Z
470,471,"{'__type': 'GeoPoint', 'latitude': 34.3563, 'longitude': 73.2067}",PK,15201,Sumal,Federal Capial &AJK,,,,,,,2020-02-21T22:46:09.089Z,2020-02-21T22:46:09.089Z
471,472,"{'__type': 'GeoPoint', 'latitude': 32.5405, 'longitude': 71.9486}",PK,15301,Phander,Federal Capial &AJK,,,,,,,2020-02-21T22:46:09.089Z,2020-02-21T22:46:09.089Z
472,473,"{'__type': 'GeoPoint', 'latitude': 36.2333, 'longitude': 73.4333}",PK,15300,Gupis,Federal Capial &AJK,,,,,,4,2020-02-21T22:46:09.089Z,2020-02-21T22:46:09.089Z
473,474,"{'__type': 'GeoPoint', 'latitude': 32.5405, 'longitude': 71.9486}",PK,15301,Yasin,Federal Capial &AJK,,,,,,,2020-02-21T22:46:09.089Z,2020-02-21T22:46:09.089Z
474,475,"{'__type': 'GeoPoint', 'latitude': 32.5405, 'longitude': 71.9486}",PK,15301,Qurqulti,Federal Capial &AJK,,,,,,,2020-02-21T22:46:09.089Z,2020-02-21T22:46:09.089Z
475,476,"{'__type': 'GeoPoint', 'latitude': 34.6786, 'longitude': 71.7917}",PK,15301,Pingal,Federal Capial &AJK,,,,,,4,2020-02-21T22:46:09.089Z,2020-02-21T22:46:09.089Z
476,477,"{'__type': 'GeoPoint', 'latitude': 34.3563, 'longitude': 73.2067}",PK,15201,Chatore Khand,Federal Capial &AJK,,,,,,,2020-02-21T22:46:09.088Z,2020-02-21T22:46:09.088Z
477,478,"{'__type': 'GeoPoint', 'latitude': 34.3563, 'longitude': 73.2067}",PK,15201,Gulddas,Federal Capial &AJK,,,,,,,2020-02-21T22:46:09.088Z,2020-02-21T22:46:09.088Z
478,479,"{'__type': 'GeoPoint', 'latitude': 34.3563, 'longitude': 73.2067}",PK,15200,Gahkooch,Federal Capial &AJK,,,,,,,2020-02-21T22:46:09.088Z,2020-02-21T22:46:09.088Z
479,480,"{'__type': 'GeoPoint', 'latitude': 32.5405, 'longitude': 71.9486}",PK,15301,Harf,Federal Capial &AJK,,,,,,,2020-02-21T22:46:09.373Z,2020-02-21T22:46:09.373Z
480,481,"{'__type': 'GeoPoint', 'latitude': 32.5405, 'longitude': 71.9486}",PK,15301,Burkulti,Federal Capial &AJK,,,,,,,2020-02-21T22:46:09.373Z,2020-02-21T22:46:09.373Z
481,482,"{'__type': 'GeoPoint', 'latitude': 29.7167, 'longitude': 72.2694}",PK,15301,Sindhi,Federal Capial &AJK,,,,,,4,2020-02-21T22:46:09.089Z,2020-02-21T22:46:09.089Z
482,483,"{'__type': 'GeoPoint', 'latitude': 35.6833, 'longitude': 74.175}",PK,15601,Sumayar,Federal Capial &AJK,,,,,,,2020-02-21T22:46:09.373Z,2020-02-21T22:46:09.373Z
483,484,"{'__type': 'GeoPoint', 'latitude': 30.8958, 'longitude': 71.8333}",PK,15401,Mina Pin,Federal Capial &AJK,,,,,,,2020-02-21T22:46:09.373Z,2020-02-21T22:46:09.373Z
484,485,"{'__type': 'GeoPoint', 'latitude': 30.8958, 'longitude': 71.8333}",PK,15401,Thole,Federal Capial &AJK,,,,,,,2020-02-21T22:46:09.373Z,2020-02-21T22:46:09.373Z
485,486,"{'__type': 'GeoPoint', 'latitude': 29.9667, 'longitude': 71.35}",PK,15400,Sikandarabad,Federal Capial &AJK,,,,,,4,2020-02-21T22:46:09.373Z,2020-02-21T22:46:09.373Z
486,487,"{'__type': 'GeoPoint', 'latitude': 36.3, 'longitude': 74.6167}",PK,15600,Aliabad,Federal Capial &AJK,,,,,,,2020-02-21T22:46:09.373Z,2020-02-21T22:46:09.373Z
487,488,"{'__type': 'GeoPoint', 'latitude': 35.6833, 'longitude': 74.175}",PK,15601,Askurdos,Federal Capial &AJK,,,,,,,2020-02-21T22:46:09.373Z,2020-02-21T22:46:09.373Z
488,489,"{'__type': 'GeoPoint', 'latitude': 27.3833, 'longitude': 67.9167}",PK,15550,Nasirabad,Federal Capial &AJK,,,,,,,2020-02-21T22:46:09.373Z,2020-02-21T22:46:09.373Z
489,490,"{'__type': 'GeoPoint', 'latitude': 36.1833, 'longitude': 72.75}",PK,15350,Teru,Federal Capial &AJK,,,,,,4,2020-02-21T22:46:09.373Z,2020-02-21T22:46:09.373Z
490,491,"{'__type': 'GeoPoint', 'latitude': 30.8958, 'longitude': 71.8333}",PK,15401,Hussainabad,Federal Capial &AJK,,,,,,4,2020-02-21T22:46:09.373Z,2020-02-21T22:46:09.373Z
491,492,"{'__type': 'GeoPoint', 'latitude': 35.9667, 'longitude': 74.55}",PK,15651,Hoper,Federal Capial &AJK,,,,,,4,2020-02-21T22:46:09.373Z,2020-02-21T22:46:09.373Z
492,493,"{'__type': 'GeoPoint', 'latitude': 30.8958, 'longitude': 71.8333}",PK,15401,Ghulmit,Federal Capial &AJK,,,,,,,2020-02-21T22:46:09.373Z,2020-02-21T22:46:09.373Z
493,494,"{'__type': 'GeoPoint', 'latitude': 30.8958, 'longitude': 71.8333}",PK,15401,Mayun,Federal Capial &AJK,,,,,,,2020-02-21T22:46:09.373Z,2020-02-21T22:46:09.373Z
494,495,"{'__type': 'GeoPoint', 'latitude': 35.4, 'longitude': 73.8}",PK,15650,Nagar,Federal Capial &AJK,,,,,,4,2020-02-21T22:46:09.373Z,2020-02-21T22:46:09.373Z
495,496,"{'__type': 'GeoPoint', 'latitude': 35.6833, 'longitude': 74.175}",PK,15601,Phikar,Federal Capial &AJK,,,,,,,2020-02-21T22:46:09.373Z,2020-02-21T22:46:09.373Z
496,497,"{'__type': 'GeoPoint', 'latitude': 36.25, 'longitude': 74.2833}",PK,15501,Budlos,Federal Capial &AJK,,,,,,,2020-02-21T22:46:09.373Z,2020-02-21T22:46:09.373Z
497,498,"{'__type': 'GeoPoint', 'latitude': 35.6833, 'longitude': 74.175}",PK,15601,Murtizabad,Federal Capial &AJK,,,,,,,2020-02-21T22:46:09.373Z,2020-02-21T22:46:09.373Z
498,499,"{'__type': 'GeoPoint', 'latitude': 36.25, 'longitude': 74.2833}",PK,15500,Chhalat,Federal Capial &AJK,,,,,,,2020-02-21T22:46:09.373Z,2020-02-21T22:46:09.373Z
499,500,"{'__type': 'GeoPoint', 'latitude': 36.25, 'longitude': 74.2833}",PK,15501,Chaprote,Federal Capial &AJK,,,,,,4,2020-02-21T22:46:09.373Z,2020-02-21T22:46:09.373Z
500,501,"{'__type': 'GeoPoint', 'latitude': 34.3563, 'longitude': 73.2067}",PK,15701,Ahmad Abad,Federal Capial &AJK,,,,,,,2020-02-21T22:46:09.686Z,2020-02-21T22:46:09.686Z
501,502,"{'__type': 'GeoPoint', 'latitude': 34.3563, 'longitude': 73.2067}",PK,15800,Sust,Federal Capial &AJK,,,,,,,2020-02-21T22:46:09.686Z,2020-02-21T22:46:09.686Z
502,503,"{'__type': 'GeoPoint', 'latitude': 34.3563, 'longitude': 73.2067}",PK,15701,Sarrat,Federal Capial &AJK,,,,,,,2020-02-21T22:46:09.685Z,2020-02-21T22:46:09.685Z
503,504,"{'__type': 'GeoPoint', 'latitude': 34.3563, 'longitude': 73.2067}",PK,15701,Altit,Federal Capial &AJK,,,,,,,2020-02-21T22:46:09.686Z,2020-02-21T22:46:09.686Z
504,505,"{'__type': 'GeoPoint', 'latitude': 32.3306, 'longitude': 73.2833}",PK,15700,Karimabad,Federal Capial &AJK,,,,,,,2020-02-21T22:46:09.685Z,2020-02-21T22:46:09.685Z
505,506,"{'__type': 'GeoPoint', 'latitude': 36.2333, 'longitude': 73.1}",PK,16201,Chundah,Federal Capial &AJK,,,,,,,2020-02-21T22:46:09.686Z,2020-02-21T22:46:09.686Z
506,507,"{'__type': 'GeoPoint', 'latitude': 33.8076, 'longitude': 74.1476}",PK,16100,Skardu Hsg,Federal Capial &AJK,,,,,,,2020-02-21T22:46:09.686Z,2020-02-21T22:46:09.686Z
507,508,"{'__type': 'GeoPoint', 'latitude': 36.2333, 'longitude': 73.1}",PK,16200,Skardu Airport,Federal Capial &AJK,,,,,,,2020-02-21T22:46:09.686Z,2020-02-21T22:46:09.686Z
508,509,"{'__type': 'GeoPoint', 'latitude': 33.8076, 'longitude': 74.1476}",PK,16101,Sirmik,Federal Capial &AJK,,,,,,,2020-02-21T22:46:09.686Z,2020-02-21T22:46:09.686Z
509,510,"{'__type': 'GeoPoint', 'latitude': 34.7261, 'longitude': 72.9286}",PK,16101,Nar,Federal Capial &AJK,,,,,,,2020-02-21T22:46:09.686Z,2020-02-21T22:46:09.686Z
510,511,"{'__type': 'GeoPoint', 'latitude': 30.4375, 'longitude': 71.2333}",PK,16101,Hussainabad,Federal Capial &AJK,,,,,,,2020-02-21T22:46:09.686Z,2020-02-21T22:46:09.686Z
511,512,"{'__type': 'GeoPoint', 'latitude': 36.7761, 'longitude': 74.7656}",PK,15900,Misgar,Federal Capial &AJK,,,,,,4,2020-02-21T22:46:09.686Z,2020-02-21T22:46:09.686Z
512,513,"{'__type': 'GeoPoint', 'latitude': 34.3563, 'longitude': 73.2067}",PK,15801,Kirmin,Federal Capial &AJK,,,,,,,2020-02-21T22:46:09.686Z,2020-02-21T22:46:09.686Z
513,514,"{'__type': 'GeoPoint', 'latitude': 33.8076, 'longitude': 74.1476}",PK,16101,Gole,Federal Capial &AJK,,,,,,,2020-02-21T22:46:09.686Z,2020-02-21T22:46:09.686Z
514,515,"{'__type': 'GeoPoint', 'latitude': 33.8076, 'longitude': 74.1476}",PK,16101,Kuwardu,Federal Capial &AJK,,,,,,,2020-02-21T22:46:09.686Z,2020-02-21T22:46:09.686Z
515,516,"{'__type': 'GeoPoint', 'latitude': 36.2333, 'longitude': 73.1}",PK,16201,Kachoora,Federal Capial &AJK,,,,,,,2020-02-21T22:46:09.686Z,2020-02-21T22:46:09.686Z
516,517,"{'__type': 'GeoPoint', 'latitude': 36.2333, 'longitude': 73.1}",PK,16201,Qumrah,Federal Capial &AJK,,,,,,,2020-02-21T22:46:09.686Z,2020-02-21T22:46:09.686Z
517,518,"{'__type': 'GeoPoint', 'latitude': 33.8076, 'longitude': 74.1476}",PK,16101,Strangdongmo,Federal Capial &AJK,,,,,,,2020-02-21T22:46:09.686Z,2020-02-21T22:46:09.686Z
518,519,"{'__type': 'GeoPoint', 'latitude': 33.8076, 'longitude': 74.1476}",PK,16101,Sundus,Federal Capial &AJK,,,,,,,2020-02-21T22:46:09.686Z,2020-02-21T22:46:09.686Z
519,520,"{'__type': 'GeoPoint', 'latitude': 36.2333, 'longitude': 73.1}",PK,16201,Basho,Federal Capial &AJK,,,,,,4,2020-02-21T22:46:09.686Z,2020-02-21T22:46:09.686Z
520,521,"{'__type': 'GeoPoint', 'latitude': 36.2333, 'longitude': 73.1}",PK,16201,Thowar,Federal Capial &AJK,,,,,,,2020-02-21T22:46:09.971Z,2020-02-21T22:46:09.971Z
521,522,"{'__type': 'GeoPoint', 'latitude': 36.2333, 'longitude': 73.1}",PK,16201,Tormik,Federal Capial &AJK,,,,,,,2020-02-21T22:46:09.971Z,2020-02-21T22:46:09.971Z
522,523,"{'__type': 'GeoPoint', 'latitude': 36.2333, 'longitude': 73.1}",PK,16201,Stack,Federal Capial &AJK,,,,,,,2020-02-21T22:46:09.971Z,2020-02-21T22:46:09.971Z
523,524,"{'__type': 'GeoPoint', 'latitude': 33.7229, 'longitude': 74.4875}",PK,16301,Churka,Federal Capial &AJK,,,,,,,2020-02-21T22:46:09.971Z,2020-02-21T22:46:09.971Z
524,525,"{'__type': 'GeoPoint', 'latitude': 35.4333, 'longitude': 75.7333}",PK,16300,Shigar,Federal Capial &AJK,,,,,,4,2020-02-21T22:46:09.971Z,2020-02-21T22:46:09.971Z
525,526,"{'__type': 'GeoPoint', 'latitude': 31.2583, 'longitude': 73.85}",PK,16301,Wazirpur,Federal Capial &AJK,,,,,,4,2020-02-21T22:46:09.971Z,2020-02-21T22:46:09.971Z
526,527,"{'__type': 'GeoPoint', 'latitude': 35.6167, 'longitude': 75.3167}",PK,16301,Dasu,Federal Capial &AJK,,,,,,4,2020-02-21T22:46:09.971Z,2020-02-21T22:46:09.971Z
527,528,"{'__type': 'GeoPoint', 'latitude': 32.4833, 'longitude': 73.1333}",PK,16301,Gulabpur,Federal Capial &AJK,,,,,,4,2020-02-21T22:46:09.971Z,2020-02-21T22:46:09.971Z
528,529,"{'__type': 'GeoPoint', 'latitude': 33.7229, 'longitude': 74.4875}",PK,16301,Tisser,Federal Capial &AJK,,,,,,,2020-02-21T22:46:09.971Z,2020-02-21T22:46:09.971Z
529,530,"{'__type': 'GeoPoint', 'latitude': 35.5333, 'longitude': 75.65}",PK,16301,Alchori,Federal Capial &AJK,,,,,,4,2020-02-21T22:46:09.971Z,2020-02-21T22:46:09.971Z
530,531,"{'__type': 'GeoPoint', 'latitude': 33.7229, 'longitude': 74.4875}",PK,16301,Yunu,Federal Capial &AJK,,,,,,,2020-02-21T22:46:09.971Z,2020-02-21T22:46:09.971Z
531,532,"{'__type': 'GeoPoint', 'latitude': 33.7229, 'longitude': 74.4875}",PK,16301,Chatrooni,Federal Capial &AJK,,,,,,,2020-02-21T22:46:09.971Z,2020-02-21T22:46:09.971Z
532,533,"{'__type': 'GeoPoint', 'latitude': 34.9667, 'longitude': 76.2333}",PK,16401,Manthoka,Federal Capial &AJK,,,,,,,2020-02-21T22:46:09.971Z,2020-02-21T22:46:09.971Z
533,534,"{'__type': 'GeoPoint', 'latitude': 34.9667, 'longitude': 76.2333}",PK,16401,Kharmang,Federal Capial &AJK,,,,,,4,2020-02-21T22:46:09.971Z,2020-02-21T22:46:09.971Z
534,535,"{'__type': 'GeoPoint', 'latitude': 34.9667, 'longitude': 76.2333}",PK,16401,Mayurdu,Federal Capial &AJK,,,,,,,2020-02-21T22:46:09.971Z,2020-02-21T22:46:09.971Z
535,536,"{'__type': 'GeoPoint', 'latitude': 34.9667, 'longitude': 76.2333}",PK,16401,Pari,Federal Capial &AJK,,,,,,,2020-02-21T22:46:09.971Z,2020-02-21T22:46:09.971Z
536,537,"{'__type': 'GeoPoint', 'latitude': 34.9667, 'longitude': 76.2333}",PK,16401,Katisho,Federal Capial &AJK,,,,,,,2020-02-21T22:46:09.971Z,2020-02-21T22:46:09.971Z
537,538,"{'__type': 'GeoPoint', 'latitude': 34.9667, 'longitude': 76.2333}",PK,16401,Kamango,Federal Capial &AJK,,,,,,,2020-02-21T22:46:09.971Z,2020-02-21T22:46:09.971Z
538,539,"{'__type': 'GeoPoint', 'latitude': 34.9667, 'longitude': 76.2333}",PK,16401,Murkun,Federal Capial &AJK,,,,,,,2020-02-21T22:46:09.971Z,2020-02-21T22:46:09.971Z
539,540,"{'__type': 'GeoPoint', 'latitude': 32.1833, 'longitude': 73.5}",PK,16400,Mehdiabad,Federal Capial &AJK,,,,,,4,2020-02-21T22:46:09.971Z,2020-02-21T22:46:09.971Z
540,541,"{'__type': 'GeoPoint', 'latitude': 34.2269, 'longitude': 72.2058}",PK,16500,Baghicha,Federal Capial &AJK,,,,,,4,2020-02-21T22:46:10.271Z,2020-02-21T22:46:10.271Z
541,542,"{'__type': 'GeoPoint', 'latitude': 34.9667, 'longitude': 76.2333}",PK,16401,Toltibroq,Federal Capial &AJK,,,,,,,2020-02-21T22:46:10.271Z,2020-02-21T22:46:10.271Z
542,543,"{'__type': 'GeoPoint', 'latitude': 29.6632, 'longitude': 70.8937}",PK,16701,Ghowari,Federal Capial &AJK,,,,,,,2020-02-21T22:46:10.272Z,2020-02-21T22:46:10.272Z
543,544,"{'__type': 'GeoPoint', 'latitude': 33.8076, 'longitude': 74.1476}",PK,16601,Bilargo,Federal Capial &AJK,,,,,,,2020-02-21T22:46:10.271Z,2020-02-21T22:46:10.271Z
544,545,"{'__type': 'GeoPoint', 'latitude': 34.2269, 'longitude': 72.2058}",PK,16501,Tarkati,Federal Capial &AJK,,,,,,,2020-02-21T22:46:10.271Z,2020-02-21T22:46:10.271Z
545,546,"{'__type': 'GeoPoint', 'latitude': 35.0333, 'longitude': 76.1}",PK,16450,Tolti,Federal Capial &AJK,,,,,,4,2020-02-21T22:46:10.271Z,2020-02-21T22:46:10.271Z
546,547,"{'__type': 'GeoPoint', 'latitude': 33.8076, 'longitude': 74.1476}",PK,16600,Olding,Federal Capial &AJK,,,,,,,2020-02-21T22:46:10.271Z,2020-02-21T22:46:10.271Z
547,548,"{'__type': 'GeoPoint', 'latitude': 34.2269, 'longitude': 72.2058}",PK,16501,Fransat,Federal Capial &AJK,,,,,,,2020-02-21T22:46:10.271Z,2020-02-21T22:46:10.271Z
548,549,"{'__type': 'GeoPoint', 'latitude': 29.6632, 'longitude': 70.8937}",PK,16701,Yogo,Federal Capial &AJK,,,,,,,2020-02-21T22:46:10.272Z,2020-02-21T22:46:10.272Z
549,550,"{'__type': 'GeoPoint', 'latitude': 25.1444, 'longitude': 68.3181}",PK,16701,Gone,Federal Capial &AJK,,,,,,4,2020-02-21T22:46:10.272Z,2020-02-21T22:46:10.272Z
550,551,"{'__type': 'GeoPoint', 'latitude': 34.2269, 'longitude': 72.2058}",PK,16501,Moral,Federal Capial &AJK,,,,,,,2020-02-21T22:46:10.271Z,2020-02-21T22:46:10.271Z
551,552,"{'__type': 'GeoPoint', 'latitude': 35.25, 'longitude': 76.2}",PK,16801,Doghani,Federal Capial &AJK,,,,,,4,2020-02-21T22:46:10.272Z,2020-02-21T22:46:10.272Z
552,553,"{'__type': 'GeoPoint', 'latitude': 34.1819, 'longitude': 73.4694}",PK,16701,Kuru,Federal Capial &AJK,,,,,,4,2020-02-21T22:46:10.272Z,2020-02-21T22:46:10.272Z
553,554,"{'__type': 'GeoPoint', 'latitude': 35.2333, 'longitude': 75.95}",PK,16700,Kiris,Federal Capial &AJK,,,,,,4,2020-02-21T22:46:10.271Z,2020-02-21T22:46:10.271Z
554,555,"{'__type': 'GeoPoint', 'latitude': 34.7926, 'longitude': 74.8271}",PK,16801,Ghursay,Federal Capial &AJK,,,,,,,2020-02-21T22:46:10.272Z,2020-02-21T22:46:10.272Z
555,556,"{'__type': 'GeoPoint', 'latitude': 34.7926, 'longitude': 74.8271}",PK,16801,Machloo,Federal Capial &AJK,,,,,,,2020-02-21T22:46:10.272Z,2020-02-21T22:46:10.272Z
556,557,"{'__type': 'GeoPoint', 'latitude': 29.6632, 'longitude': 70.8937}",PK,16701,Thaley,Federal Capial &AJK,,,,,,,2020-02-21T22:46:10.272Z,2020-02-21T22:46:10.272Z
557,558,"{'__type': 'GeoPoint', 'latitude': 34.3353, 'longitude': 73.4542}",PK,16801,Hasanabad,Federal Capial &AJK,,,,,,4,2020-02-21T22:46:10.272Z,2020-02-21T22:46:10.272Z
558,559,"{'__type': 'GeoPoint', 'latitude': 34.7926, 'longitude': 74.8271}",PK,16801,Pharawa,Federal Capial &AJK,,,,,,,2020-02-21T22:46:10.272Z,2020-02-21T22:46:10.272Z
559,560,"{'__type': 'GeoPoint', 'latitude': 34.7926, 'longitude': 74.8271}",PK,16801,Pion,Federal Capial &AJK,,,,,,,2020-02-21T22:46:10.569Z,2020-02-21T22:46:10.569Z
560,561,"{'__type': 'GeoPoint', 'latitude': 34.7926, 'longitude': 74.8271}",PK,16801,Surmon,Federal Capial &AJK,,,,,,,2020-02-21T22:46:10.569Z,2020-02-21T22:46:10.569Z
561,562,"{'__type': 'GeoPoint', 'latitude': 34.7926, 'longitude': 74.8271}",PK,16800,Khaplu(Lsg),Federal Capial &AJK,,,,,,,2020-02-21T22:46:10.272Z,2020-02-21T22:46:10.272Z
562,563,"{'__type': 'GeoPoint', 'latitude': 33.8076, 'longitude': 74.1476}",PK,16901,Dumsum,Federal Capial &AJK,,,,,,,2020-02-21T22:46:10.569Z,2020-02-21T22:46:10.569Z
563,564,"{'__type': 'GeoPoint', 'latitude': 33.8076, 'longitude': 74.1476}",PK,16901,Seeno,Federal Capial &AJK,,,,,,,2020-02-21T22:46:10.569Z,2020-02-21T22:46:10.569Z
564,565,"{'__type': 'GeoPoint', 'latitude': 34.7926, 'longitude': 74.8271}",PK,16801,Barah Bala,Federal Capial &AJK,,,,,,,2020-02-21T22:46:10.569Z,2020-02-21T22:46:10.569Z
565,566,"{'__type': 'GeoPoint', 'latitude': 34.7926, 'longitude': 74.8271}",PK,16801,Siksa,Federal Capial &AJK,,,,,,,2020-02-21T22:46:10.569Z,2020-02-21T22:46:10.569Z
566,567,"{'__type': 'GeoPoint', 'latitude': 33.8076, 'longitude': 74.1476}",PK,16900,Thagus,Federal Capial &AJK,,,,,,,2020-02-21T22:46:10.569Z,2020-02-21T22:46:10.569Z
567,568,"{'__type': 'GeoPoint', 'latitude': 36.4333, 'longitude': 72.6667}",PK,17010,Brep,NWFP Peshawar,,,,,,4,2020-02-21T22:46:10.569Z,2020-02-21T22:46:10.569Z
568,569,"{'__type': 'GeoPoint', 'latitude': 33.7901, 'longitude': 72.3277}",PK,17011,Koach,NWFP Peshawar,,,,,,,2020-02-21T22:46:10.570Z,2020-02-21T22:46:10.570Z
569,570,"{'__type': 'GeoPoint', 'latitude': 33.7901, 'longitude': 72.3277}",PK,17011,Birzoz,NWFP Peshawar,,,,,,,2020-02-21T22:46:10.570Z,2020-02-21T22:46:10.570Z
570,571,"{'__type': 'GeoPoint', 'latitude': 33.9972, 'longitude': 71.1589}",PK,17011,Barg,NWFP Peshawar,,,,,,4,2020-02-21T22:46:10.570Z,2020-02-21T22:46:10.570Z
571,572,"{'__type': 'GeoPoint', 'latitude': 33.7901, 'longitude': 72.3277}",PK,17011,Shust,NWFP Peshawar,,,,,,,2020-02-21T22:46:10.570Z,2020-02-21T22:46:10.570Z
572,573,"{'__type': 'GeoPoint', 'latitude': 33.7901, 'longitude': 72.3277}",PK,17011,Broghab,NWFP Peshawar,,,,,,,2020-02-21T22:46:10.570Z,2020-02-21T22:46:10.570Z
573,574,"{'__type': 'GeoPoint', 'latitude': 33.7901, 'longitude': 72.3277}",PK,17011,Dizk,NWFP Peshawar,,,,,,,2020-02-21T22:46:10.570Z,2020-02-21T22:46:10.570Z
574,575,"{'__type': 'GeoPoint', 'latitude': 35.8789, 'longitude': 71.8053}",PK,17011,Lasht,NWFP Peshawar,,,,,,4,2020-02-21T22:46:10.570Z,2020-02-21T22:46:10.570Z
575,576,"{'__type': 'GeoPoint', 'latitude': 31.4942, 'longitude': 74.0189}",PK,17011,Pawar,NWFP Peshawar,,,,,,4,2020-02-21T22:46:10.570Z,2020-02-21T22:46:10.570Z
576,577,"{'__type': 'GeoPoint', 'latitude': 33.7901, 'longitude': 72.3277}",PK,17011,Zapao,NWFP Peshawar,,,,,,,2020-02-21T22:46:10.570Z,2020-02-21T22:46:10.570Z
577,578,"{'__type': 'GeoPoint', 'latitude': 33.7901, 'longitude': 72.3277}",PK,17011,Meragram,NWFP Peshawar,,,,,,,2020-02-21T22:46:10.570Z,2020-02-21T22:46:10.570Z
578,579,"{'__type': 'GeoPoint', 'latitude': 36.2833, 'longitude': 72.5167}",PK,17020,Mastuj,NWFP Peshawar,,,,,,4,2020-02-21T22:46:10.570Z,2020-02-21T22:46:10.570Z
579,580,"{'__type': 'GeoPoint', 'latitude': 24.0944, 'longitude': 67.4389}",PK,17030,Harichin,NWFP Peshawar,,,,,,,2020-02-21T22:46:10.890Z,2020-02-21T22:46:10.890Z
580,581,"{'__type': 'GeoPoint', 'latitude': 33.1683, 'longitude': 70.6947}",PK,17021,Chunch,NWFP Peshawar,,,,,,,2020-02-21T22:46:10.890Z,2020-02-21T22:46:10.890Z
581,582,"{'__type': 'GeoPoint', 'latitude': 33.7901, 'longitude': 72.3277}",PK,17011,Marting,NWFP Peshawar,,,,,,,2020-02-21T22:46:10.570Z,2020-02-21T22:46:10.570Z
582,583,"{'__type': 'GeoPoint', 'latitude': 33.1683, 'longitude': 70.6947}",PK,17021,Chappari,NWFP Peshawar,,,,,,4,2020-02-21T22:46:10.890Z,2020-02-21T22:46:10.890Z
583,584,"{'__type': 'GeoPoint', 'latitude': 33.1683, 'longitude': 70.6947}",PK,17021,Kargeen,NWFP Peshawar,,,,,,,2020-02-21T22:46:10.890Z,2020-02-21T22:46:10.890Z
584,585,"{'__type': 'GeoPoint', 'latitude': 33.1683, 'longitude': 70.6947}",PK,17021,Gosht,NWFP Peshawar,,,,,,,2020-02-21T22:46:10.890Z,2020-02-21T22:46:10.890Z
585,586,"{'__type': 'GeoPoint', 'latitude': 36.0075, 'longitude': 71.7578}",PK,17051,Oveer (Charun),NWFP Peshawar,,,,,,,2020-02-21T22:46:10.891Z,2020-02-21T22:46:10.891Z
586,587,"{'__type': 'GeoPoint', 'latitude': 33.1683, 'longitude': 70.6947}",PK,17021,Khubbala,NWFP Peshawar,,,,,,,2020-02-21T22:46:10.890Z,2020-02-21T22:46:10.890Z
587,588,"{'__type': 'GeoPoint', 'latitude': 33.1683, 'longitude': 70.6947}",PK,17021,Sarlaspur,NWFP Peshawar,,,,,,,2020-02-21T22:46:10.890Z,2020-02-21T22:46:10.890Z
588,589,"{'__type': 'GeoPoint', 'latitude': 36.0075, 'longitude': 71.7578}",PK,17051,Awi,NWFP Peshawar,,,,,,4,2020-02-21T22:46:10.891Z,2020-02-21T22:46:10.891Z
589,590,"{'__type': 'GeoPoint', 'latitude': 24.0944, 'longitude': 67.4389}",PK,17031,Baleem,NWFP Peshawar,,,,,,,2020-02-21T22:46:10.891Z,2020-02-21T22:46:10.891Z
590,591,"{'__type': 'GeoPoint', 'latitude': 33.1683, 'longitude': 70.6947}",PK,17021,Parkosap,NWFP Peshawar,,,,,,,2020-02-21T22:46:10.890Z,2020-02-21T22:46:10.890Z
591,592,"{'__type': 'GeoPoint', 'latitude': 24.0944, 'longitude': 67.4389}",PK,17031,Ramon,NWFP Peshawar,,,,,,4,2020-02-21T22:46:10.890Z,2020-02-21T22:46:10.890Z
592,593,"{'__type': 'GeoPoint', 'latitude': 36.0075, 'longitude': 71.7578}",PK,17051,Astaro,NWFP Peshawar,,,,,,,2020-02-21T22:46:10.891Z,2020-02-21T22:46:10.891Z
593,594,"{'__type': 'GeoPoint', 'latitude': 36.0075, 'longitude': 71.7578}",PK,17051,Sano Ghore,NWFP Peshawar,,,,,,,2020-02-21T22:46:10.891Z,2020-02-21T22:46:10.891Z
594,595,"{'__type': 'GeoPoint', 'latitude': 33.6624, 'longitude': 71.8374}",PK,17061,Zand Garam,NWFP Peshawar,,,,,,,2020-02-21T22:46:10.891Z,2020-02-21T22:46:10.891Z
595,596,"{'__type': 'GeoPoint', 'latitude': 36.0075, 'longitude': 71.7578}",PK,17050,Booni,NWFP Peshawar,,,,,,,2020-02-21T22:46:10.891Z,2020-02-21T22:46:10.891Z
596,597,"{'__type': 'GeoPoint', 'latitude': 36.0075, 'longitude': 71.7578}",PK,17051,Booni Gool,NWFP Peshawar,,,,,,,2020-02-21T22:46:10.891Z,2020-02-21T22:46:10.891Z
597,598,"{'__type': 'GeoPoint', 'latitude': 36.0075, 'longitude': 71.7578}",PK,17051,Verkop,NWFP Peshawar,,,,,,,2020-02-21T22:46:10.891Z,2020-02-21T22:46:10.891Z
598,599,"{'__type': 'GeoPoint', 'latitude': 33.6624, 'longitude': 71.8374}",PK,17061,Mazgul,NWFP Peshawar,,,,,,,2020-02-21T22:46:10.891Z,2020-02-21T22:46:10.891Z
599,600,"{'__type': 'GeoPoint', 'latitude': 33.6624, 'longitude': 71.8374}",PK,17061,Trich Payan,NWFP Peshawar,,,,,,,2020-02-21T22:46:10.891Z,2020-02-21T22:46:10.891Z
600,601,"{'__type': 'GeoPoint', 'latitude': 33.6624, 'longitude': 71.8374}",PK,17061,Sahrt,NWFP Peshawar,,,,,,,2020-02-21T22:46:11.408Z,2020-02-21T22:46:11.408Z
601,602,"{'__type': 'GeoPoint', 'latitude': 36.2333, 'longitude': 72.15}",PK,17100,Kosht,NWFP Peshawar,,,,,,4,2020-02-21T22:46:11.408Z,2020-02-21T22:46:11.408Z
602,603,"{'__type': 'GeoPoint', 'latitude': 33.6624, 'longitude': 71.8374}",PK,17061,Nishku,NWFP Peshawar,,,,,,,2020-02-21T22:46:11.408Z,2020-02-21T22:46:11.408Z
603,604,"{'__type': 'GeoPoint', 'latitude': 35.6647, 'longitude': 72.1989}",PK,17111,Zait,NWFP Peshawar,,,,,,,2020-02-21T22:46:11.408Z,2020-02-21T22:46:11.408Z
604,605,"{'__type': 'GeoPoint', 'latitude': 34.6333, 'longitude': 73.1583}",PK,17081,Surwhoth,NWFP Peshawar,,,,,,,2020-02-21T22:46:11.408Z,2020-02-21T22:46:11.408Z
605,606,"{'__type': 'GeoPoint', 'latitude': 34.8181, 'longitude': 72.2167}",PK,17101,Murdar,NWFP Peshawar,,,,,,4,2020-02-21T22:46:11.408Z,2020-02-21T22:46:11.408Z
606,607,"{'__type': 'GeoPoint', 'latitude': 34.6333, 'longitude': 73.1583}",PK,17081,Shut Khar,NWFP Peshawar,,,,,,,2020-02-21T22:46:11.408Z,2020-02-21T22:46:11.408Z
607,608,"{'__type': 'GeoPoint', 'latitude': 34.6333, 'longitude': 73.1583}",PK,17081,Ujnu,NWFP Peshawar,,,,,,,2020-02-21T22:46:11.408Z,2020-02-21T22:46:11.408Z
608,609,"{'__type': 'GeoPoint', 'latitude': 34.6333, 'longitude': 73.1583}",PK,17081,Rech,NWFP Peshawar,,,,,,,2020-02-21T22:46:11.408Z,2020-02-21T22:46:11.408Z
609,610,"{'__type': 'GeoPoint', 'latitude': 34.6333, 'longitude': 73.1583}",PK,17081,Warkku,NWFP Peshawar,,,,,,,2020-02-21T22:46:11.408Z,2020-02-21T22:46:11.408Z
610,611,"{'__type': 'GeoPoint', 'latitude': 34.6333, 'longitude': 73.1583}",PK,17080,Shah Gram,NWFP Peshawar,,,,,,,2020-02-21T22:46:11.408Z,2020-02-21T22:46:11.408Z
611,612,"{'__type': 'GeoPoint', 'latitude': 36.4, 'longitude': 72.3833}",PK,17081,Rain,NWFP Peshawar,,,,,,4,2020-02-21T22:46:11.408Z,2020-02-21T22:46:11.408Z
612,613,"{'__type': 'GeoPoint', 'latitude': 32.8667, 'longitude': 73.9333}",PK,17081,Mehr,NWFP Peshawar,,,,,,4,2020-02-21T22:46:11.408Z,2020-02-21T22:46:11.408Z
613,614,"{'__type': 'GeoPoint', 'latitude': 34.8181, 'longitude': 72.2167}",PK,17101,Muzgule,NWFP Peshawar,,,,,,,2020-02-21T22:46:11.408Z,2020-02-21T22:46:11.408Z
614,615,"{'__type': 'GeoPoint', 'latitude': 34.6333, 'longitude': 73.1583}",PK,17081,Khot,NWFP Peshawar,,,,,,,2020-02-21T22:46:11.408Z,2020-02-21T22:46:11.408Z
615,616,"{'__type': 'GeoPoint', 'latitude': 35.9306, 'longitude': 71.8781}",PK,17121,Rogh,NWFP Peshawar,,,,,,4,2020-02-21T22:46:11.792Z,2020-02-21T22:46:11.792Z
616,617,"{'__type': 'GeoPoint', 'latitude': 35.6647, 'longitude': 72.1989}",PK,17111,Baram Oveer,NWFP Peshawar,,,,,,,2020-02-21T22:46:11.408Z,2020-02-21T22:46:11.408Z
617,618,"{'__type': 'GeoPoint', 'latitude': 35.6647, 'longitude': 72.1989}",PK,17111,Dronga,NWFP Peshawar,,,,,,,2020-02-21T22:46:11.792Z,2020-02-21T22:46:11.792Z
618,619,"{'__type': 'GeoPoint', 'latitude': 35.9306, 'longitude': 71.8781}",PK,17120,Kaghuzi,NWFP Peshawar,,,,,,,2020-02-21T22:46:11.792Z,2020-02-21T22:46:11.792Z
619,620,"{'__type': 'GeoPoint', 'latitude': 34.21, 'longitude': 71.8258}",PK,17200,Chitral,NWFP Peshawar,,,,,,4,2020-02-21T22:46:11.792Z,2020-02-21T22:46:11.792Z
620,621,"{'__type': 'GeoPoint', 'latitude': 36.0039, 'longitude': 71.5817}",PK,17131,Murdan,NWFP Peshawar,,,,,,4,2020-02-21T22:46:11.792Z,2020-02-21T22:46:11.792Z
621,622,"{'__type': 'GeoPoint', 'latitude': 35.995, 'longitude': 71.5589}",PK,17130,Garam Chashma,NWFP Peshawar,,,,,,4,2020-02-21T22:46:11.792Z,2020-02-21T22:46:11.792Z
622,623,"{'__type': 'GeoPoint', 'latitude': 35.2792, 'longitude': 72.3454}",PK,17201,Kari,NWFP Peshawar,,,,,,,2020-02-21T22:46:11.792Z,2020-02-21T22:46:11.792Z
623,624,"{'__type': 'GeoPoint', 'latitude': 35.9306, 'longitude': 71.8781}",PK,17121,Kuju,NWFP Peshawar,,,,,,,2020-02-21T22:46:11.792Z,2020-02-21T22:46:11.792Z
624,625,"{'__type': 'GeoPoint', 'latitude': 36.0224, 'longitude': 71.5141}",PK,17131,Bagushit,NWFP Peshawar,,,,,,,2020-02-21T22:46:11.792Z,2020-02-21T22:46:11.792Z
625,626,"{'__type': 'GeoPoint', 'latitude': 35.9306, 'longitude': 71.8781}",PK,17121,Golean,NWFP Peshawar,,,,,,,2020-02-21T22:46:11.792Z,2020-02-21T22:46:11.792Z
626,627,"{'__type': 'GeoPoint', 'latitude': 34.5925, 'longitude': 72.8561}",PK,17201,Mori,NWFP Peshawar,,,,,,4,2020-02-21T22:46:11.792Z,2020-02-21T22:46:11.792Z
627,628,"{'__type': 'GeoPoint', 'latitude': 36.0224, 'longitude': 71.5141}",PK,17131,Paira Baig,NWFP Peshawar,,,,,,,2020-02-21T22:46:11.792Z,2020-02-21T22:46:11.792Z
628,629,"{'__type': 'GeoPoint', 'latitude': 35.9989, 'longitude': 71.4553}",PK,17131,Birzin,NWFP Peshawar,,,,,,4,2020-02-21T22:46:11.792Z,2020-02-21T22:46:11.792Z
629,630,"{'__type': 'GeoPoint', 'latitude': 35.6647, 'longitude': 72.1989}",PK,17110,Reshun,NWFP Peshawar,,,,,,4,2020-02-21T22:46:11.408Z,2020-02-21T22:46:11.408Z
630,631,"{'__type': 'GeoPoint', 'latitude': 35.859, 'longitude': 71.7843}",PK,17140,Para Beg,NWFP Peshawar,,,,,,,2020-02-21T22:46:11.792Z,2020-02-21T22:46:11.792Z
631,632,"{'__type': 'GeoPoint', 'latitude': 35.6647, 'longitude': 72.1989}",PK,17111,Shangosh Lotoveer,NWFP Peshawar,,,,,,,2020-02-21T22:46:11.408Z,2020-02-21T22:46:11.408Z
632,633,"{'__type': 'GeoPoint', 'latitude': 35.6647, 'longitude': 72.1989}",PK,17111,Overbala,NWFP Peshawar,,,,,,,2020-02-21T22:46:11.408Z,2020-02-21T22:46:11.408Z
633,634,"{'__type': 'GeoPoint', 'latitude': 35.6647, 'longitude': 72.1989}",PK,17111,Loan,NWFP Peshawar,,,,,,,2020-02-21T22:46:11.408Z,2020-02-21T22:46:11.408Z
634,635,"{'__type': 'GeoPoint', 'latitude': 36.0111, 'longitude': 71.6583}",PK,17131,Mogh,NWFP Peshawar,,,,,,4,2020-02-21T22:46:11.792Z,2020-02-21T22:46:11.792Z
635,636,"{'__type': 'GeoPoint', 'latitude': 35.6328, 'longitude': 71.7983}",PK,17201,Kesu,NWFP Peshawar,,,,,,4,2020-02-21T22:46:11.792Z,2020-02-21T22:46:11.792Z
636,637,"{'__type': 'GeoPoint', 'latitude': 36.0756, 'longitude': 71.3611}",PK,17131,Gobor,NWFP Peshawar,,,,,,4,2020-02-21T22:46:11.792Z,2020-02-21T22:46:11.792Z
637,638,"{'__type': 'GeoPoint', 'latitude': 36.0833, 'longitude': 72.05}",PK,17201,Barenis,NWFP Peshawar,,,,,,4,2020-02-21T22:46:11.792Z,2020-02-21T22:46:11.792Z
638,639,"{'__type': 'GeoPoint', 'latitude': 35.2792, 'longitude': 72.3454}",PK,17201,Faiz Abad,NWFP Peshawar,,,,,,,2020-02-21T22:46:11.792Z,2020-02-21T22:46:11.792Z
639,640,"{'__type': 'GeoPoint', 'latitude': 34.8081, 'longitude': 72.6772}",PK,17201,Sangor,NWFP Peshawar,,,,,,4,2020-02-21T22:46:11.792Z,2020-02-21T22:46:11.792Z
640,641,"{'__type': 'GeoPoint', 'latitude': 35.2792, 'longitude': 72.3454}",PK,17201,Arkari,NWFP Peshawar,,,,,,,2020-02-21T22:46:12.059Z,2020-02-21T22:46:12.059Z
641,642,"{'__type': 'GeoPoint', 'latitude': 35.2792, 'longitude': 72.3454}",PK,17201,Chamar Ron,NWFP Peshawar,,,,,,,2020-02-21T22:46:12.059Z,2020-02-21T22:46:12.059Z
642,643,"{'__type': 'GeoPoint', 'latitude': 35.2792, 'longitude': 72.3454}",PK,17201,Denin,NWFP Peshawar,,,,,,,2020-02-21T22:46:12.059Z,2020-02-21T22:46:12.059Z
643,644,"{'__type': 'GeoPoint', 'latitude': 35.2792, 'longitude': 72.3454}",PK,17201,Bakerabad,NWFP Peshawar,,,,,,,2020-02-21T22:46:12.059Z,2020-02-21T22:46:12.059Z
644,645,"{'__type': 'GeoPoint', 'latitude': 35.233, 'longitude': 72.1418}",PK,17210,Ayun,NWFP Peshawar,,,,,,,2020-02-21T22:46:12.059Z,2020-02-21T22:46:12.059Z
645,646,"{'__type': 'GeoPoint', 'latitude': 35.2792, 'longitude': 72.3454}",PK,17201,Kalashfi,NWFP Peshawar,,,,,,,2020-02-21T22:46:12.059Z,2020-02-21T22:46:12.059Z
646,647,"{'__type': 'GeoPoint', 'latitude': 35.2792, 'longitude': 72.3454}",PK,17201,Khasgram,NWFP Peshawar,,,,,,,2020-02-21T22:46:12.059Z,2020-02-21T22:46:12.059Z
647,648,"{'__type': 'GeoPoint', 'latitude': 35.2792, 'longitude': 72.3454}",PK,17201,Jagor,NWFP Peshawar,,,,,,,2020-02-21T22:46:12.059Z,2020-02-21T22:46:12.059Z
648,649,"{'__type': 'GeoPoint', 'latitude': 35.2792, 'longitude': 72.3454}",PK,17201,Karimabad,NWFP Peshawar,,,,,,,2020-02-21T22:46:12.059Z,2020-02-21T22:46:12.059Z
649,650,"{'__type': 'GeoPoint', 'latitude': 35.2792, 'longitude': 72.3454}",PK,17201,Pareet,NWFP Peshawar,,,,,,,2020-02-21T22:46:12.059Z,2020-02-21T22:46:12.059Z
650,651,"{'__type': 'GeoPoint', 'latitude': 34.6431, 'longitude': 73.2278}",PK,17221,Kalas,NWFP Peshawar,,,,,,4,2020-02-21T22:46:12.059Z,2020-02-21T22:46:12.059Z
651,652,"{'__type': 'GeoPoint', 'latitude': 35.7758, 'longitude': 72.0294}",PK,17221,Madak Lasht,NWFP Peshawar,,,,,,4,2020-02-21T22:46:12.059Z,2020-02-21T22:46:12.059Z
652,653,"{'__type': 'GeoPoint', 'latitude': 35.2792, 'longitude': 72.3454}",PK,17201,Mada Shel,NWFP Peshawar,,,,,,,2020-02-21T22:46:12.059Z,2020-02-21T22:46:12.059Z
653,654,"{'__type': 'GeoPoint', 'latitude': 35.2094, 'longitude': 72.6286}",PK,17221,Taar,NWFP Peshawar,,,,,,,2020-02-21T22:46:12.059Z,2020-02-21T22:46:12.059Z
654,655,"{'__type': 'GeoPoint', 'latitude': 35.233, 'longitude': 72.1418}",PK,17211,Bamborat,NWFP Peshawar,,,,,,,2020-02-21T22:46:12.059Z,2020-02-21T22:46:12.059Z
655,656,"{'__type': 'GeoPoint', 'latitude': 35.2792, 'longitude': 72.3454}",PK,17201,Shughur,NWFP Peshawar,,,,,,,2020-02-21T22:46:12.059Z,2020-02-21T22:46:12.059Z
656,657,"{'__type': 'GeoPoint', 'latitude': 35.2792, 'longitude': 72.3454}",PK,17201,Mori Lasht,NWFP Peshawar,,,,,,,2020-02-21T22:46:12.059Z,2020-02-21T22:46:12.059Z
657,658,"{'__type': 'GeoPoint', 'latitude': 35.2792, 'longitude': 72.3454}",PK,17201,Mustajaban Deh,NWFP Peshawar,,,,,,,2020-02-21T22:46:12.059Z,2020-02-21T22:46:12.059Z
658,659,"{'__type': 'GeoPoint', 'latitude': 35.5592, 'longitude': 71.7956}",PK,17220,Drosh,NWFP Peshawar,,,,,,4,2020-02-21T22:46:12.059Z,2020-02-21T22:46:12.059Z
659,660,"{'__type': 'GeoPoint', 'latitude': 35.2094, 'longitude': 72.6286}",PK,17221,Jing Reet,NWFP Peshawar,,,,,,,2020-02-21T22:46:12.379Z,2020-02-21T22:46:12.379Z
660,661,"{'__type': 'GeoPoint', 'latitude': 35.2094, 'longitude': 72.6286}",PK,17221,Saweer,NWFP Peshawar,,,,,,,2020-02-21T22:46:12.059Z,2020-02-21T22:46:12.059Z
661,662,"{'__type': 'GeoPoint', 'latitude': 35.2094, 'longitude': 72.6286}",PK,17221,Birga Nisar,NWFP Peshawar,,,,,,,2020-02-21T22:46:12.379Z,2020-02-21T22:46:12.379Z
662,663,"{'__type': 'GeoPoint', 'latitude': 35.2094, 'longitude': 72.6286}",PK,17221,Ursoon,NWFP Peshawar,,,,,,,2020-02-21T22:46:12.379Z,2020-02-21T22:46:12.379Z
663,664,"{'__type': 'GeoPoint', 'latitude': 35.2094, 'longitude': 72.6286}",PK,17221,Azardam,NWFP Peshawar,,,,,,,2020-02-21T22:46:12.379Z,2020-02-21T22:46:12.379Z
664,665,"{'__type': 'GeoPoint', 'latitude': 35.233, 'longitude': 72.1418}",PK,17230,Broz,NWFP Peshawar,,,,,,,2020-02-21T22:46:12.379Z,2020-02-21T22:46:12.379Z
665,666,"{'__type': 'GeoPoint', 'latitude': 35.4, 'longitude': 73.8}",PK,17240,Nagar,NWFP Peshawar,,,,,,,2020-02-21T22:46:12.379Z,2020-02-21T22:46:12.379Z
666,667,"{'__type': 'GeoPoint', 'latitude': 35.4797, 'longitude': 72.0189}",PK,17260,Ashrait,NWFP Peshawar,,,,,,4,2020-02-21T22:46:12.379Z,2020-02-21T22:46:12.379Z
667,668,"{'__type': 'GeoPoint', 'latitude': 35.233, 'longitude': 72.1418}",PK,17234,Sair Door,NWFP Peshawar,,,,,,,2020-02-21T22:46:12.379Z,2020-02-21T22:46:12.379Z
668,669,"{'__type': 'GeoPoint', 'latitude': 34.0614, 'longitude': 71.6619}",PK,18001,Bela,NWFP Peshawar,,,,,,4,2020-02-21T22:46:12.379Z,2020-02-21T22:46:12.379Z
669,670,"{'__type': 'GeoPoint', 'latitude': 33.7431, 'longitude': 73.8639}",PK,17501,Charun,NWFP Peshawar,,,,,,4,2020-02-21T22:46:12.379Z,2020-02-21T22:46:12.379Z
670,671,"{'__type': 'GeoPoint', 'latitude': 35.4144, 'longitude': 72.1819}",PK,18001,Kalkot,NWFP Peshawar,,,,,,4,2020-02-21T22:46:12.379Z,2020-02-21T22:46:12.379Z
671,672,"{'__type': 'GeoPoint', 'latitude': 35.3464, 'longitude': 72.0606}",PK,18001,Patrak,NWFP Peshawar,,,,,,4,2020-02-21T22:46:12.379Z,2020-02-21T22:46:12.379Z
672,673,"{'__type': 'GeoPoint', 'latitude': 35.4686, 'longitude': 71.7303}",PK,17261,Mirkhani,NWFP Peshawar,,,,,,4,2020-02-21T22:46:12.379Z,2020-02-21T22:46:12.379Z
673,674,"{'__type': 'GeoPoint', 'latitude': 33.7431, 'longitude': 73.8639}",PK,17501,Parwak,NWFP Peshawar,,,,,,,2020-02-21T22:46:12.379Z,2020-02-21T22:46:12.379Z
674,675,"{'__type': 'GeoPoint', 'latitude': 34.2775, 'longitude': 71.6294}",PK,18001,Beyar,NWFP Peshawar,,,,,,4,2020-02-21T22:46:12.379Z,2020-02-21T22:46:12.379Z
675,676,"{'__type': 'GeoPoint', 'latitude': 32.5314, 'longitude': 69.8897}",PK,18000,Dir,NWFP Peshawar,,,,,,4,2020-02-21T22:46:12.379Z,2020-02-21T22:46:12.379Z
676,677,"{'__type': 'GeoPoint', 'latitude': 35.3103, 'longitude': 71.55}",PK,17250,Arandu,NWFP Peshawar,,,,,,4,2020-02-21T22:46:12.379Z,2020-02-21T22:46:12.379Z
677,678,"{'__type': 'GeoPoint', 'latitude': 33.3639, 'longitude': 70.5494}",PK,18001,Thall,NWFP Peshawar,,,,,,4,2020-02-21T22:46:12.379Z,2020-02-21T22:46:12.379Z
678,679,"{'__type': 'GeoPoint', 'latitude': 33.7431, 'longitude': 73.8639}",PK,17501,Mara Gram,NWFP Peshawar,,,,,,,2020-02-21T22:46:12.379Z,2020-02-21T22:46:12.379Z
679,680,"{'__type': 'GeoPoint', 'latitude': 34.4927, 'longitude': 71.6167}",PK,18001,Qualandi,NWFP Peshawar,,,,,,,2020-02-21T22:46:12.902Z,2020-02-21T22:46:12.902Z
680,681,"{'__type': 'GeoPoint', 'latitude': 34.1658, 'longitude': 71.3288}",PK,18051,Biar Darangal,NWFP Peshawar,,,,,,,2020-02-21T22:46:12.902Z,2020-02-21T22:46:12.902Z
681,682,"{'__type': 'GeoPoint', 'latitude': 34.4927, 'longitude': 71.6167}",PK,18001,Sawni,NWFP Peshawar,,,,,,,2020-02-21T22:46:12.902Z,2020-02-21T22:46:12.902Z
682,683,"{'__type': 'GeoPoint', 'latitude': 35.1025, 'longitude': 71.9881}",PK,18150,Darora,NWFP Peshawar,,,,,,4,2020-02-21T22:46:12.902Z,2020-02-21T22:46:12.902Z
683,684,"{'__type': 'GeoPoint', 'latitude': 34.4927, 'longitude': 71.6167}",PK,18001,Jan Batti,NWFP Peshawar,,,,,,,2020-02-21T22:46:12.902Z,2020-02-21T22:46:12.902Z
684,685,"{'__type': 'GeoPoint', 'latitude': 34.4927, 'longitude': 71.6167}",PK,18001,Chukyatan,NWFP Peshawar,,,,,,,2020-02-21T22:46:12.902Z,2020-02-21T22:46:12.902Z
685,686,"{'__type': 'GeoPoint', 'latitude': 35.0315, 'longitude': 72.2849}",PK,18100,Barawal Bandi Edso,NWFP Peshawar,,,,,,,2020-02-21T22:46:12.902Z,2020-02-21T22:46:12.902Z
686,687,"{'__type': 'GeoPoint', 'latitude': 35.0078, 'longitude': 72.3838}",PK,18151,Usheri Dara,NWFP Peshawar,,,,,,,2020-02-21T22:46:12.902Z,2020-02-21T22:46:12.902Z
687,688,"{'__type': 'GeoPoint', 'latitude': 34.1658, 'longitude': 71.3288}",PK,18050,Shiringal Edso,NWFP Peshawar,,,,,,,2020-02-21T22:46:12.902Z,2020-02-21T22:46:12.902Z
688,689,"{'__type': 'GeoPoint', 'latitude': 35.0078, 'longitude': 72.3838}",PK,18151,Gandegar,NWFP Peshawar,,,,,,,2020-02-21T22:46:12.902Z,2020-02-21T22:46:12.902Z
689,690,"{'__type': 'GeoPoint', 'latitude': 33.0167, 'longitude': 74.3}",PK,18201,Patan,NWFP Peshawar,,,,,,4,2020-02-21T22:46:12.902Z,2020-02-21T22:46:12.902Z
690,691,"{'__type': 'GeoPoint', 'latitude': 34.7092, 'longitude': 72.9869}",PK,18151,Sera,NWFP Peshawar,,,,,,4,2020-02-21T22:46:12.902Z,2020-02-21T22:46:12.902Z
691,692,"{'__type': 'GeoPoint', 'latitude': 35.1561, 'longitude': 72.0711}",PK,18151,Almas,NWFP Peshawar,,,,,,4,2020-02-21T22:46:12.902Z,2020-02-21T22:46:12.902Z
692,693,"{'__type': 'GeoPoint', 'latitude': 35.0667, 'longitude': 72.1203}",PK,18201,Jagam,NWFP Peshawar,,,,,,4,2020-02-21T22:46:12.902Z,2020-02-21T22:46:12.902Z
693,694,"{'__type': 'GeoPoint', 'latitude': 34.4927, 'longitude': 71.6167}",PK,18001,Barikot,NWFP Peshawar,,,,,,,2020-02-21T22:46:12.902Z,2020-02-21T22:46:12.902Z
694,695,"{'__type': 'GeoPoint', 'latitude': 34.1658, 'longitude': 71.3288}",PK,18050,Sharingal,NWFP Peshawar,,,,,,,2020-02-21T22:46:12.902Z,2020-02-21T22:46:12.902Z
695,696,"{'__type': 'GeoPoint', 'latitude': 34.4927, 'longitude': 71.6167}",PK,18001,Ganori,NWFP Peshawar,,,,,,,2020-02-21T22:46:12.379Z,2020-02-21T22:46:12.379Z
696,697,"{'__type': 'GeoPoint', 'latitude': 35.1581, 'longitude': 72.0933}",PK,18151,Tarpatar,NWFP Peshawar,,,,,,4,2020-02-21T22:46:12.902Z,2020-02-21T22:46:12.902Z
697,698,"{'__type': 'GeoPoint', 'latitude': 33.015, 'longitude': 72.6911}",PK,18200,Wari,NWFP Peshawar,,,,,,4,2020-02-21T22:46:12.902Z,2020-02-21T22:46:12.902Z
698,699,"{'__type': 'GeoPoint', 'latitude': 35.0078, 'longitude': 72.3838}",PK,18151,Bibyour,NWFP Peshawar,,,,,,,2020-02-21T22:46:12.902Z,2020-02-21T22:46:12.902Z
699,700,"{'__type': 'GeoPoint', 'latitude': 34.0417, 'longitude': 73.2101}",PK,18201,Sahibabad Edso,NWFP Peshawar,,,,,,,2020-02-21T22:46:13.213Z,2020-02-21T22:46:13.213Z
700,701,"{'__type': 'GeoPoint', 'latitude': 35.0078, 'longitude': 72.3838}",PK,18151,Gamseer,NWFP Peshawar,,,,,,,2020-02-21T22:46:12.902Z,2020-02-21T22:46:12.902Z
701,702,"{'__type': 'GeoPoint', 'latitude': 34.0417, 'longitude': 73.2101}",PK,18201,Jelar,NWFP Peshawar,,,,,,,2020-02-21T22:46:13.213Z,2020-02-21T22:46:13.213Z
702,703,"{'__type': 'GeoPoint', 'latitude': 34.7393, 'longitude': 72.2486}",PK,18301,College,NWFP Peshawar,,,,,,,2020-02-21T22:46:13.214Z,2020-02-21T22:46:13.214Z
703,704,"{'__type': 'GeoPoint', 'latitude': 34.7393, 'longitude': 72.2486}",PK,18301,Danwaa,NWFP Peshawar,,,,,,,2020-02-21T22:46:13.214Z,2020-02-21T22:46:13.214Z
704,705,"{'__type': 'GeoPoint', 'latitude': 34.7393, 'longitude': 72.2486}",PK,18301,Haya Serai,NWFP Peshawar,,,,,,,2020-02-21T22:46:13.214Z,2020-02-21T22:46:13.214Z
705,706,"{'__type': 'GeoPoint', 'latitude': 27.7833, 'longitude': 67.6167}",PK,18251,Seer,NWFP Peshawar,,,,,,4,2020-02-21T22:46:13.213Z,2020-02-21T22:46:13.213Z
706,707,"{'__type': 'GeoPoint', 'latitude': 27.7833, 'longitude': 67.6167}",PK,18251,Akhagram,NWFP Peshawar,,,,,,,2020-02-21T22:46:13.213Z,2020-02-21T22:46:13.213Z
707,708,"{'__type': 'GeoPoint', 'latitude': 27.7833, 'longitude': 67.6167}",PK,18251,Shekolai,NWFP Peshawar,,,,,,,2020-02-21T22:46:13.213Z,2020-02-21T22:46:13.213Z
708,709,"{'__type': 'GeoPoint', 'latitude': 34.9469, 'longitude': 72.8778}",PK,18301,Munjai,NWFP Peshawar,,,,,,4,2020-02-21T22:46:13.213Z,2020-02-21T22:46:13.213Z
709,710,"{'__type': 'GeoPoint', 'latitude': 27.7833, 'longitude': 67.6167}",PK,18251,Toormang,NWFP Peshawar,,,,,,,2020-02-21T22:46:13.213Z,2020-02-21T22:46:13.213Z
710,711,"{'__type': 'GeoPoint', 'latitude': 27.7833, 'longitude': 67.6167}",PK,18251,Doryal,NWFP Peshawar,,,,,,,2020-02-21T22:46:13.213Z,2020-02-21T22:46:13.213Z
711,712,"{'__type': 'GeoPoint', 'latitude': 34.2589, 'longitude': 71.8317}",PK,18301,Hajiabad,NWFP Peshawar,,,,,,4,2020-02-21T22:46:13.214Z,2020-02-21T22:46:13.214Z
712,713,"{'__type': 'GeoPoint', 'latitude': 32.7386, 'longitude': 70.7539}",PK,18250,Khall,NWFP Peshawar,,,,,,4,2020-02-21T22:46:13.213Z,2020-02-21T22:46:13.213Z
713,714,"{'__type': 'GeoPoint', 'latitude': 34.0417, 'longitude': 73.2101}",PK,18201,Jogabanj,NWFP Peshawar,,,,,,,2020-02-21T22:46:13.213Z,2020-02-21T22:46:13.213Z
714,715,"{'__type': 'GeoPoint', 'latitude': 27.7833, 'longitude': 67.6167}",PK,18251,Shin Khyari,NWFP Peshawar,,,,,,,2020-02-21T22:46:13.213Z,2020-02-21T22:46:13.213Z
715,716,"{'__type': 'GeoPoint', 'latitude': 34.8611, 'longitude': 71.6736}",PK,18301,Koto,NWFP Peshawar,,,,,,4,2020-02-21T22:46:13.214Z,2020-02-21T22:46:13.214Z
716,717,"{'__type': 'GeoPoint', 'latitude': 34.7393, 'longitude': 72.2486}",PK,18300,Timergara,NWFP Peshawar,,,,,,,2020-02-21T22:46:13.213Z,2020-02-21T22:46:13.213Z
717,718,"{'__type': 'GeoPoint', 'latitude': 34.7393, 'longitude': 72.2486}",PK,18301,Latbook Dara,NWFP Peshawar,,,,,,,2020-02-21T22:46:13.214Z,2020-02-21T22:46:13.214Z
718,719,"{'__type': 'GeoPoint', 'latitude': 34.8417, 'longitude': 73.0472}",PK,18301,Rabat,NWFP Peshawar,,,,,,4,2020-02-21T22:46:13.213Z,2020-02-21T22:46:13.213Z
719,720,"{'__type': 'GeoPoint', 'latitude': 34.7881, 'longitude': 71.8125}",PK,18301,Sado,NWFP Peshawar,,,,,,4,2020-02-21T22:46:13.214Z,2020-02-21T22:46:13.214Z
720,721,"{'__type': 'GeoPoint', 'latitude': 34.7393, 'longitude': 72.2486}",PK,18301,Kandar Bala,NWFP Peshawar,,,,,,,2020-02-21T22:46:13.510Z,2020-02-21T22:46:13.510Z
721,722,"{'__type': 'GeoPoint', 'latitude': 34.7393, 'longitude': 72.2486}",PK,18301,Sher Khane,NWFP Peshawar,,,,,,,2020-02-21T22:46:13.510Z,2020-02-21T22:46:13.510Z
722,723,"{'__type': 'GeoPoint', 'latitude': 34.7393, 'longitude': 72.2486}",PK,18301,Sangolai,NWFP Peshawar,,,,,,,2020-02-21T22:46:13.510Z,2020-02-21T22:46:13.510Z
723,724,"{'__type': 'GeoPoint', 'latitude': 34.6047, 'longitude': 71.965}",PK,18351,Akakher,NWFP Peshawar,,,,,,,2020-02-21T22:46:13.510Z,2020-02-21T22:46:13.510Z
724,725,"{'__type': 'GeoPoint', 'latitude': 34.7393, 'longitude': 72.2486}",PK,18301,Malakand Dara,NWFP Peshawar,,,,,,,2020-02-21T22:46:13.510Z,2020-02-21T22:46:13.510Z
725,726,"{'__type': 'GeoPoint', 'latitude': 34.7393, 'longitude': 72.2486}",PK,18301,Rehanpur,NWFP Peshawar,,,,,,,2020-02-21T22:46:13.510Z,2020-02-21T22:46:13.510Z
726,727,"{'__type': 'GeoPoint', 'latitude': 34.6047, 'longitude': 71.965}",PK,18351,Maidan Bandi,NWFP Peshawar,,,,,,,2020-02-21T22:46:13.510Z,2020-02-21T22:46:13.510Z
727,728,"{'__type': 'GeoPoint', 'latitude': 34.6047, 'longitude': 71.965}",PK,18351,Dara Manial,NWFP Peshawar,,,,,,,2020-02-21T22:46:13.510Z,2020-02-21T22:46:13.510Z
728,729,"{'__type': 'GeoPoint', 'latitude': 34.7393, 'longitude': 72.2486}",PK,18301,Khungi,NWFP Peshawar,,,,,,,2020-02-21T22:46:13.510Z,2020-02-21T22:46:13.510Z
729,730,"{'__type': 'GeoPoint', 'latitude': 34.7393, 'longitude': 72.2486}",PK,18301,Odi Gram,NWFP Peshawar,,,,,,,2020-02-21T22:46:13.510Z,2020-02-21T22:46:13.510Z
730,731,"{'__type': 'GeoPoint', 'latitude': 34.6047, 'longitude': 71.965}",PK,18351,Bashigram,NWFP Peshawar,,,,,,,2020-02-21T22:46:13.510Z,2020-02-21T22:46:13.510Z
731,732,"{'__type': 'GeoPoint', 'latitude': 34.1922, 'longitude': 71.7247}",PK,18450,Zaimdara,NWFP Peshawar,,,,,,,2020-02-21T22:46:13.510Z,2020-02-21T22:46:13.510Z
732,733,"{'__type': 'GeoPoint', 'latitude': 34.6047, 'longitude': 71.965}",PK,18350,Lal Qilla,NWFP Peshawar,,,,,,,2020-02-21T22:46:13.510Z,2020-02-21T22:46:13.510Z
733,734,"{'__type': 'GeoPoint', 'latitude': 34.6047, 'longitude': 71.965}",PK,18351,Gumbat Banda,NWFP Peshawar,,,,,,4,2020-02-21T22:46:13.510Z,2020-02-21T22:46:13.510Z
734,735,"{'__type': 'GeoPoint', 'latitude': 34.7393, 'longitude': 72.2486}",PK,18301,Manda Banda,NWFP Peshawar,,,,,,,2020-02-21T22:46:13.510Z,2020-02-21T22:46:13.510Z
735,736,"{'__type': 'GeoPoint', 'latitude': 33.5508, 'longitude': 70.3194}",PK,18500,Munda,NWFP Peshawar,,,,,,4,2020-02-21T22:46:13.510Z,2020-02-21T22:46:13.510Z
736,737,"{'__type': 'GeoPoint', 'latitude': 34.255, 'longitude': 71.5385}",PK,18501,Takor,NWFP Peshawar,,,,,,,2020-02-21T22:46:13.510Z,2020-02-21T22:46:13.510Z
737,738,"{'__type': 'GeoPoint', 'latitude': 34.4358, 'longitude': 71.4711}",PK,18501,Gardai,NWFP Peshawar,,,,,,4,2020-02-21T22:46:13.510Z,2020-02-21T22:46:13.510Z
738,739,"{'__type': 'GeoPoint', 'latitude': 34.0742, 'longitude': 71.6058}",PK,18501,Khazana,NWFP Peshawar,,,,,,4,2020-02-21T22:46:13.510Z,2020-02-21T22:46:13.510Z
739,740,"{'__type': 'GeoPoint', 'latitude': 34.1922, 'longitude': 71.7247}",PK,18400,Dara Manyali,NWFP Peshawar,,,,,,,2020-02-21T22:46:13.510Z,2020-02-21T22:46:13.510Z
740,741,"{'__type': 'GeoPoint', 'latitude': 34.5564, 'longitude': 71.5997}",PK,18701,Seri Payan,NWFP Peshawar,,,,,,,2020-02-21T22:46:13.814Z,2020-02-21T22:46:13.814Z
741,742,"{'__type': 'GeoPoint', 'latitude': 34.7853, 'longitude': 71.5858}",PK,18651,Turkhomalan Gai,NWFP Peshawar,,,,,,,2020-02-21T22:46:13.814Z,2020-02-21T22:46:13.814Z
742,743,"{'__type': 'GeoPoint', 'latitude': 34.7853, 'longitude': 71.5858}",PK,18651,Nawa Gai,NWFP Peshawar,,,,,,,2020-02-21T22:46:13.814Z,2020-02-21T22:46:13.814Z
743,744,"{'__type': 'GeoPoint', 'latitude': 34.7853, 'longitude': 71.5858}",PK,18651,Inayat Killi,NWFP Peshawar,,,,,,,2020-02-21T22:46:13.814Z,2020-02-21T22:46:13.814Z
744,745,"{'__type': 'GeoPoint', 'latitude': 34.5564, 'longitude': 71.5997}",PK,18701,Bandagai,NWFP Peshawar,,,,,,4,2020-02-21T22:46:13.814Z,2020-02-21T22:46:13.814Z
745,746,"{'__type': 'GeoPoint', 'latitude': 34.7853, 'longitude': 71.5858}",PK,18650,Khar Bajaur,NWFP Peshawar,,,,,,,2020-02-21T22:46:13.814Z,2020-02-21T22:46:13.814Z
746,747,"{'__type': 'GeoPoint', 'latitude': 34.5564, 'longitude': 71.5997}",PK,18701,Seri Bala,NWFP Peshawar,,,,,,,2020-02-21T22:46:13.814Z,2020-02-21T22:46:13.814Z
747,748,"{'__type': 'GeoPoint', 'latitude': 34.9714, 'longitude': 71.6664}",PK,18600,Samar Bagh,NWFP Peshawar,,,,,,,2020-02-21T22:46:13.814Z,2020-02-21T22:46:13.814Z
748,749,"{'__type': 'GeoPoint', 'latitude': 34.9581, 'longitude': 71.5839}",PK,18551,Miskinai,NWFP Peshawar,,,,,,4,2020-02-21T22:46:13.814Z,2020-02-21T22:46:13.814Z
749,750,"{'__type': 'GeoPoint', 'latitude': 34.7853, 'longitude': 71.5858}",PK,18651,Raghagan,NWFP Peshawar,,,,,,4,2020-02-21T22:46:13.814Z,2020-02-21T22:46:13.814Z
750,751,"{'__type': 'GeoPoint', 'latitude': 34.9581, 'longitude': 71.5839}",PK,18550,Mayar Jandol,NWFP Peshawar,,,,,,,2020-02-21T22:46:13.814Z,2020-02-21T22:46:13.814Z
751,752,"{'__type': 'GeoPoint', 'latitude': 34.5564, 'longitude': 71.5997}",PK,18701,Bagh Dushkhel,NWFP Peshawar,,,,,,,2020-02-21T22:46:13.814Z,2020-02-21T22:46:13.814Z
752,753,"{'__type': 'GeoPoint', 'latitude': 34.9581, 'longitude': 71.5839}",PK,18551,Barikab,NWFP Peshawar,,,,,,,2020-02-21T22:46:13.814Z,2020-02-21T22:46:13.814Z
753,754,"{'__type': 'GeoPoint', 'latitude': 34.255, 'longitude': 71.5385}",PK,18501,Shul Kandi,NWFP Peshawar,,,,,,,2020-02-21T22:46:13.814Z,2020-02-21T22:46:13.814Z
754,755,"{'__type': 'GeoPoint', 'latitude': 34.9714, 'longitude': 71.6664}",PK,18601,Tangi Payeen,NWFP Peshawar,,,,,,,2020-02-21T22:46:13.814Z,2020-02-21T22:46:13.814Z
755,756,"{'__type': 'GeoPoint', 'latitude': 34.9714, 'longitude': 71.6664}",PK,18601,Shuntala,NWFP Peshawar,,,,,,,2020-02-21T22:46:13.814Z,2020-02-21T22:46:13.814Z
756,757,"{'__type': 'GeoPoint', 'latitude': 34.7853, 'longitude': 71.5858}",PK,18651,Loy Sum,NWFP Peshawar,,,,,,,2020-02-21T22:46:13.814Z,2020-02-21T22:46:13.814Z
757,758,"{'__type': 'GeoPoint', 'latitude': 34.9714, 'longitude': 71.6664}",PK,18601,Kambat,NWFP Peshawar,,,,,,4,2020-02-21T22:46:13.814Z,2020-02-21T22:46:13.814Z
758,759,"{'__type': 'GeoPoint', 'latitude': 30.3797, 'longitude': 67.7272}",PK,18700,Ziarat,NWFP Peshawar,,,,,,,2020-02-21T22:46:13.814Z,2020-02-21T22:46:13.814Z
759,760,"{'__type': 'GeoPoint', 'latitude': 34.5564, 'longitude': 71.5997}",PK,18750,Ouch,NWFP Peshawar,,,,,,,2020-02-21T22:46:14.106Z,2020-02-21T22:46:14.106Z
760,761,"{'__type': 'GeoPoint', 'latitude': 34.5564, 'longitude': 71.5997}",PK,18701,Shamshi Khan,NWFP Peshawar,,,,,,,2020-02-21T22:46:13.814Z,2020-02-21T22:46:13.814Z
761,762,"{'__type': 'GeoPoint', 'latitude': 35.4828, 'longitude': 72.5886}",PK,19011,Kalam,NWFP Peshawar,,,,,,4,2020-02-21T22:46:14.106Z,2020-02-21T22:46:14.106Z
762,763,"{'__type': 'GeoPoint', 'latitude': 34.5564, 'longitude': 71.5997}",PK,18751,Koti Gram,NWFP Peshawar,,,,,,,2020-02-21T22:46:14.106Z,2020-02-21T22:46:14.106Z
763,764,"{'__type': 'GeoPoint', 'latitude': 34.7331, 'longitude': 72.0706}",PK,18801,Tazagram,NWFP Peshawar,,,,,,4,2020-02-21T22:46:14.106Z,2020-02-21T22:46:14.106Z
764,765,"{'__type': 'GeoPoint', 'latitude': 34.7331, 'longitude': 72.0706}",PK,18801,Aspanr,NWFP Peshawar,,,,,,,2020-02-21T22:46:14.106Z,2020-02-21T22:46:14.106Z
765,766,"{'__type': 'GeoPoint', 'latitude': 34.7331, 'longitude': 72.0706}",PK,18801,Shewa,NWFP Peshawar,,,,,,,2020-02-21T22:46:14.106Z,2020-02-21T22:46:14.106Z
766,767,"{'__type': 'GeoPoint', 'latitude': 34.7331, 'longitude': 72.0706}",PK,18801,Kithyari,NWFP Peshawar,,,,,,,2020-02-21T22:46:14.106Z,2020-02-21T22:46:14.106Z
767,768,"{'__type': 'GeoPoint', 'latitude': 35.2097, 'longitude': 72.5481}",PK,19010,Bahrain,NWFP Peshawar,,,,,,4,2020-02-21T22:46:14.106Z,2020-02-21T22:46:14.106Z
768,769,"{'__type': 'GeoPoint', 'latitude': 34.7331, 'longitude': 72.0706}",PK,18801,Adam Dheri,NWFP Peshawar,,,,,,,2020-02-21T22:46:14.106Z,2020-02-21T22:46:14.106Z
769,770,"{'__type': 'GeoPoint', 'latitude': 34.7331, 'longitude': 72.0706}",PK,18801,Khanpur,NWFP Peshawar,,,,,,,2020-02-21T22:46:14.106Z,2020-02-21T22:46:14.106Z
770,771,"{'__type': 'GeoPoint', 'latitude': 34.6572, 'longitude': 72.0353}",PK,18800,Chakdara,NWFP Peshawar,,,,,,4,2020-02-21T22:46:14.106Z,2020-02-21T22:46:14.106Z
771,772,"{'__type': 'GeoPoint', 'latitude': 35.5389, 'longitude': 72.6597}",PK,19011,Usho,NWFP Peshawar,,,,,,4,2020-02-21T22:46:14.106Z,2020-02-21T22:46:14.106Z
772,773,"{'__type': 'GeoPoint', 'latitude': 35.5108, 'longitude': 72.6242}",PK,19011,Utror,NWFP Peshawar,,,,,,,2020-02-21T22:46:14.106Z,2020-02-21T22:46:14.106Z
773,774,"{'__type': 'GeoPoint', 'latitude': 34.2344, 'longitude': 71.9906}",PK,19021,Chail,NWFP Peshawar,,,,,,4,2020-02-21T22:46:14.106Z,2020-02-21T22:46:14.106Z
774,775,"{'__type': 'GeoPoint', 'latitude': 35.1403, 'longitude': 72.5372}",PK,19020,Madyan,NWFP Peshawar,,,,,,4,2020-02-21T22:46:14.106Z,2020-02-21T22:46:14.106Z
775,776,"{'__type': 'GeoPoint', 'latitude': 35.0233, 'longitude': 72.4731}",PK,19031,Shin,NWFP Peshawar,,,,,,4,2020-02-21T22:46:14.106Z,2020-02-21T22:46:14.106Z
776,777,"{'__type': 'GeoPoint', 'latitude': 35.5108, 'longitude': 72.6242}",PK,19011,Chamgarhi,NWFP Peshawar,,,,,,,2020-02-21T22:46:14.106Z,2020-02-21T22:46:14.106Z
777,778,"{'__type': 'GeoPoint', 'latitude': 35.0233, 'longitude': 72.4731}",PK,19031,Mian Adam,NWFP Peshawar,,,,,,,2020-02-21T22:46:14.106Z,2020-02-21T22:46:14.106Z
778,779,"{'__type': 'GeoPoint', 'latitude': 35.0981, 'longitude': 72.5042}",PK,19021,Qandil,NWFP Peshawar,,,,,,4,2020-02-21T22:46:14.106Z,2020-02-21T22:46:14.106Z
779,780,"{'__type': 'GeoPoint', 'latitude': 31.5944, 'longitude': 72.3997}",PK,19040,Matta,NWFP Peshawar,,,,,,,2020-02-21T22:46:14.358Z,2020-02-21T22:46:14.358Z
780,781,"{'__type': 'GeoPoint', 'latitude': 35.0487, 'longitude': 72.3003}",PK,19041,Shanguatai,NWFP Peshawar,,,,,,,2020-02-21T22:46:14.359Z,2020-02-21T22:46:14.359Z
781,782,"{'__type': 'GeoPoint', 'latitude': 35.0708, 'longitude': 72.4719}",PK,19051,Kalakot,NWFP Peshawar,,,,,,4,2020-02-21T22:46:14.359Z,2020-02-21T22:46:14.359Z
782,783,"{'__type': 'GeoPoint', 'latitude': 31.1667, 'longitude': 71.2167}",PK,19030,Fatehpur,NWFP Peshawar,,,,,,,2020-02-21T22:46:14.106Z,2020-02-21T22:46:14.106Z
783,784,"{'__type': 'GeoPoint', 'latitude': 35.0778, 'longitude': 72.4764}",PK,19051,Rahatkot,NWFP Peshawar,,,,,,4,2020-02-21T22:46:14.359Z,2020-02-21T22:46:14.359Z
784,785,"{'__type': 'GeoPoint', 'latitude': 35.0653, 'longitude': 72.2953}",PK,19041,Biha,NWFP Peshawar,,,,,,4,2020-02-21T22:46:14.359Z,2020-02-21T22:46:14.359Z
785,786,"{'__type': 'GeoPoint', 'latitude': 35.0494, 'longitude': 72.3236}",PK,19041,Labat,NWFP Peshawar,,,,,,4,2020-02-21T22:46:14.359Z,2020-02-21T22:46:14.359Z
786,787,"{'__type': 'GeoPoint', 'latitude': 35.0487, 'longitude': 72.3003}",PK,19041,Barthana,NWFP Peshawar,,,,,,,2020-02-21T22:46:14.359Z,2020-02-21T22:46:14.359Z
787,788,"{'__type': 'GeoPoint', 'latitude': 35.0717, 'longitude': 72.3228}",PK,19041,Roringar,NWFP Peshawar,,,,,,4,2020-02-21T22:46:14.359Z,2020-02-21T22:46:14.359Z
788,789,"{'__type': 'GeoPoint', 'latitude': 35.0647, 'longitude': 72.3058}",PK,19041,Nalkot,NWFP Peshawar,,,,,,4,2020-02-21T22:46:14.359Z,2020-02-21T22:46:14.359Z
789,790,"{'__type': 'GeoPoint', 'latitude': 35.0487, 'longitude': 72.3003}",PK,19041,Chupriyal,NWFP Peshawar,,,,,,,2020-02-21T22:46:14.359Z,2020-02-21T22:46:14.359Z
790,791,"{'__type': 'GeoPoint', 'latitude': 34.9925, 'longitude': 72.2542}",PK,19041,Gat,NWFP Peshawar,,,,,,4,2020-02-21T22:46:14.359Z,2020-02-21T22:46:14.359Z
791,792,"{'__type': 'GeoPoint', 'latitude': 35.0487, 'longitude': 72.3003}",PK,19041,Baidara,NWFP Peshawar,,,,,,,2020-02-21T22:46:14.359Z,2020-02-21T22:46:14.359Z
792,793,"{'__type': 'GeoPoint', 'latitude': 35.0772, 'longitude': 72.4133}",PK,19051,Sakhra,NWFP Peshawar,,,,,,4,2020-02-21T22:46:14.359Z,2020-02-21T22:46:14.359Z
793,794,"{'__type': 'GeoPoint', 'latitude': 35.0487, 'longitude': 72.3003}",PK,19041,Gurra,NWFP Peshawar,,,,,,,2020-02-21T22:46:14.359Z,2020-02-21T22:46:14.359Z
794,795,"{'__type': 'GeoPoint', 'latitude': 35.0487, 'longitude': 72.3003}",PK,19041,Barsherpalam,NWFP Peshawar,,,,,,,2020-02-21T22:46:14.359Z,2020-02-21T22:46:14.359Z
795,796,"{'__type': 'GeoPoint', 'latitude': 35.0751, 'longitude': 72.4468}",PK,19050,Bara Drush Khela,NWFP Peshawar,,,,,,,2020-02-21T22:46:14.359Z,2020-02-21T22:46:14.359Z
796,797,"{'__type': 'GeoPoint', 'latitude': 35.0487, 'longitude': 72.3003}",PK,19041,Koz Shower,NWFP Peshawar,,,,,,,2020-02-21T22:46:14.359Z,2020-02-21T22:46:14.359Z
797,798,"{'__type': 'GeoPoint', 'latitude': 35.0487, 'longitude': 72.3003}",PK,19041,Shower,NWFP Peshawar,,,,,,,2020-02-21T22:46:14.359Z,2020-02-21T22:46:14.359Z
798,799,"{'__type': 'GeoPoint', 'latitude': 35.0744, 'longitude': 72.4256}",PK,19051,Nokhara,NWFP Peshawar,,,,,,4,2020-02-21T22:46:14.359Z,2020-02-21T22:46:14.359Z
799,800,"{'__type': 'GeoPoint', 'latitude': 35.0487, 'longitude': 72.3003}",PK,19041,Sijban,NWFP Peshawar,,,,,,,2020-02-21T22:46:14.359Z,2020-02-21T22:46:14.359Z
800,801,"{'__type': 'GeoPoint', 'latitude': 35.0428, 'longitude': 72.3777}",PK,19060,Kabal,NWFP Peshawar,,,,,,,2020-02-21T22:46:14.652Z,2020-02-21T22:46:14.652Z
801,802,"{'__type': 'GeoPoint', 'latitude': 34.8644, 'longitude': 72.2533}",PK,19070,Devlai,NWFP Peshawar,,,,,,4,2020-02-21T22:46:14.652Z,2020-02-21T22:46:14.652Z
802,803,"{'__type': 'GeoPoint', 'latitude': 35.0428, 'longitude': 72.3777}",PK,19061,Sersenai,NWFP Peshawar,,,,,,,2020-02-21T22:46:14.652Z,2020-02-21T22:46:14.652Z
803,804,"{'__type': 'GeoPoint', 'latitude': 34.9358, 'longitude': 72.2067}",PK,19071,Dardyal,NWFP Peshawar,,,,,,4,2020-02-21T22:46:14.652Z,2020-02-21T22:46:14.652Z
804,805,"{'__type': 'GeoPoint', 'latitude': 34.89, 'longitude': 72.2358}",PK,19071,Shah Dheri,NWFP Peshawar,,,,,,4,2020-02-21T22:46:14.652Z,2020-02-21T22:46:14.652Z
805,806,"{'__type': 'GeoPoint', 'latitude': 35.0428, 'longitude': 72.3777}",PK,19061,Aligrama,NWFP Peshawar,,,,,,,2020-02-21T22:46:14.652Z,2020-02-21T22:46:14.652Z
806,807,"{'__type': 'GeoPoint', 'latitude': 34.9069, 'longitude': 72.2366}",PK,19071,Kalakelley,NWFP Peshawar,,,,,,,2020-02-21T22:46:14.652Z,2020-02-21T22:46:14.652Z
807,808,"{'__type': 'GeoPoint', 'latitude': 34.8947, 'longitude': 72.2672}",PK,19071,Shalhand,NWFP Peshawar,,,,,,4,2020-02-21T22:46:14.652Z,2020-02-21T22:46:14.652Z
808,809,"{'__type': 'GeoPoint', 'latitude': 34.9069, 'longitude': 72.2366}",PK,19071,Caluch,NWFP Peshawar,,,,,,,2020-02-21T22:46:14.652Z,2020-02-21T22:46:14.652Z
809,810,"{'__type': 'GeoPoint', 'latitude': 34.9069, 'longitude': 72.2366}",PK,19071,Tootano Bandi,NWFP Peshawar,,,,,,,2020-02-21T22:46:14.652Z,2020-02-21T22:46:14.652Z
810,811,"{'__type': 'GeoPoint', 'latitude': 34.8867, 'longitude': 72.7703}",PK,19101,Karora,NWFP Peshawar,,,,,,4,2020-02-21T22:46:14.652Z,2020-02-21T22:46:14.652Z
811,812,"{'__type': 'GeoPoint', 'latitude': 34.9203, 'longitude': 72.6319}",PK,19100,Alpurai,NWFP Peshawar,,,,,,4,2020-02-21T22:46:14.652Z,2020-02-21T22:46:14.652Z
812,813,"{'__type': 'GeoPoint', 'latitude': 34.5903, 'longitude': 72.7247}",PK,19101,Banr,NWFP Peshawar,,,,,,4,2020-02-21T22:46:14.652Z,2020-02-21T22:46:14.652Z
813,814,"{'__type': 'GeoPoint', 'latitude': 34.7851, 'longitude': 72.5853}",PK,19101,Chouga,NWFP Peshawar,,,,,,,2020-02-21T22:46:14.652Z,2020-02-21T22:46:14.652Z
814,815,"{'__type': 'GeoPoint', 'latitude': 34.79, 'longitude': 71.8178}",PK,19101,Shikolai,NWFP Peshawar,,,,,,4,2020-02-21T22:46:14.652Z,2020-02-21T22:46:14.652Z
815,816,"{'__type': 'GeoPoint', 'latitude': 34.9317, 'longitude': 72.9628}",PK,19101,Kana,NWFP Peshawar,,,,,,4,2020-02-21T22:46:14.652Z,2020-02-21T22:46:14.652Z
816,817,"{'__type': 'GeoPoint', 'latitude': 34.7851, 'longitude': 72.5853}",PK,19101,Dheri,NWFP Peshawar,,,,,,,2020-02-21T22:46:14.652Z,2020-02-21T22:46:14.652Z
817,818,"{'__type': 'GeoPoint', 'latitude': 34.6381, 'longitude': 72.6233}",PK,19101,Ganshal,NWFP Peshawar,,,,,,4,2020-02-21T22:46:14.652Z,2020-02-21T22:46:14.652Z
818,819,"{'__type': 'GeoPoint', 'latitude': 34.9069, 'longitude': 72.2366}",PK,19071,Saluch,NWFP Peshawar,,,,,,,2020-02-21T22:46:14.652Z,2020-02-21T22:46:14.652Z
819,820,"{'__type': 'GeoPoint', 'latitude': 34.8742, 'longitude': 72.6128}",PK,19101,Kotkay,NWFP Peshawar,,,,,,4,2020-02-21T22:46:14.652Z,2020-02-21T22:46:14.652Z
820,821,"{'__type': 'GeoPoint', 'latitude': 34.7851, 'longitude': 72.5853}",PK,19101,Belay Baba,NWFP Peshawar,,,,,,,2020-02-21T22:46:14.935Z,2020-02-21T22:46:14.935Z
821,822,"{'__type': 'GeoPoint', 'latitude': 34.7851, 'longitude': 72.5853}",PK,19101,Bilkani,NWFP Peshawar,,,,,,,2020-02-21T22:46:14.935Z,2020-02-21T22:46:14.935Z
822,823,"{'__type': 'GeoPoint', 'latitude': 34.7851, 'longitude': 72.5853}",PK,19101,Martoong,NWFP Peshawar,,,,,,,2020-02-21T22:46:14.935Z,2020-02-21T22:46:14.935Z
823,824,"{'__type': 'GeoPoint', 'latitude': 34.8367, 'longitude': 72.4419}",PK,19120,Charbagh,NWFP Peshawar,,,,,,4,2020-02-21T22:46:14.935Z,2020-02-21T22:46:14.935Z
824,825,"{'__type': 'GeoPoint', 'latitude': 34.8747, 'longitude': 72.4347}",PK,19121,Gulibagh,NWFP Peshawar,,,,,,4,2020-02-21T22:46:14.935Z,2020-02-21T22:46:14.935Z
825,826,"{'__type': 'GeoPoint', 'latitude': 34.7397, 'longitude': 72.4256}",PK,19131,Kokarai,NWFP Peshawar,,,,,,4,2020-02-21T22:46:14.935Z,2020-02-21T22:46:14.935Z
826,827,"{'__type': 'GeoPoint', 'latitude': 34.7851, 'longitude': 72.5853}",PK,19101,Damorat,NWFP Peshawar,,,,,,,2020-02-21T22:46:14.935Z,2020-02-21T22:46:14.935Z
827,828,"{'__type': 'GeoPoint', 'latitude': 34.7397, 'longitude': 72.4256}",PK,19131,Ahengro Dheri,NWFP Peshawar,,,,,,,2020-02-21T22:46:14.935Z,2020-02-21T22:46:14.935Z
828,829,"{'__type': 'GeoPoint', 'latitude': 34.7851, 'longitude': 72.5853}",PK,19101,Chagum,NWFP Peshawar,,,,,,,2020-02-21T22:46:14.935Z,2020-02-21T22:46:14.935Z
829,830,"{'__type': 'GeoPoint', 'latitude': 34.9906, 'longitude': 72.4719}",PK,19111,Chamtali,NWFP Peshawar,,,,,,,2020-02-21T22:46:14.935Z,2020-02-21T22:46:14.935Z
830,831,"{'__type': 'GeoPoint', 'latitude': 34.7397, 'longitude': 72.4256}",PK,19131,Jambeel,NWFP Peshawar,,,,,,,2020-02-21T22:46:14.935Z,2020-02-21T22:46:14.935Z
831,832,"{'__type': 'GeoPoint', 'latitude': 34.7851, 'longitude': 72.5853}",PK,19101,Puran,NWFP Peshawar,,,,,,,2020-02-21T22:46:14.935Z,2020-02-21T22:46:14.935Z
832,833,"{'__type': 'GeoPoint', 'latitude': 34.7851, 'longitude': 72.5853}",PK,19101,Chkisar,NWFP Peshawar,,,,,,,2020-02-21T22:46:14.935Z,2020-02-21T22:46:14.935Z
833,834,"{'__type': 'GeoPoint', 'latitude': 34.7851, 'longitude': 72.5853}",PK,19101,Kuzpao,NWFP Peshawar,,,,,,,2020-02-21T22:46:14.935Z,2020-02-21T22:46:14.935Z
834,835,"{'__type': 'GeoPoint', 'latitude': 34.7851, 'longitude': 72.5853}",PK,19101,Lilonai,NWFP Peshawar,,,,,,,2020-02-21T22:46:14.935Z,2020-02-21T22:46:14.935Z
835,836,"{'__type': 'GeoPoint', 'latitude': 34.9906, 'longitude': 72.4719}",PK,19110,Khawaza Khela,NWFP Peshawar,,,,,,,2020-02-21T22:46:14.935Z,2020-02-21T22:46:14.935Z
836,837,"{'__type': 'GeoPoint', 'latitude': 34.9906, 'longitude': 72.4719}",PK,19111,Farhatabad,NWFP Peshawar,,,,,,,2020-02-21T22:46:14.935Z,2020-02-21T22:46:14.935Z
837,838,"{'__type': 'GeoPoint', 'latitude': 34.7761, 'longitude': 72.3611}",PK,19130,Mingora,NWFP Peshawar,,,,,,4,2020-02-21T22:46:14.935Z,2020-02-21T22:46:14.935Z
838,839,"{'__type': 'GeoPoint', 'latitude': 34.5364, 'longitude': 71.2039}",PK,19140,Aman Kot,NWFP Peshawar,,,,,,,2020-02-21T22:46:15.252Z,2020-02-21T22:46:15.252Z
839,840,"{'__type': 'GeoPoint', 'latitude': 34.7397, 'longitude': 72.4256}",PK,19131,Nawan Kellay,NWFP Peshawar,,,,,,,2020-02-21T22:46:14.935Z,2020-02-21T22:46:14.935Z
840,841,"{'__type': 'GeoPoint', 'latitude': 34.9958, 'longitude': 72.7494}",PK,19201,Damorai,NWFP Peshawar,,,,,,4,2020-02-21T22:46:15.252Z,2020-02-21T22:46:15.252Z
841,842,"{'__type': 'GeoPoint', 'latitude': 34.9906, 'longitude': 72.4719}",PK,19111,Kotanai,NWFP Peshawar,,,,,,4,2020-02-21T22:46:14.935Z,2020-02-21T22:46:14.935Z
842,843,"{'__type': 'GeoPoint', 'latitude': 35.0489, 'longitude': 72.5597}",PK,19201,Dherai Baba,NWFP Peshawar,,,,,,4,2020-02-21T22:46:15.252Z,2020-02-21T22:46:15.252Z
843,844,"{'__type': 'GeoPoint', 'latitude': 34.7383, 'longitude': 72.6842}",PK,19150,Aloch,NWFP Peshawar,,,,,,4,2020-02-21T22:46:15.252Z,2020-02-21T22:46:15.252Z
844,845,"{'__type': 'GeoPoint', 'latitude': 34.8741, 'longitude': 72.5631}",PK,19200,Saidu Sharif G.P.O.,NWFP Peshawar,,,,,,,2020-02-21T22:46:15.252Z,2020-02-21T22:46:15.252Z
845,846,"{'__type': 'GeoPoint', 'latitude': 34.8006, 'longitude': 72.3442}",PK,19201,Kanju,NWFP Peshawar,,,,,,4,2020-02-21T22:46:15.252Z,2020-02-21T22:46:15.252Z
846,847,"{'__type': 'GeoPoint', 'latitude': 34.8741, 'longitude': 72.5631}",PK,19201,Hazara,NWFP Peshawar,,,,,,,2020-02-21T22:46:15.252Z,2020-02-21T22:46:15.252Z
847,848,"{'__type': 'GeoPoint', 'latitude': 34.845, 'longitude': 72.4172}",PK,19201,Ningolai,NWFP Peshawar,,,,,,4,2020-02-21T22:46:15.252Z,2020-02-21T22:46:15.252Z
848,849,"{'__type': 'GeoPoint', 'latitude': 34.8741, 'longitude': 72.5631}",PK,19201,Bilkani,NWFP Peshawar,,,,,,,2020-02-21T22:46:15.252Z,2020-02-21T22:46:15.252Z
849,850,"{'__type': 'GeoPoint', 'latitude': 34.8741, 'longitude': 72.5631}",PK,19201,Koza Bandi,NWFP Peshawar,,,,,,,2020-02-21T22:46:15.252Z,2020-02-21T22:46:15.252Z
850,851,"{'__type': 'GeoPoint', 'latitude': 34.8741, 'longitude': 72.5631}",PK,19201,Ganshal,NWFP Peshawar,,,,,,,2020-02-21T22:46:15.252Z,2020-02-21T22:46:15.252Z
851,852,"{'__type': 'GeoPoint', 'latitude': 34.8741, 'longitude': 72.5631}",PK,19201,Kana,NWFP Peshawar,,,,,,,2020-02-21T22:46:15.252Z,2020-02-21T22:46:15.252Z
852,853,"{'__type': 'GeoPoint', 'latitude': 34.8741, 'longitude': 72.5631}",PK,19201,Mang Lore,NWFP Peshawar,,,,,,,2020-02-21T22:46:15.252Z,2020-02-21T22:46:15.252Z
853,854,"{'__type': 'GeoPoint', 'latitude': 34.8741, 'longitude': 72.5631}",PK,19201,Faiz Abad,NWFP Peshawar,,,,,,,2020-02-21T22:46:15.252Z,2020-02-21T22:46:15.252Z
854,855,"{'__type': 'GeoPoint', 'latitude': 34.8741, 'longitude': 72.5631}",PK,19201,Puran,NWFP Peshawar,,,,,,,2020-02-21T22:46:15.252Z,2020-02-21T22:46:15.252Z
855,856,"{'__type': 'GeoPoint', 'latitude': 34.8741, 'longitude': 72.5631}",PK,19201,Islampur,NWFP Peshawar,,,,,,,2020-02-21T22:46:15.252Z,2020-02-21T22:46:15.252Z
856,857,"{'__type': 'GeoPoint', 'latitude': 34.8741, 'longitude': 72.5631}",PK,19201,Chagum,NWFP Peshawar,,,,,,,2020-02-21T22:46:15.252Z,2020-02-21T22:46:15.252Z
857,858,"{'__type': 'GeoPoint', 'latitude': 34.8741, 'longitude': 72.5631}",PK,19201,Goli Gram,NWFP Peshawar,,,,,,,2020-02-21T22:46:15.252Z,2020-02-21T22:46:15.252Z
858,859,"{'__type': 'GeoPoint', 'latitude': 34.68, 'longitude': 72.7447}",PK,19201,Martung,NWFP Peshawar,,,,,,4,2020-02-21T22:46:15.252Z,2020-02-21T22:46:15.252Z
859,860,"{'__type': 'GeoPoint', 'latitude': 34.8741, 'longitude': 72.5631}",PK,19201,Chouga,NWFP Peshawar,,,,,,,2020-02-21T22:46:15.545Z,2020-02-21T22:46:15.545Z
860,861,"{'__type': 'GeoPoint', 'latitude': 34.8741, 'longitude': 72.5631}",PK,19201,Shikolai,NWFP Peshawar,,,,,,,2020-02-21T22:46:15.252Z,2020-02-21T22:46:15.252Z
861,862,"{'__type': 'GeoPoint', 'latitude': 34.6543, 'longitude': 72.4591}",PK,19211,Belogram,NWFP Peshawar,,,,,,,2020-02-21T22:46:15.545Z,2020-02-21T22:46:15.545Z
862,863,"{'__type': 'GeoPoint', 'latitude': 34.6543, 'longitude': 72.4591}",PK,19211,Punjigram,NWFP Peshawar,,,,,,,2020-02-21T22:46:15.545Z,2020-02-21T22:46:15.545Z
863,864,"{'__type': 'GeoPoint', 'latitude': 34.8741, 'longitude': 72.5631}",PK,19201,Karora,NWFP Peshawar,,,,,,,2020-02-21T22:46:15.545Z,2020-02-21T22:46:15.545Z
864,865,"{'__type': 'GeoPoint', 'latitude': 34.715, 'longitude': 72.2703}",PK,19241,Manyar,NWFP Peshawar,,,,,,4,2020-02-21T22:46:15.545Z,2020-02-21T22:46:15.545Z
865,866,"{'__type': 'GeoPoint', 'latitude': 34.6543, 'longitude': 72.4591}",PK,19210,Rahim Abad,NWFP Peshawar,,,,,,,2020-02-21T22:46:15.545Z,2020-02-21T22:46:15.545Z
866,867,"{'__type': 'GeoPoint', 'latitude': 34.8741, 'longitude': 72.5631}",PK,19201,Bara Bandi,NWFP Peshawar,,,,,,,2020-02-21T22:46:15.545Z,2020-02-21T22:46:15.545Z
867,868,"{'__type': 'GeoPoint', 'latitude': 34.6778, 'longitude': 72.2219}",PK,19240,Barikot,NWFP Peshawar,,,,,,4,2020-02-21T22:46:15.545Z,2020-02-21T22:46:15.545Z
868,869,"{'__type': 'GeoPoint', 'latitude': 34.6543, 'longitude': 72.4591}",PK,19211,Odi Gram,NWFP Peshawar,,,,,,,2020-02-21T22:46:15.545Z,2020-02-21T22:46:15.545Z
869,870,"{'__type': 'GeoPoint', 'latitude': 34.8741, 'longitude': 72.5631}",PK,19201,Chakisar,NWFP Peshawar,,,,,,,2020-02-21T22:46:15.545Z,2020-02-21T22:46:15.545Z
870,871,"{'__type': 'GeoPoint', 'latitude': 34.6543, 'longitude': 72.4591}",PK,19211,Tindodog,NWFP Peshawar,,,,,,,2020-02-21T22:46:15.545Z,2020-02-21T22:46:15.545Z
871,872,"{'__type': 'GeoPoint', 'latitude': 34.6686, 'longitude': 72.4208}",PK,19241,Kota,NWFP Peshawar,,,,,,4,2020-02-21T22:46:15.545Z,2020-02-21T22:46:15.545Z
872,873,"{'__type': 'GeoPoint', 'latitude': 34.7056, 'longitude': 72.2308}",PK,19241,Parrai,NWFP Peshawar,,,,,,4,2020-02-21T22:46:15.545Z,2020-02-21T22:46:15.545Z
873,874,"{'__type': 'GeoPoint', 'latitude': 34.6543, 'longitude': 72.4591}",PK,19211,Tariq Abad,NWFP Peshawar,,,,,,,2020-02-21T22:46:15.545Z,2020-02-21T22:46:15.545Z
874,875,"{'__type': 'GeoPoint', 'latitude': 34.6543, 'longitude': 72.4591}",PK,19211,Qamber,NWFP Peshawar,,,,,,,2020-02-21T22:46:15.545Z,2020-02-21T22:46:15.545Z
875,876,"{'__type': 'GeoPoint', 'latitude': 34.6543, 'longitude': 72.4591}",PK,19250,Zara Khela,NWFP Peshawar,,,,,,,2020-02-21T22:46:15.545Z,2020-02-21T22:46:15.545Z
876,877,"{'__type': 'GeoPoint', 'latitude': 34.674, 'longitude': 72.4826}",PK,19241,Aboha,NWFP Peshawar,,,,,,,2020-02-21T22:46:15.545Z,2020-02-21T22:46:15.545Z
877,878,"{'__type': 'GeoPoint', 'latitude': 34.2167, 'longitude': 73.6}",PK,19251,Garhi,NWFP Peshawar,,,,,,,2020-02-21T22:46:15.545Z,2020-02-21T22:46:15.545Z
878,879,"{'__type': 'GeoPoint', 'latitude': 34.6543, 'longitude': 72.4591}",PK,19230,Ghalegi,NWFP Peshawar,,,,,,,2020-02-21T22:46:15.545Z,2020-02-21T22:46:15.545Z
879,880,"{'__type': 'GeoPoint', 'latitude': 34.6069, 'longitude': 73.0083}",PK,19241,Guratai,NWFP Peshawar,,,,,,4,2020-02-21T22:46:15.545Z,2020-02-21T22:46:15.545Z
880,881,"{'__type': 'GeoPoint', 'latitude': 34.6543, 'longitude': 72.4591}",PK,19281,Dokada,NWFP Peshawar,,,,,,,2020-02-21T22:46:15.855Z,2020-02-21T22:46:15.855Z
881,882,"{'__type': 'GeoPoint', 'latitude': 34.5158, 'longitude': 72.3614}",PK,19270,Torwarsak,NWFP Peshawar,,,,,,4,2020-02-21T22:46:15.855Z,2020-02-21T22:46:15.855Z
882,883,"{'__type': 'GeoPoint', 'latitude': 34.6543, 'longitude': 72.4591}",PK,19280,Pir Baba,NWFP Peshawar,,,,,,,2020-02-21T22:46:15.855Z,2020-02-21T22:46:15.855Z
883,884,"{'__type': 'GeoPoint', 'latitude': 34.38, 'longitude': 72.6817}",PK,19291,Nagrai,NWFP Peshawar,,,,,,4,2020-02-21T22:46:15.855Z,2020-02-21T22:46:15.855Z
884,885,"{'__type': 'GeoPoint', 'latitude': 34.6543, 'longitude': 72.4591}",PK,19281,Bam Pokha,NWFP Peshawar,,,,,,,2020-02-21T22:46:15.855Z,2020-02-21T22:46:15.855Z
885,886,"{'__type': 'GeoPoint', 'latitude': 34.6543, 'longitude': 72.4591}",PK,19281,Ghazi Khani,NWFP Peshawar,,,,,,,2020-02-21T22:46:15.855Z,2020-02-21T22:46:15.855Z
886,887,"{'__type': 'GeoPoint', 'latitude': 34.6543, 'longitude': 72.4591}",PK,19281,Kinger Gali,NWFP Peshawar,,,,,,,2020-02-21T22:46:15.855Z,2020-02-21T22:46:15.855Z
887,888,"{'__type': 'GeoPoint', 'latitude': 34.4704, 'longitude': 72.3984}",PK,19291,Shall Band,NWFP Peshawar,,,,,,,2020-02-21T22:46:15.855Z,2020-02-21T22:46:15.855Z
888,889,"{'__type': 'GeoPoint', 'latitude': 34.5114, 'longitude': 72.4839}",PK,19290,Daggar,NWFP Peshawar,,,,,,4,2020-02-21T22:46:15.855Z,2020-02-21T22:46:15.855Z
889,890,"{'__type': 'GeoPoint', 'latitude': 34.6543, 'longitude': 72.4591}",PK,19281,Sultan Was,NWFP Peshawar,,,,,,,2020-02-21T22:46:15.855Z,2020-02-21T22:46:15.855Z
890,891,"{'__type': 'GeoPoint', 'latitude': 34.0689, 'longitude': 72.6244}",PK,19291,Topi,NWFP Peshawar,,,,,,4,2020-02-21T22:46:15.855Z,2020-02-21T22:46:15.855Z
891,892,"{'__type': 'GeoPoint', 'latitude': 34.4704, 'longitude': 72.3984}",PK,19291,Sawaraj,NWFP Peshawar,,,,,,,2020-02-21T22:46:15.855Z,2020-02-21T22:46:15.855Z
892,893,"{'__type': 'GeoPoint', 'latitude': 34.5417, 'longitude': 72.6372}",PK,19291,Battara,NWFP Peshawar,,,,,,4,2020-02-21T22:46:15.855Z,2020-02-21T22:46:15.855Z
893,894,"{'__type': 'GeoPoint', 'latitude': 34.4939, 'longitude': 72.6511}",PK,19291,Budal,NWFP Peshawar,,,,,,4,2020-02-21T22:46:15.855Z,2020-02-21T22:46:15.855Z
894,895,"{'__type': 'GeoPoint', 'latitude': 34.4704, 'longitude': 72.3984}",PK,19291,Ellai,NWFP Peshawar,,,,,,,2020-02-21T22:46:15.855Z,2020-02-21T22:46:15.855Z
895,896,"{'__type': 'GeoPoint', 'latitude': 34.4704, 'longitude': 72.3984}",PK,19291,Baj Kata,NWFP Peshawar,,,,,,,2020-02-21T22:46:15.855Z,2020-02-21T22:46:15.855Z
896,897,"{'__type': 'GeoPoint', 'latitude': 34.8675, 'longitude': 71.3975}",PK,19291,Kalpani,NWFP Peshawar,,,,,,4,2020-02-21T22:46:15.855Z,2020-02-21T22:46:15.855Z
897,898,"{'__type': 'GeoPoint', 'latitude': 34.4704, 'longitude': 72.3984}",PK,19291,Dewana Baba,NWFP Peshawar,,,,,,,2020-02-21T22:46:15.855Z,2020-02-21T22:46:15.855Z
898,899,"{'__type': 'GeoPoint', 'latitude': 34.4704, 'longitude': 72.3984}",PK,19291,Bagra,NWFP Peshawar,,,,,,,2020-02-21T22:46:15.855Z,2020-02-21T22:46:15.855Z
899,900,"{'__type': 'GeoPoint', 'latitude': 34.4704, 'longitude': 72.3984}",PK,19291,Angha Pur,NWFP Peshawar,,,,,,,2020-02-21T22:46:15.855Z,2020-02-21T22:46:15.855Z
900,901,"{'__type': 'GeoPoint', 'latitude': 34.4704, 'longitude': 72.3984}",PK,19291,Kurgokand,NWFP Peshawar,,,,,,,2020-02-21T22:46:16.122Z,2020-02-21T22:46:16.122Z
901,902,"{'__type': 'GeoPoint', 'latitude': 34.3883, 'longitude': 72.5492}",PK,19301,Sura,NWFP Peshawar,,,,,,4,2020-02-21T22:46:16.122Z,2020-02-21T22:46:16.122Z
902,903,"{'__type': 'GeoPoint', 'latitude': 34.3103, 'longitude': 72.9069}",PK,19301,Tarinon,NWFP Peshawar,,,,,,,2020-02-21T22:46:16.122Z,2020-02-21T22:46:16.122Z
903,904,"{'__type': 'GeoPoint', 'latitude': 34.1528, 'longitude': 73.6639}",PK,19301,Nagri,NWFP Peshawar,,,,,,4,2020-02-21T22:46:16.122Z,2020-02-21T22:46:16.122Z
904,905,"{'__type': 'GeoPoint', 'latitude': 34.7058, 'longitude': 72.8475}",PK,19300,Nawagai,NWFP Peshawar,,,,,,4,2020-02-21T22:46:16.122Z,2020-02-21T22:46:16.122Z
905,906,"{'__type': 'GeoPoint', 'latitude': 34.3103, 'longitude': 72.9069}",PK,19301,Kanrohi,NWFP Peshawar,,,,,,,2020-02-21T22:46:16.122Z,2020-02-21T22:46:16.122Z
906,907,"{'__type': 'GeoPoint', 'latitude': 34.7637, 'longitude': 73.3287}",PK,20000,Sazine,NWFP Peshawar,,,,,,,2020-02-21T22:46:16.122Z,2020-02-21T22:46:16.122Z
907,908,"{'__type': 'GeoPoint', 'latitude': 34.3897, 'longitude': 72.5075}",PK,19301,Koga,NWFP Peshawar,,,,,,4,2020-02-21T22:46:16.122Z,2020-02-21T22:46:16.122Z
908,909,"{'__type': 'GeoPoint', 'latitude': 34.6472, 'longitude': 73.3583}",PK,20210,Dullan Wala,Norhern Punajb Rawalpindi,,,,,,,2020-02-21T22:46:16.123Z,2020-02-21T22:46:16.123Z
909,910,"{'__type': 'GeoPoint', 'latitude': 34.8772, 'longitude': 72.8861}",PK,20501,Shang,NWFP Peshawar,,,,,,4,2020-02-21T22:46:16.123Z,2020-02-21T22:46:16.123Z
910,911,"{'__type': 'GeoPoint', 'latitude': 35.0489, 'longitude': 72.8864}",PK,20300,Ranolia,NWFP Peshawar,,,,,,4,2020-02-21T22:46:16.123Z,2020-02-21T22:46:16.123Z
911,912,"{'__type': 'GeoPoint', 'latitude': 35.7167, 'longitude': 75.5167}",PK,20100,Dassu,NWFP Peshawar,,,,,,4,2020-02-21T22:46:16.122Z,2020-02-21T22:46:16.122Z
912,913,"{'__type': 'GeoPoint', 'latitude': 35.3167, 'longitude': 73.25}",PK,20101,Seo,NWFP Peshawar,,,,,,4,2020-02-21T22:46:16.123Z,2020-02-21T22:46:16.123Z
913,914,"{'__type': 'GeoPoint', 'latitude': 34.9319, 'longitude': 72.8778}",PK,20500,Besham,NWFP Peshawar,,,,,,4,2020-02-21T22:46:16.123Z,2020-02-21T22:46:16.123Z
914,915,"{'__type': 'GeoPoint', 'latitude': 34.6472, 'longitude': 73.3583}",PK,20201,Shakan Abad,NWFP Peshawar,,,,,,,2020-02-21T22:46:16.123Z,2020-02-21T22:46:16.123Z
915,916,"{'__type': 'GeoPoint', 'latitude': 35.25, 'longitude': 73.2833}",PK,20101,Jalkot,NWFP Peshawar,,,,,,4,2020-02-21T22:46:16.123Z,2020-02-21T22:46:16.123Z
916,917,"{'__type': 'GeoPoint', 'latitude': 32.1, 'longitude': 73.7}",PK,20501,Batera,NWFP Peshawar,,,,,,4,2020-02-21T22:46:16.123Z,2020-02-21T22:46:16.123Z
917,918,"{'__type': 'GeoPoint', 'latitude': 34.7042, 'longitude': 72.6056}",PK,20400,Sholgara,NWFP Peshawar,,,,,,4,2020-02-21T22:46:16.123Z,2020-02-21T22:46:16.123Z
918,919,"{'__type': 'GeoPoint', 'latitude': 35.0439, 'longitude': 72.9228}",PK,20301,Jijal,NWFP Peshawar,,,,,,4,2020-02-21T22:46:16.123Z,2020-02-21T22:46:16.123Z
919,920,"{'__type': 'GeoPoint', 'latitude': 34.6472, 'longitude': 73.3583}",PK,20200,Pattan,NWFP Peshawar,,,,,,4,2020-02-21T22:46:16.123Z,2020-02-21T22:46:16.123Z
920,921,"{'__type': 'GeoPoint', 'latitude': 34.2258, 'longitude': 72.4428}",PK,21011,Nogram,NWFP Peshawar,,,,,,4,2020-02-21T22:46:16.437Z,2020-02-21T22:46:16.437Z
921,922,"{'__type': 'GeoPoint', 'latitude': 34.8889, 'longitude': 73.0472}",PK,21011,Pashto,NWFP Peshawar,,,,,,4,2020-02-21T22:46:16.437Z,2020-02-21T22:46:16.437Z
922,923,"{'__type': 'GeoPoint', 'latitude': 34.8722, 'longitude': 73.15}",PK,21011,Gantar,NWFP Peshawar,,,,,,4,2020-02-21T22:46:16.437Z,2020-02-21T22:46:16.437Z
923,924,"{'__type': 'GeoPoint', 'latitude': 34.8389, 'longitude': 73.1056}",PK,21011,Rupkani,NWFP Peshawar,,,,,,4,2020-02-21T22:46:16.437Z,2020-02-21T22:46:16.437Z
924,925,"{'__type': 'GeoPoint', 'latitude': 34.8667, 'longitude': 73.1028}",PK,21011,Bojrai,NWFP Peshawar,,,,,,4,2020-02-21T22:46:16.437Z,2020-02-21T22:46:16.437Z
925,926,"{'__type': 'GeoPoint', 'latitude': 33.9323, 'longitude': 72.1629}",PK,21011,Ashar Ban,NWFP Peshawar,,,,,,,2020-02-21T22:46:16.437Z,2020-02-21T22:46:16.437Z
926,927,"{'__type': 'GeoPoint', 'latitude': 34.6083, 'longitude': 73.1069}",PK,21021,Nili Shang,NWFP Peshawar,,,,,,,2020-02-21T22:46:16.437Z,2020-02-21T22:46:16.437Z
927,928,"{'__type': 'GeoPoint', 'latitude': 33.9323, 'longitude': 72.1629}",PK,21011,Nehar,NWFP Peshawar,,,,,,,2020-02-21T22:46:16.437Z,2020-02-21T22:46:16.437Z
928,929,"{'__type': 'GeoPoint', 'latitude': 33.9323, 'longitude': 72.1629}",PK,21011,Batila,NWFP Peshawar,,,,,,,2020-02-21T22:46:16.437Z,2020-02-21T22:46:16.437Z
929,930,"{'__type': 'GeoPoint', 'latitude': 34.4, 'longitude': 71.9014}",PK,21020,Muslim Abad,NWFP Peshawar,,,,,,4,2020-02-21T22:46:16.437Z,2020-02-21T22:46:16.437Z
930,931,"{'__type': 'GeoPoint', 'latitude': 33.9323, 'longitude': 72.1629}",PK,21011,Koyar,NWFP Peshawar,,,,,,,2020-02-21T22:46:16.437Z,2020-02-21T22:46:16.437Z
931,932,"{'__type': 'GeoPoint', 'latitude': 34.6083, 'longitude': 73.1069}",PK,21021,Bai Bala,NWFP Peshawar,,,,,,4,2020-02-21T22:46:16.437Z,2020-02-21T22:46:16.437Z
932,933,"{'__type': 'GeoPoint', 'latitude': 34.75, 'longitude': 72.9167}",PK,21030,Thakot,NWFP Peshawar,,,,,,4,2020-02-21T22:46:16.437Z,2020-02-21T22:46:16.437Z
933,934,"{'__type': 'GeoPoint', 'latitude': 34.6083, 'longitude': 73.1069}",PK,21021,Lachi Mong,NWFP Peshawar,,,,,,,2020-02-21T22:46:16.437Z,2020-02-21T22:46:16.437Z
934,935,"{'__type': 'GeoPoint', 'latitude': 33.9323, 'longitude': 72.1629}",PK,21011,Koshagram,NWFP Peshawar,,,,,,,2020-02-21T22:46:16.437Z,2020-02-21T22:46:16.437Z
935,936,"{'__type': 'GeoPoint', 'latitude': 34.0417, 'longitude': 73.875}",PK,21031,Changal,NWFP Peshawar,,,,,,4,2020-02-21T22:46:16.728Z,2020-02-21T22:46:16.728Z
936,937,"{'__type': 'GeoPoint', 'latitude': 33.9323, 'longitude': 72.1629}",PK,21010,Biari Ayub Khan,NWFP Peshawar,,,,,,,2020-02-21T22:46:16.437Z,2020-02-21T22:46:16.437Z
937,938,"{'__type': 'GeoPoint', 'latitude': 34.6656, 'longitude': 72.7228}",PK,21011,Matai,NWFP Peshawar,,,,,,4,2020-02-21T22:46:16.437Z,2020-02-21T22:46:16.437Z
938,939,"{'__type': 'GeoPoint', 'latitude': 34.4264, 'longitude': 73.4129}",PK,21031,Sajbair,NWFP Peshawar,,,,,,,2020-02-21T22:46:16.728Z,2020-02-21T22:46:16.728Z
939,940,"{'__type': 'GeoPoint', 'latitude': 33.9323, 'longitude': 72.1629}",PK,21011,Kauh Brachar,NWFP Peshawar,,,,,,,2020-02-21T22:46:16.437Z,2020-02-21T22:46:16.437Z
940,941,"{'__type': 'GeoPoint', 'latitude': 34.8111, 'longitude': 72.9508}",PK,21031,Dandai,NWFP Peshawar,,,,,,4,2020-02-21T22:46:16.728Z,2020-02-21T22:46:16.728Z
941,942,"{'__type': 'GeoPoint', 'latitude': 29.1681, 'longitude': 67.5694}",PK,21011,Kucha,NWFP Peshawar,,,,,,4,2020-02-21T22:46:16.437Z,2020-02-21T22:46:16.437Z
942,943,"{'__type': 'GeoPoint', 'latitude': 34.4264, 'longitude': 73.4129}",PK,21031,Maira,NWFP Peshawar,,,,,,,2020-02-21T22:46:16.728Z,2020-02-21T22:46:16.728Z
943,944,"{'__type': 'GeoPoint', 'latitude': 34.7167, 'longitude': 73.15}",PK,21051,Hill,NWFP Peshawar,,,,,,4,2020-02-21T22:46:16.729Z,2020-02-21T22:46:16.729Z
944,945,"{'__type': 'GeoPoint', 'latitude': 34.7397, 'longitude': 72.9783}",PK,21040,Battagram,NWFP Peshawar,,,,,,,2020-02-21T22:46:16.728Z,2020-02-21T22:46:16.728Z
945,946,"{'__type': 'GeoPoint', 'latitude': 33.9323, 'longitude': 72.1629}",PK,21011,Dhundara,NWFP Peshawar,,,,,,,2020-02-21T22:46:16.437Z,2020-02-21T22:46:16.437Z
946,947,"{'__type': 'GeoPoint', 'latitude': 34.4264, 'longitude': 73.4129}",PK,21031,Kanai,NWFP Peshawar,,,,,,,2020-02-21T22:46:16.728Z,2020-02-21T22:46:16.728Z
947,948,"{'__type': 'GeoPoint', 'latitude': 34.7397, 'longitude': 72.9783}",PK,21041,Uttal,NWFP Peshawar,,,,,,,2020-02-21T22:46:16.729Z,2020-02-21T22:46:16.729Z
948,949,"{'__type': 'GeoPoint', 'latitude': 34.4264, 'longitude': 73.4129}",PK,21031,Jham Bera,NWFP Peshawar,,,,,,,2020-02-21T22:46:16.728Z,2020-02-21T22:46:16.728Z
949,950,"{'__type': 'GeoPoint', 'latitude': 34.7397, 'longitude': 72.9783}",PK,21041,Jesole,NWFP Peshawar,,,,,,,2020-02-21T22:46:16.729Z,2020-02-21T22:46:16.729Z
950,951,"{'__type': 'GeoPoint', 'latitude': 34.7397, 'longitude': 72.9783}",PK,21041,Shinggali Bala,NWFP Peshawar,,,,,,,2020-02-21T22:46:16.729Z,2020-02-21T22:46:16.729Z
951,952,"{'__type': 'GeoPoint', 'latitude': 34.7397, 'longitude': 72.9783}",PK,21041,Raj Maira,NWFP Peshawar,,,,,,,2020-02-21T22:46:16.728Z,2020-02-21T22:46:16.728Z
952,953,"{'__type': 'GeoPoint', 'latitude': 34.7397, 'longitude': 72.9783}",PK,21041,Phogora,NWFP Peshawar,,,,,,,2020-02-21T22:46:16.729Z,2020-02-21T22:46:16.729Z
953,954,"{'__type': 'GeoPoint', 'latitude': 34.7397, 'longitude': 72.9783}",PK,21041,Nelli Shang,NWFP Peshawar,,,,,,,2020-02-21T22:46:16.729Z,2020-02-21T22:46:16.729Z
954,955,"{'__type': 'GeoPoint', 'latitude': 34.7167, 'longitude': 73.15}",PK,21050,Bansir,NWFP Peshawar,,,,,,,2020-02-21T22:46:16.729Z,2020-02-21T22:46:16.729Z
955,956,"{'__type': 'GeoPoint', 'latitude': 34.7397, 'longitude': 72.9783}",PK,21041,Kakar Shang,NWFP Peshawar,,,,,,,2020-02-21T22:46:16.728Z,2020-02-21T22:46:16.728Z
956,957,"{'__type': 'GeoPoint', 'latitude': 34.4264, 'longitude': 73.4129}",PK,21031,Largram,NWFP Peshawar,,,,,,,2020-02-21T22:46:16.728Z,2020-02-21T22:46:16.728Z
957,958,"{'__type': 'GeoPoint', 'latitude': 34.5986, 'longitude': 73.1611}",PK,21091,Malkan,NWFP Peshawar,,,,,,4,2020-02-21T22:46:16.989Z,2020-02-21T22:46:16.989Z
958,959,"{'__type': 'GeoPoint', 'latitude': 34.6347, 'longitude': 73.0042}",PK,21060,Kuza Banda,NWFP Peshawar,,,,,,4,2020-02-21T22:46:16.729Z,2020-02-21T22:46:16.729Z
959,960,"{'__type': 'GeoPoint', 'latitude': 34.7397, 'longitude': 72.9783}",PK,21041,Paimal Sharif,NWFP Peshawar,,,,,,4,2020-02-21T22:46:16.728Z,2020-02-21T22:46:16.728Z
960,961,"{'__type': 'GeoPoint', 'latitude': 33.1479, 'longitude': 72.55}",PK,21061,Thikri Bala,NWFP Peshawar,,,,,,,2020-02-21T22:46:16.989Z,2020-02-21T22:46:16.989Z
961,962,"{'__type': 'GeoPoint', 'latitude': 33.1479, 'longitude': 72.55}",PK,21061,Peeriari,NWFP Peshawar,,,,,,,2020-02-21T22:46:16.989Z,2020-02-21T22:46:16.989Z
962,963,"{'__type': 'GeoPoint', 'latitude': 33.7167, 'longitude': 73.0333}",PK,21061,Banian,NWFP Peshawar,,,,,,4,2020-02-21T22:46:16.988Z,2020-02-21T22:46:16.988Z
963,964,"{'__type': 'GeoPoint', 'latitude': 33.1479, 'longitude': 72.55}",PK,21061,Baland Kot,NWFP Peshawar,,,,,,,2020-02-21T22:46:16.989Z,2020-02-21T22:46:16.989Z
964,965,"{'__type': 'GeoPoint', 'latitude': 34.192, 'longitude': 72.746}",PK,21080,Bali Mang,NWFP Peshawar,,,,,,,2020-02-21T22:46:16.989Z,2020-02-21T22:46:16.989Z
965,966,"{'__type': 'GeoPoint', 'latitude': 34.7397, 'longitude': 72.9783}",PK,21041,Chapper Gram,NWFP Peshawar,,,,,,,2020-02-21T22:46:16.729Z,2020-02-21T22:46:16.729Z
966,967,"{'__type': 'GeoPoint', 'latitude': 33.1479, 'longitude': 72.55}",PK,21061,Gijbori,NWFP Peshawar,,,,,,,2020-02-21T22:46:16.988Z,2020-02-21T22:46:16.988Z
967,968,"{'__type': 'GeoPoint', 'latitude': 33.1479, 'longitude': 72.55}",PK,21061,Trand,NWFP Peshawar,,,,,,,2020-02-21T22:46:16.989Z,2020-02-21T22:46:16.989Z
968,969,"{'__type': 'GeoPoint', 'latitude': 33.1479, 'longitude': 72.55}",PK,21061,Mano Maira,NWFP Peshawar,,,,,,,2020-02-21T22:46:16.989Z,2020-02-21T22:46:16.989Z
969,970,"{'__type': 'GeoPoint', 'latitude': 34.192, 'longitude': 72.746}",PK,21070,Chatar Plain,NWFP Peshawar,,,,,,,2020-02-21T22:46:16.989Z,2020-02-21T22:46:16.989Z
970,971,"{'__type': 'GeoPoint', 'latitude': 33.1479, 'longitude': 72.55}",PK,21061,Bando Go,NWFP Peshawar,,,,,,,2020-02-21T22:46:16.989Z,2020-02-21T22:46:16.989Z
971,972,"{'__type': 'GeoPoint', 'latitude': 32.5792, 'longitude': 72.0667}",PK,21061,Gidri,NWFP Peshawar,,,,,,4,2020-02-21T22:46:16.988Z,2020-02-21T22:46:16.988Z
972,973,"{'__type': 'GeoPoint', 'latitude': 33.1479, 'longitude': 72.55}",PK,21061,Bajmera,NWFP Peshawar,,,,,,,2020-02-21T22:46:16.989Z,2020-02-21T22:46:16.989Z
973,974,"{'__type': 'GeoPoint', 'latitude': 33.1479, 'longitude': 72.55}",PK,21061,Sarkheli Banda,NWFP Peshawar,,,,,,,2020-02-21T22:46:16.989Z,2020-02-21T22:46:16.989Z
974,975,"{'__type': 'GeoPoint', 'latitude': 34.3639, 'longitude': 73.0458}",PK,21091,Ahal,NWFP Peshawar,,,,,,4,2020-02-21T22:46:16.989Z,2020-02-21T22:46:16.989Z
975,976,"{'__type': 'GeoPoint', 'latitude': 33.6861, 'longitude': 73.9792}",PK,21090,Battal,NWFP Peshawar,,,,,,4,2020-02-21T22:46:16.989Z,2020-02-21T22:46:16.989Z
976,977,"{'__type': 'GeoPoint', 'latitude': 34.5035, 'longitude': 73.077}",PK,21091,Hil Kot,NWFP Peshawar,,,,,,,2020-02-21T22:46:16.989Z,2020-02-21T22:46:16.989Z
977,978,"{'__type': 'GeoPoint', 'latitude': 34.5653, 'longitude': 73.1889}",PK,21091,Jalgali,NWFP Peshawar,,,,,,4,2020-02-21T22:46:16.989Z,2020-02-21T22:46:16.989Z
978,979,"{'__type': 'GeoPoint', 'latitude': 34.5035, 'longitude': 73.077}",PK,21091,Chinar Kot,NWFP Peshawar,,,,,,,2020-02-21T22:46:17.277Z,2020-02-21T22:46:17.277Z
979,980,"{'__type': 'GeoPoint', 'latitude': 34.4864, 'longitude': 72.9122}",PK,21091,Bai Tarli,NWFP Peshawar,,,,,,4,2020-02-21T22:46:16.989Z,2020-02-21T22:46:16.989Z
980,981,"{'__type': 'GeoPoint', 'latitude': 34.4333, 'longitude': 73.2167}",PK,21110,Baffa,NWFP Peshawar,,,,,,4,2020-02-21T22:46:17.277Z,2020-02-21T22:46:17.277Z
981,982,"{'__type': 'GeoPoint', 'latitude': 34.5035, 'longitude': 73.077}",PK,21091,Malookra,NWFP Peshawar,,,,,,,2020-02-21T22:46:16.989Z,2020-02-21T22:46:16.989Z
982,983,"{'__type': 'GeoPoint', 'latitude': 34.5035, 'longitude': 73.077}",PK,21091,Qazi Abad,NWFP Peshawar,,,,,,,2020-02-21T22:46:17.277Z,2020-02-21T22:46:17.277Z
983,984,"{'__type': 'GeoPoint', 'latitude': 34.4319, 'longitude': 73.1963}",PK,21111,Tarrangri Bala,NWFP Peshawar,,,,,,,2020-02-21T22:46:17.277Z,2020-02-21T22:46:17.277Z
984,985,"{'__type': 'GeoPoint', 'latitude': 34.2589, 'longitude': 71.8317}",PK,21100,Hajiabad,NWFP Peshawar,,,,,,,2020-02-21T22:46:17.277Z,2020-02-21T22:46:17.277Z
985,986,"{'__type': 'GeoPoint', 'latitude': 33.9588, 'longitude': 72.4545}",PK,21101,Kotli Pain,NWFP Peshawar,,,,,,,2020-02-21T22:46:17.277Z,2020-02-21T22:46:17.277Z
986,987,"{'__type': 'GeoPoint', 'latitude': 34.4347, 'longitude': 73.1722}",PK,21111,Sabir Shah,NWFP Peshawar,,,,,,4,2020-02-21T22:46:17.277Z,2020-02-21T22:46:17.277Z
987,988,"{'__type': 'GeoPoint', 'latitude': 34.4319, 'longitude': 73.1963}",PK,21111,Mair Chutar,NWFP Peshawar,,,,,,,2020-02-21T22:46:17.277Z,2020-02-21T22:46:17.277Z
988,989,"{'__type': 'GeoPoint', 'latitude': 33.9588, 'longitude': 72.4545}",PK,21131,Mangon Machhi Pole,NWFP Peshawar,,,,,,,2020-02-21T22:46:17.277Z,2020-02-21T22:46:17.277Z
989,990,"{'__type': 'GeoPoint', 'latitude': 33.9588, 'longitude': 72.4545}",PK,21150,Shinkar Camp,NWFP Peshawar,,,,,,,2020-02-21T22:46:17.277Z,2020-02-21T22:46:17.277Z
990,991,"{'__type': 'GeoPoint', 'latitude': 33.9588, 'longitude': 72.4545}",PK,21131,Mental Hospital,NWFP Peshawar,,,,,,,2020-02-21T22:46:17.277Z,2020-02-21T22:46:17.277Z
991,992,"{'__type': 'GeoPoint', 'latitude': 34.4278, 'longitude': 73.2333}",PK,21111,Banda Piran,NWFP Peshawar,,,,,,4,2020-02-21T22:46:17.277Z,2020-02-21T22:46:17.277Z
992,993,"{'__type': 'GeoPoint', 'latitude': 34.4333, 'longitude': 73.1833}",PK,21111,Guli Bagh,NWFP Peshawar,,,,,,4,2020-02-21T22:46:17.277Z,2020-02-21T22:46:17.277Z
993,994,"{'__type': 'GeoPoint', 'latitude': 33.0644, 'longitude': 72.9733}",PK,21130,Dhudial,NWFP Peshawar,,,,,,,2020-02-21T22:46:17.277Z,2020-02-21T22:46:17.277Z
994,995,"{'__type': 'GeoPoint', 'latitude': 33.2917, 'longitude': 73.4875}",PK,21161,Jabbar,NWFP Peshawar,,,,,,,2020-02-21T22:46:17.277Z,2020-02-21T22:46:17.277Z
995,996,"{'__type': 'GeoPoint', 'latitude': 30.9222, 'longitude': 67.8314}",PK,21160,Dadar,NWFP Peshawar,,,,,,4,2020-02-21T22:46:17.277Z,2020-02-21T22:46:17.277Z
996,997,"{'__type': 'GeoPoint', 'latitude': 30.9222, 'longitude': 67.8314}",PK,21161,Panjool,NWFP Peshawar,,,,,,,2020-02-21T22:46:17.277Z,2020-02-21T22:46:17.277Z
997,998,"{'__type': 'GeoPoint', 'latitude': 30.9222, 'longitude': 67.8314}",PK,21161,Banda Gesach,NWFP Peshawar,,,,,,,2020-02-21T22:46:17.595Z,2020-02-21T22:46:17.595Z
998,999,"{'__type': 'GeoPoint', 'latitude': 34.4517, 'longitude': 73.2694}",PK,21140,Shinkari,NWFP Peshawar,,,,,,,2020-02-21T22:46:17.277Z,2020-02-21T22:46:17.277Z
999,1000,"{'__type': 'GeoPoint', 'latitude': 34.6083, 'longitude': 73.275}",PK,21170,Jabori,NWFP Peshawar,,,,,,4,2020-02-21T22:46:17.595Z,2020-02-21T22:46:17.595Z
